{
"type": "FeatureCollection",
"name": "geo_22_特別支援学校",
"crs": { "type": "name", "properties": { "name": "urn:ogc:def:crs:EPSG::6668" } },
"features": [
{ "type": "Feature", "properties": { "P29_001": "22101", "P29_002": "E122110000018", "P29_003": "16012", "P29_004": "静岡大学教育学部附属特別支援学校", "P29_005": "静岡県静岡市葵区大岩町1-15", "P29_006": "1", "P29_007": "0", "P29_008": "00", "P29_009": null }, "geometry": { "type": "Point", "coordinates": [ 138.379237254099195, 34.99247349258885 ] } },
{ "type": "Feature", "properties": { "P29_001": "22203", "P29_002": "E122210000016", "P29_003": "16012", "P29_004": "静岡県立沼津視覚特別支援学校", "P29_005": "静岡県沼津市米山町6-20", "P29_006": "2", "P29_007": "0", "P29_008": "00", "P29_009": null }, "geometry": { "type": "Point", "coordinates": [ 138.862489699288375, 35.106354232756956 ] } },
{ "type": "Feature", "properties": { "P29_001": "22102", "P29_002": "E122210000025", "P29_003": "16012", "P29_004": "静岡県立静岡視覚特別支援学校", "P29_005": "静岡県静岡市駿河区曲金6-1-5", "P29_006": "2", "P29_007": "0", "P29_008": "00", "P29_009": null }, "geometry": { "type": "Point", "coordinates": [ 138.40878803996975, 34.97997321621412 ] } },
{ "type": "Feature", "properties": { "P29_001": "22131", "P29_002": "E122210000034", "P29_003": "16012", "P29_004": "静岡県立浜松視覚特別支援学校", "P29_005": "静岡県浜松市中区葵西5-9-1", "P29_006": "2", "P29_007": "0", "P29_008": "00", "P29_009": null }, "geometry": { "type": "Point", "coordinates": [ 137.703389524173474, 34.775670018172683 ] } },
{ "type": "Feature", "properties": { "P29_001": "22136", "P29_002": "E122210000043", "P29_003": "16012", "P29_004": "静岡県立浜北特別支援学校", "P29_005": "静岡県浜松市浜北区西中瀬2-3-1", "P29_006": "2", "P29_007": "0", "P29_008": "00", "P29_009": null }, "geometry": { "type": "Point", "coordinates": [ 137.803711815237705, 34.820576138414452 ] } },
{ "type": "Feature", "properties": { "P29_001": "22325", "P29_002": "E122210000052", "P29_003": "16012", "P29_004": "静岡県立沼津特別支援学校伊豆田方分校", "P29_005": "静岡県田方郡函南町塚本961", "P29_006": "2", "P29_007": "0", "P29_008": "00", "P29_009": null }, "geometry": { "type": "Point", "coordinates": [ 138.942406245867176, 35.080777383927007 ] } },
{ "type": "Feature", "properties": { "P29_001": "22203", "P29_002": "E122210000061", "P29_003": "16012", "P29_004": "静岡県立沼津聴覚特別支援学校", "P29_005": "静岡県沼津市泉町4-1", "P29_006": "2", "P29_007": "0", "P29_008": "00", "P29_009": null }, "geometry": { "type": "Point", "coordinates": [ 138.863592690560722, 35.11126500045058 ] } },
{ "type": "Feature", "properties": { "P29_001": "22102", "P29_002": "E122210000070", "P29_003": "16012", "P29_004": "静岡県立静岡聴覚特別支援学校", "P29_005": "静岡県静岡市駿河区中村町251", "P29_006": "2", "P29_007": "0", "P29_008": "00", "P29_009": null }, "geometry": { "type": "Point", "coordinates": [ 138.392396058176018, 34.950922021438942 ] } },
{ "type": "Feature", "properties": { "P29_001": "22131", "P29_002": "E122210000089", "P29_003": "16012", "P29_004": "静岡県立浜松聴覚特別支援学校", "P29_005": "静岡県浜松市中区幸3-25-1", "P29_006": "2", "P29_007": "0", "P29_008": "00", "P29_009": null }, "geometry": { "type": "Point", "coordinates": [ 137.732311997534936, 34.742945001249453 ] } },
{ "type": "Feature", "properties": { "P29_001": "22101", "P29_002": "E122210000098", "P29_003": "16012", "P29_004": "静岡県立中央特別支援学校", "P29_005": "静岡県静岡市葵区漆山777", "P29_006": "2", "P29_007": "0", "P29_008": "00", "P29_009": null }, "geometry": { "type": "Point", "coordinates": [ 138.396594800557949, 35.021037325868278 ] } },
{ "type": "Feature", "properties": { "P29_001": "22225", "P29_002": "E122210000105", "P29_003": "16012", "P29_004": "静岡県立東部特別支援学校", "P29_005": "静岡県伊豆の国市寺家246-1", "P29_006": "2", "P29_007": "0", "P29_008": "00", "P29_009": null }, "geometry": { "type": "Point", "coordinates": [ 138.94443711735579, 35.047440022244039 ] } },
{ "type": "Feature", "properties": { "P29_001": "22135", "P29_002": "E122210000114", "P29_003": "16012", "P29_004": "静岡県立西部特別支援学校", "P29_005": "静岡県浜松市北区根洗町597-1", "P29_006": "2", "P29_007": "0", "P29_008": "00", "P29_009": null }, "geometry": { "type": "Point", "coordinates": [ 137.68589600053815, 34.790754675848056 ] } },
{ "type": "Feature", "properties": { "P29_001": "22137", "P29_002": "E122210000123", "P29_003": "16012", "P29_004": "静岡県立天竜特別支援学校", "P29_005": "静岡県浜松市天竜区渡ヶ島201-2", "P29_006": "2", "P29_007": "0", "P29_008": "00", "P29_009": null }, "geometry": { "type": "Point", "coordinates": [ 137.798216949768829, 34.857736748313506 ] } },
{ "type": "Feature", "properties": { "P29_001": "22101", "P29_002": "E122210000132", "P29_003": "16012", "P29_004": "静岡県立静岡北特別支援学校", "P29_005": "静岡県静岡市葵区漆山796", "P29_006": "2", "P29_007": "0", "P29_008": "00", "P29_009": null }, "geometry": { "type": "Point", "coordinates": [ 138.398275409345729, 35.020788052296524 ] } },
{ "type": "Feature", "properties": { "P29_001": "22134", "P29_002": "E122210000141", "P29_003": "16012", "P29_004": "静岡県立浜松特別支援学校", "P29_005": "静岡県浜松市南区江之島町1266-2", "P29_006": "2", "P29_007": "0", "P29_008": "00", "P29_009": null }, "geometry": { "type": "Point", "coordinates": [ 137.754626653479136, 34.66283171851461 ] } },
{ "type": "Feature", "properties": { "P29_001": "22203", "P29_002": "E122210000150", "P29_003": "16012", "P29_004": "静岡県立沼津特別支援学校", "P29_005": "静岡県沼津市大塚823-1", "P29_006": "2", "P29_007": "0", "P29_008": "00", "P29_009": null }, "geometry": { "type": "Point", "coordinates": [ 138.81004029231687, 35.128291329655717 ] } },
{ "type": "Feature", "properties": { "P29_001": "22221", "P29_002": "E122210000169", "P29_003": "16012", "P29_004": "静岡県立浜名特別支援学校", "P29_005": "静岡県湖西市新居町浜名1855-71", "P29_006": "2", "P29_007": "0", "P29_008": "00", "P29_009": null }, "geometry": { "type": "Point", "coordinates": [ 137.539440437700478, 34.686619201382157 ] } },
{ "type": "Feature", "properties": { "P29_001": "22211", "P29_002": "E122210000187", "P29_003": "16012", "P29_004": "静岡県立浜松特別支援学校磐田分校", "P29_005": "静岡県磐田市西貝塚3577-1", "P29_006": "2", "P29_007": "0", "P29_008": "00", "P29_009": null }, "geometry": { "type": "Point", "coordinates": [ 137.875801390582893, 34.731656343842275 ] } },
{ "type": "Feature", "properties": { "P29_001": "22102", "P29_002": "E122210000196", "P29_003": "16012", "P29_004": "静岡県立静岡南部特別支援学校", "P29_005": "静岡県静岡市駿河区曲金5-3-30", "P29_006": "2", "P29_007": "0", "P29_008": "00", "P29_009": null }, "geometry": { "type": "Point", "coordinates": [ 138.411932512888143, 34.976806867660891 ] } },
{ "type": "Feature", "properties": { "P29_001": "22214", "P29_002": "E122210000203", "P29_003": "16012", "P29_004": "静岡県立藤枝特別支援学校", "P29_005": "静岡県藤枝市前島2281-1", "P29_006": "2", "P29_007": "0", "P29_008": "00", "P29_009": null }, "geometry": { "type": "Point", "coordinates": [ 138.24795033572488, 34.836435512702316 ] } },
{ "type": "Feature", "properties": { "P29_001": "22210", "P29_002": "E122210000212", "P29_003": "16012", "P29_004": "静岡県立富士特別支援学校", "P29_005": "静岡県富士市大渕3773-1", "P29_006": "2", "P29_007": "0", "P29_008": "00", "P29_009": null }, "geometry": { "type": "Point", "coordinates": [ 138.671964755594018, 35.215611007968192 ] } },
{ "type": "Feature", "properties": { "P29_001": "22216", "P29_002": "E122210000221", "P29_003": "16012", "P29_004": "静岡県立袋井特別支援学校", "P29_005": "静岡県袋井市高尾2753-1", "P29_006": "2", "P29_007": "0", "P29_008": "00", "P29_009": null }, "geometry": { "type": "Point", "coordinates": [ 137.930945232272478, 34.732561086606786 ] } },
{ "type": "Feature", "properties": { "P29_001": "22208", "P29_002": "E122210000230", "P29_003": "16012", "P29_004": "静岡県立東部特別支援学校伊東分校", "P29_005": "静岡県伊東市幸町1-5", "P29_006": "2", "P29_007": "0", "P29_008": "00", "P29_009": null }, "geometry": { "type": "Point", "coordinates": [ 139.09264461629607, 34.958620267460454 ] } },
{ "type": "Feature", "properties": { "P29_001": "22215", "P29_002": "E122210000249", "P29_003": "16012", "P29_004": "静岡県立御殿場特別支援学校", "P29_005": "静岡県御殿場市神山1553-3", "P29_006": "2", "P29_007": "0", "P29_008": "00", "P29_009": null }, "geometry": { "type": "Point", "coordinates": [ 138.905909292939015, 35.235947044164377 ] } },
{ "type": "Feature", "properties": { "P29_001": "22102", "P29_002": "E122210000258", "P29_003": "16012", "P29_004": "静岡県立静岡北特別支援学校南の丘分校", "P29_005": "静岡県静岡市駿河区有東3-4-17", "P29_006": "2", "P29_007": "0", "P29_008": "00", "P29_009": null }, "geometry": { "type": "Point", "coordinates": [ 138.410406382344632, 34.963591665279409 ] } },
{ "type": "Feature", "properties": { "P29_001": "22223", "P29_002": "E122210000267", "P29_003": "16012", "P29_004": "静岡県立掛川特別支援学校御前崎分校", "P29_005": "静岡県御前崎市池新田2907-1", "P29_006": "2", "P29_007": "0", "P29_008": "00", "P29_009": null }, "geometry": { "type": "Point", "coordinates": [ 138.127787760495295, 34.650989606352049 ] } },
{ "type": "Feature", "properties": { "P29_001": "22208", "P29_002": "E122210000276", "P29_003": "16012", "P29_004": "静岡県立東部特別支援学校伊豆高原分校", "P29_005": "静岡県伊東市吉田748-1", "P29_006": "2", "P29_007": "0", "P29_008": "00", "P29_009": null }, "geometry": { "type": "Point", "coordinates": [ 139.116614372831691, 34.944602291562383 ] } },
{ "type": "Feature", "properties": { "P29_001": "22219", "P29_002": "E122210000285", "P29_003": "16012", "P29_004": "静岡県立伊豆の国特別支援学校伊豆下田分校", "P29_005": "静岡県下田市5-3-1", "P29_006": "2", "P29_007": "0", "P29_008": "00", "P29_009": null }, "geometry": { "type": "Point", "coordinates": [ 138.939766107582159, 34.672490622798776 ] } },
{ "type": "Feature", "properties": { "P29_001": "22103", "P29_002": "E122210000294", "P29_003": "16012", "P29_004": "静岡県立清水特別支援学校", "P29_005": "静岡県静岡市清水区八坂東1-16-1", "P29_006": "2", "P29_007": "0", "P29_008": "00", "P29_009": null }, "geometry": { "type": "Point", "coordinates": [ 138.479208488801419, 35.036068354673958 ] } },
{ "type": "Feature", "properties": { "P29_001": "22211", "P29_002": "E122210000301", "P29_003": "16012", "P29_004": "静岡県立袋井特別支援学校磐田見付分校", "P29_005": "静岡県磐田市見付2031-2", "P29_006": "2", "P29_007": "0", "P29_008": "00", "P29_009": null }, "geometry": { "type": "Point", "coordinates": [ 137.855313774759452, 34.731554888154683 ] } },
{ "type": "Feature", "properties": { "P29_001": "22305", "P29_002": "E122210000310", "P29_003": "16012", "P29_004": "静岡県立伊豆の国特別支援学校伊豆松崎分校", "P29_005": "静岡県賀茂郡松崎町桜田188", "P29_006": "2", "P29_007": "0", "P29_008": "00", "P29_009": null }, "geometry": { "type": "Point", "coordinates": [ 138.788726577698839, 34.757746990455836 ] } },
{ "type": "Feature", "properties": { "P29_001": "22207", "P29_002": "E122210000329", "P29_003": "16012", "P29_004": "静岡県立富士特別支援学校富士宮分校", "P29_005": "静岡県富士宮市宮北町233", "P29_006": "2", "P29_007": "0", "P29_008": "00", "P29_009": null }, "geometry": { "type": "Point", "coordinates": [ 138.609809049812526, 35.236505257686325 ] } },
{ "type": "Feature", "properties": { "P29_001": "22131", "P29_002": "E122210000338", "P29_003": "16012", "P29_004": "静岡県立浜松特別支援学校城北分校", "P29_005": "静岡県浜松市中区住吉5-16-1", "P29_006": "2", "P29_007": "0", "P29_008": "00", "P29_009": null }, "geometry": { "type": "Point", "coordinates": [ 137.726810019895055, 34.736849763051261 ] } },
{ "type": "Feature", "properties": { "P29_001": "22203", "P29_002": "E122210000347", "P29_003": "16012", "P29_004": "静岡県立沼津特別支援学校愛鷹分校", "P29_005": "静岡県沼津市岡一色875", "P29_006": "2", "P29_007": "0", "P29_008": "00", "P29_009": null }, "geometry": { "type": "Point", "coordinates": [ 138.877198004224852, 35.124553003430592 ] } },
{ "type": "Feature", "properties": { "P29_001": "22212", "P29_002": "E122210000356", "P29_003": "16012", "P29_004": "静岡県立藤枝特別支援学校焼津分校", "P29_005": "静岡県焼津市焼津5-5-2", "P29_006": "2", "P29_007": "0", "P29_008": "00", "P29_009": null }, "geometry": { "type": "Point", "coordinates": [ 138.31748829199816, 34.860080685913253 ] } },
{ "type": "Feature", "properties": { "P29_001": "22213", "P29_002": "E122210000365", "P29_003": "16012", "P29_004": "静岡県立掛川特別支援学校", "P29_005": "静岡県掛川市杉谷南1-1-2", "P29_006": "2", "P29_007": "0", "P29_008": "00", "P29_009": null }, "geometry": { "type": "Point", "coordinates": [ 138.025477883726751, 34.761442417951407 ] } },
{ "type": "Feature", "properties": { "P29_001": "22424", "P29_002": "E122210000374", "P29_003": "16012", "P29_004": "静岡県立吉田特別支援学校", "P29_005": "静岡県榛原郡吉田町片岡2130", "P29_006": "2", "P29_007": "0", "P29_008": "00", "P29_009": null }, "geometry": { "type": "Point", "coordinates": [ 138.252799736108528, 34.776991392342936 ] } },
{ "type": "Feature", "properties": { "P29_001": "22225", "P29_002": "E122210000383", "P29_003": "16012", "P29_004": "静岡県立伊豆の国特別支援学校", "P29_005": "静岡県伊豆の国市寺家235", "P29_006": "2", "P29_007": "0", "P29_008": "00", "P29_009": null }, "geometry": { "type": "Point", "coordinates": [ 138.944170009990472, 35.048661590975421 ] } },
{ "type": "Feature", "properties": { "P29_001": "22135", "P29_002": "E122210000392", "P29_003": "16012", "P29_004": "静岡県立浜松みをつくし特別支援学校", "P29_005": "静岡県浜松市北区細江町広岡1", "P29_006": "2", "P29_007": "0", "P29_008": "00", "P29_009": null }, "geometry": { "type": "Point", "coordinates": [ 137.663756468944626, 34.812917877678125 ] } },
{ "type": "Feature", "properties": { "P29_001": "22210", "P29_002": "E122210000400", "P29_003": "16012", "P29_004": "静岡県立富士特別支援学校富士東分校", "P29_005": "静岡県富士市今泉2921", "P29_006": "2", "P29_007": "0", "P29_008": "00", "P29_009": null }, "geometry": { "type": "Point", "coordinates": [ 138.700456225058957, 35.1805498335995 ] } },
{ "type": "Feature", "properties": { "P29_001": "22213", "P29_002": "E122310000014", "P29_003": "16012", "P29_004": "特別支援学校ねむの木", "P29_005": "静岡県掛川市上垂木2979-2", "P29_006": "4", "P29_007": "0", "P29_008": "00", "P29_009": null }, "geometry": { "type": "Point", "coordinates": [ 137.997892774746845, 34.823855324859103 ] } }
]
}
