{
"type": "FeatureCollection",
"name": "geo_22_中学校",
"crs": { "type": "name", "properties": { "name": "urn:ogc:def:crs:EPSG::6668" } },
"features": [
{ "type": "Feature", "properties": { "P29_001": "22101", "P29_002": "C122110000013", "P29_003": "16002", "P29_004": "静岡大学教育学部附属静岡中学校", "P29_005": "静岡県静岡市葵区駿府町1-86", "P29_006": "1", "P29_007": "1", "P29_008": "00", "P29_009": null }, "geometry": { "type": "Point", "coordinates": [ 138.386209080914483, 34.979146056871173 ] } },
{ "type": "Feature", "properties": { "P29_001": "22131", "P29_002": "C122110000022", "P29_003": "16002", "P29_004": "静岡大学教育学部附属浜松中学校", "P29_005": "静岡県浜松市中区布橋3-2-2", "P29_006": "1", "P29_007": "1", "P29_008": "00", "P29_009": null }, "geometry": { "type": "Point", "coordinates": [ 137.712740460856281, 34.719907680442041 ] } },
{ "type": "Feature", "properties": { "P29_001": "22209", "P29_002": "C122110000031", "P29_003": "16002", "P29_004": "静岡大学教育学部附属島田中学校", "P29_005": "静岡県島田市中河町169", "P29_006": "1", "P29_007": "1", "P29_008": "00", "P29_009": null }, "geometry": { "type": "Point", "coordinates": [ 138.176238931573181, 34.843690490687543 ] } },
{ "type": "Feature", "properties": { "P29_001": "22203", "P29_002": "C122210000011", "P29_003": "16002", "P29_004": "沼津市立第一中学校", "P29_005": "静岡県沼津市丸子町692-1", "P29_006": "3", "P29_007": "1", "P29_008": "00", "P29_009": null }, "geometry": { "type": "Point", "coordinates": [ 138.849300411828807, 35.103472271540085 ] } },
{ "type": "Feature", "properties": { "P29_001": "22203", "P29_002": "C122210000020", "P29_003": "16002", "P29_004": "沼津市立第二中学校", "P29_005": "静岡県沼津市本字千本1910-19", "P29_006": "3", "P29_007": "1", "P29_008": "00", "P29_009": null }, "geometry": { "type": "Point", "coordinates": [ 138.846285599967587, 35.097345503278014 ] } },
{ "type": "Feature", "properties": { "P29_001": "22203", "P29_002": "C122210000039", "P29_003": "16002", "P29_004": "沼津市立第三中学校", "P29_005": "静岡県沼津市下香貫木ノ宮888", "P29_006": "3", "P29_007": "1", "P29_008": "00", "P29_009": null }, "geometry": { "type": "Point", "coordinates": [ 138.880656602692824, 35.083931975960674 ] } },
{ "type": "Feature", "properties": { "P29_001": "22203", "P29_002": "C122210000048", "P29_003": "16002", "P29_004": "沼津市立第四中学校", "P29_005": "静岡県沼津市本郷町24-1", "P29_006": "3", "P29_007": "1", "P29_008": "00", "P29_009": null }, "geometry": { "type": "Point", "coordinates": [ 138.871781723561526, 35.092397132692625 ] } },
{ "type": "Feature", "properties": { "P29_001": "22203", "P29_002": "C122210000057", "P29_003": "16002", "P29_004": "沼津市立第五中学校", "P29_005": "静岡県沼津市五月町15-1", "P29_006": "3", "P29_007": "1", "P29_008": "00", "P29_009": null }, "geometry": { "type": "Point", "coordinates": [ 138.864386857101834, 35.113788274408982 ] } },
{ "type": "Feature", "properties": { "P29_001": "22203", "P29_002": "C122210000066", "P29_003": "16002", "P29_004": "沼津市立片浜中学校", "P29_005": "静岡県沼津市小諏訪180", "P29_006": "3", "P29_007": "1", "P29_008": "00", "P29_009": null }, "geometry": { "type": "Point", "coordinates": [ 138.839739292968659, 35.106169137074154 ] } },
{ "type": "Feature", "properties": { "P29_001": "22203", "P29_002": "C122210000075", "P29_003": "16002", "P29_004": "沼津市立金岡中学校", "P29_005": "静岡県沼津市神田町4-1", "P29_006": "3", "P29_007": "1", "P29_008": "00", "P29_009": null }, "geometry": { "type": "Point", "coordinates": [ 138.866251996464683, 35.116120999019522 ] } },
{ "type": "Feature", "properties": { "P29_001": "22203", "P29_002": "C122210000084", "P29_003": "16002", "P29_004": "沼津市立大岡中学校", "P29_005": "静岡県沼津市大岡2110", "P29_006": "3", "P29_007": "1", "P29_008": "00", "P29_009": null }, "geometry": { "type": "Point", "coordinates": [ 138.874205616766432, 35.115065982904184 ] } },
{ "type": "Feature", "properties": { "P29_001": "22203", "P29_002": "C122210000093", "P29_003": "16002", "P29_004": "沼津市立静浦中学校", "P29_005": "静岡県沼津市獅子浜17", "P29_006": "3", "P29_007": "1", "P29_008": "00", "P29_009": null }, "geometry": { "type": "Point", "coordinates": [ 138.88564775062207, 35.050806211848212 ] } },
{ "type": "Feature", "properties": { "P29_001": "22203", "P29_002": "C122210000100", "P29_003": "16002", "P29_004": "沼津市立愛鷹中学校", "P29_005": "静岡県沼津市西椎路733", "P29_006": "3", "P29_007": "1", "P29_008": "00", "P29_009": null }, "geometry": { "type": "Point", "coordinates": [ 138.828532105755727, 35.133552443759797 ] } },
{ "type": "Feature", "properties": { "P29_001": "22203", "P29_002": "C122210000119", "P29_003": "16002", "P29_004": "沼津市立大平中学校", "P29_005": "静岡県沼津市大平1144", "P29_006": "3", "P29_007": "1", "P29_008": "00", "P29_009": null }, "geometry": { "type": "Point", "coordinates": [ 138.903066598823415, 35.07097118687701 ] } },
{ "type": "Feature", "properties": { "P29_001": "22203", "P29_002": "C122210000128", "P29_003": "16002", "P29_004": "沼津市立今沢中学校", "P29_005": "静岡県沼津市東原字下方通289-1", "P29_006": "3", "P29_007": "1", "P29_008": "00", "P29_009": null }, "geometry": { "type": "Point", "coordinates": [ 138.816409308545332, 35.125422766102062 ] } },
{ "type": "Feature", "properties": { "P29_001": "22203", "P29_002": "C122210000137", "P29_003": "16002", "P29_004": "沼津市立門池中学校", "P29_005": "静岡県沼津市岡一色657-1", "P29_006": "3", "P29_007": "1", "P29_008": "00", "P29_009": null }, "geometry": { "type": "Point", "coordinates": [ 138.878036286993932, 35.132216899254388 ] } },
{ "type": "Feature", "properties": { "P29_001": "22203", "P29_002": "C122210000146", "P29_003": "16002", "P29_004": "沼津市立沼津高等学校中等部", "P29_005": "静岡県沼津市三枚橋字鐘突免673", "P29_006": "3", "P29_007": "1", "P29_008": "00", "P29_009": null }, "geometry": { "type": "Point", "coordinates": [ 138.867041757785586, 35.112172813934293 ] } },
{ "type": "Feature", "properties": { "P29_001": "22205", "P29_002": "C122210000155", "P29_003": "16002", "P29_004": "熱海市立初島中学校", "P29_005": "静岡県熱海市初島219", "P29_006": "3", "P29_007": "1", "P29_008": "00", "P29_009": null }, "geometry": { "type": "Point", "coordinates": [ 139.1706729155961, 35.042224330174506 ] } },
{ "type": "Feature", "properties": { "P29_001": "22205", "P29_002": "C122210000164", "P29_003": "16002", "P29_004": "熱海市立多賀中学校", "P29_005": "静岡県熱海市下多賀1549-1", "P29_006": "3", "P29_007": "1", "P29_008": "00", "P29_009": null }, "geometry": { "type": "Point", "coordinates": [ 139.064762538130566, 35.046650933203956 ] } },
{ "type": "Feature", "properties": { "P29_001": "22205", "P29_002": "C122210000173", "P29_003": "16002", "P29_004": "熱海市立泉中学校", "P29_005": "静岡県熱海市泉280", "P29_006": "3", "P29_007": "1", "P29_008": "00", "P29_009": null }, "geometry": { "type": "Point", "coordinates": [ 139.080797867131423, 35.135954707626205 ] } },
{ "type": "Feature", "properties": { "P29_001": "22205", "P29_002": "C122210000182", "P29_003": "16002", "P29_004": "熱海市立熱海中学校", "P29_005": "静岡県熱海市桃山町7-7", "P29_006": "3", "P29_007": "1", "P29_008": "00", "P29_009": null }, "geometry": { "type": "Point", "coordinates": [ 139.074717664163188, 35.105910661444817 ] } },
{ "type": "Feature", "properties": { "P29_001": "22206", "P29_002": "C122210000191", "P29_003": "16002", "P29_004": "三島市立南中学校", "P29_005": "静岡県三島市富田町6-18", "P29_006": "3", "P29_007": "1", "P29_008": "00", "P29_009": null }, "geometry": { "type": "Point", "coordinates": [ 138.918349565679563, 35.108909476669979 ] } },
{ "type": "Feature", "properties": { "P29_001": "22206", "P29_002": "C122210000208", "P29_003": "16002", "P29_004": "三島市立北中学校", "P29_005": "静岡県三島市文教町2-32-60", "P29_006": "3", "P29_007": "1", "P29_008": "00", "P29_009": null }, "geometry": { "type": "Point", "coordinates": [ 138.915324947998897, 35.130610773873968 ] } },
{ "type": "Feature", "properties": { "P29_001": "22206", "P29_002": "C122210000217", "P29_003": "16002", "P29_004": "三島市立中郷中学校", "P29_005": "静岡県三島市大場250-1", "P29_006": "3", "P29_007": "1", "P29_008": "00", "P29_009": null }, "geometry": { "type": "Point", "coordinates": [ 138.936025869140167, 35.093412379376801 ] } },
{ "type": "Feature", "properties": { "P29_001": "22206", "P29_002": "C122210000226", "P29_003": "16002", "P29_004": "三島市立錦田中学校", "P29_005": "静岡県三島市谷田1505", "P29_006": "3", "P29_007": "1", "P29_008": "00", "P29_009": null }, "geometry": { "type": "Point", "coordinates": [ 138.938201892993504, 35.121816320414467 ] } },
{ "type": "Feature", "properties": { "P29_001": "22206", "P29_002": "C122210000235", "P29_003": "16002", "P29_004": "三島市立北上中学校", "P29_005": "静岡県三島市徳倉767-2", "P29_006": "3", "P29_007": "1", "P29_008": "00", "P29_009": null }, "geometry": { "type": "Point", "coordinates": [ 138.91754853218066, 35.152813691230442 ] } },
{ "type": "Feature", "properties": { "P29_001": "22206", "P29_002": "C122210000244", "P29_003": "16002", "P29_004": "三島市立中郷西中学校", "P29_005": "静岡県三島市梅名854-1", "P29_006": "3", "P29_007": "1", "P29_008": "00", "P29_009": null }, "geometry": { "type": "Point", "coordinates": [ 138.922793282859743, 35.089781457055636 ] } },
{ "type": "Feature", "properties": { "P29_001": "22206", "P29_002": "C122210000253", "P29_003": "16002", "P29_004": "三島市立山田中学校", "P29_005": "静岡県三島市川原ヶ谷842-4", "P29_006": "3", "P29_007": "1", "P29_008": "00", "P29_009": null }, "geometry": { "type": "Point", "coordinates": [ 138.935997519344653, 35.134858881237044 ] } },
{ "type": "Feature", "properties": { "P29_001": "22207", "P29_002": "C122210000262", "P29_003": "16002", "P29_004": "富士宮市立富士宮第一中学校", "P29_005": "静岡県富士宮市矢立町814", "P29_006": "3", "P29_007": "1", "P29_008": "00", "P29_009": null }, "geometry": { "type": "Point", "coordinates": [ 138.623916519246194, 35.225299442666561 ] } },
{ "type": "Feature", "properties": { "P29_001": "22207", "P29_002": "C122210000271", "P29_003": "16002", "P29_004": "富士宮市立富士宮第二中学校", "P29_005": "静岡県富士宮市豊町17-1", "P29_006": "3", "P29_007": "1", "P29_008": "00", "P29_009": null }, "geometry": { "type": "Point", "coordinates": [ 138.613507513803768, 35.230356787977854 ] } },
{ "type": "Feature", "properties": { "P29_001": "22207", "P29_002": "C122210000280", "P29_003": "16002", "P29_004": "富士宮市立富士宮第三中学校", "P29_005": "静岡県富士宮市野中658", "P29_006": "3", "P29_007": "1", "P29_008": "00", "P29_009": null }, "geometry": { "type": "Point", "coordinates": [ 138.603424475894002, 35.219497042229044 ] } },
{ "type": "Feature", "properties": { "P29_001": "22207", "P29_002": "C122210000299", "P29_003": "16002", "P29_004": "富士宮市立富士宮第四中学校", "P29_005": "静岡県富士宮市穂波町13-1", "P29_006": "3", "P29_007": "1", "P29_008": "00", "P29_009": null }, "geometry": { "type": "Point", "coordinates": [ 138.597142092452174, 35.234918895316362 ] } },
{ "type": "Feature", "properties": { "P29_001": "22207", "P29_002": "C122210000306", "P29_003": "16002", "P29_004": "富士宮市立富士根南中学校", "P29_005": "静岡県富士宮市小泉1996", "P29_006": "3", "P29_007": "1", "P29_008": "00", "P29_009": null }, "geometry": { "type": "Point", "coordinates": [ 138.638674462806563, 35.224029110967201 ] } },
{ "type": "Feature", "properties": { "P29_001": "22207", "P29_002": "C122210000315", "P29_003": "16002", "P29_004": "富士宮市立富士根北中学校", "P29_005": "静岡県富士宮市村山935-1", "P29_006": "3", "P29_007": "1", "P29_008": "00", "P29_009": null }, "geometry": { "type": "Point", "coordinates": [ 138.655883490533711, 35.250757130768307 ] } },
{ "type": "Feature", "properties": { "P29_001": "22207", "P29_002": "C122210000324", "P29_003": "16002", "P29_004": "富士宮市立北山中学校", "P29_005": "静岡県富士宮市北山1092", "P29_006": "3", "P29_007": "1", "P29_008": "00", "P29_009": null }, "geometry": { "type": "Point", "coordinates": [ 138.607010382466456, 35.278216199426716 ] } },
{ "type": "Feature", "properties": { "P29_001": "22207", "P29_002": "C122210000333", "P29_003": "16002", "P29_004": "富士宮市立西富士中学校", "P29_005": "静岡県富士宮市上井出918-1", "P29_006": "3", "P29_007": "1", "P29_008": "00", "P29_009": null }, "geometry": { "type": "Point", "coordinates": [ 138.588104475115699, 35.320779948547624 ] } },
{ "type": "Feature", "properties": { "P29_001": "22207", "P29_002": "C122210000342", "P29_003": "16002", "P29_004": "富士宮市立井之頭中学校", "P29_005": "静岡県富士宮市猪之頭999", "P29_006": "3", "P29_007": "1", "P29_008": "00", "P29_009": null }, "geometry": { "type": "Point", "coordinates": [ 138.566645942266291, 35.374706582903144 ] } },
{ "type": "Feature", "properties": { "P29_001": "22207", "P29_002": "C122210000351", "P29_003": "16002", "P29_004": "富士宮市立上野中学校", "P29_005": "静岡県富士宮市精進川410", "P29_006": "3", "P29_007": "1", "P29_008": "00", "P29_009": null }, "geometry": { "type": "Point", "coordinates": [ 138.573508667876041, 35.277374209792825 ] } },
{ "type": "Feature", "properties": { "P29_001": "22207", "P29_002": "C122210000360", "P29_003": "16002", "P29_004": "富士宮市立大富士中学校", "P29_005": "静岡県富士宮市万野原新田4115-1", "P29_006": "3", "P29_007": "1", "P29_008": "00", "P29_009": null }, "geometry": { "type": "Point", "coordinates": [ 138.61867421877534, 35.253890158382404 ] } },
{ "type": "Feature", "properties": { "P29_001": "22208", "P29_002": "C122210000379", "P29_003": "16002", "P29_004": "伊東市立南中学校", "P29_005": "静岡県伊東市玖須美元和田729-1", "P29_006": "3", "P29_007": "1", "P29_008": "00", "P29_009": null }, "geometry": { "type": "Point", "coordinates": [ 139.107178230276531, 34.954490577554772 ] } },
{ "type": "Feature", "properties": { "P29_001": "22208", "P29_002": "C122210000388", "P29_003": "16002", "P29_004": "伊東市立北中学校", "P29_005": "静岡県伊東市湯川360-1", "P29_006": "3", "P29_007": "1", "P29_008": "00", "P29_009": null }, "geometry": { "type": "Point", "coordinates": [ 139.087974537780354, 34.977753246831234 ] } },
{ "type": "Feature", "properties": { "P29_001": "22208", "P29_002": "C122210000397", "P29_003": "16002", "P29_004": "伊東市立宇佐美中学校", "P29_005": "静岡県伊東市宇佐美1537-1", "P29_006": "3", "P29_007": "1", "P29_008": "00", "P29_009": null }, "geometry": { "type": "Point", "coordinates": [ 139.077537244209623, 35.007006987296862 ] } },
{ "type": "Feature", "properties": { "P29_001": "22208", "P29_002": "C122210000404", "P29_003": "16002", "P29_004": "伊東市立対島中学校", "P29_005": "静岡県伊東市八幡野1128-3", "P29_006": "3", "P29_007": "1", "P29_008": "00", "P29_009": null }, "geometry": { "type": "Point", "coordinates": [ 139.112122331726624, 34.884735100607649 ] } },
{ "type": "Feature", "properties": { "P29_001": "22208", "P29_002": "C122210000413", "P29_003": "16002", "P29_004": "伊東市立門野中学校", "P29_005": "静岡県伊東市鎌田1281-63", "P29_006": "3", "P29_007": "1", "P29_008": "00", "P29_009": null }, "geometry": { "type": "Point", "coordinates": [ 139.086782716274087, 34.944550175580979 ] } },
{ "type": "Feature", "properties": { "P29_001": "22210", "P29_002": "C122210000422", "P29_003": "16002", "P29_004": "富士市立吉原第一中学校", "P29_005": "静岡県富士市永田北町7-1", "P29_006": "3", "P29_007": "1", "P29_008": "00", "P29_009": null }, "geometry": { "type": "Point", "coordinates": [ 138.676228107141782, 35.164863007165806 ] } },
{ "type": "Feature", "properties": { "P29_001": "22210", "P29_002": "C122210000431", "P29_003": "16002", "P29_004": "富士市立吉原第二中学校", "P29_005": "静岡県富士市今泉1955", "P29_006": "3", "P29_007": "1", "P29_008": "00", "P29_009": null }, "geometry": { "type": "Point", "coordinates": [ 138.692823002499239, 35.170527997724797 ] } },
{ "type": "Feature", "properties": { "P29_001": "22210", "P29_002": "C122210000440", "P29_003": "16002", "P29_004": "富士市立吉原第三中学校", "P29_005": "静岡県富士市比奈2126", "P29_006": "3", "P29_007": "1", "P29_008": "00", "P29_009": null }, "geometry": { "type": "Point", "coordinates": [ 138.715669545438317, 35.170675596354073 ] } },
{ "type": "Feature", "properties": { "P29_001": "22210", "P29_002": "C122210000459", "P29_003": "16002", "P29_004": "富士市立吉原東中学校", "P29_005": "静岡県富士市比奈75", "P29_006": "3", "P29_007": "1", "P29_008": "00", "P29_009": null }, "geometry": { "type": "Point", "coordinates": [ 138.723991074395229, 35.163051618869979 ] } },
{ "type": "Feature", "properties": { "P29_001": "22210", "P29_002": "C122210000468", "P29_003": "16002", "P29_004": "富士市立元吉原中学校", "P29_005": "静岡県富士市鈴川中町28-1", "P29_006": "3", "P29_007": "1", "P29_008": "00", "P29_009": null }, "geometry": { "type": "Point", "coordinates": [ 138.704164752305445, 35.13923432138165 ] } },
{ "type": "Feature", "properties": { "P29_001": "22210", "P29_002": "C122210000477", "P29_003": "16002", "P29_004": "富士市立須津中学校", "P29_005": "静岡県富士市中里1156", "P29_006": "3", "P29_007": "1", "P29_008": "00", "P29_009": null }, "geometry": { "type": "Point", "coordinates": [ 138.738740170171127, 35.165366035604002 ] } },
{ "type": "Feature", "properties": { "P29_001": "22210", "P29_002": "C122210000486", "P29_003": "16002", "P29_004": "富士市立大淵中学校", "P29_005": "静岡県富士市大淵2920", "P29_006": "3", "P29_007": "1", "P29_008": "00", "P29_009": null }, "geometry": { "type": "Point", "coordinates": [ 138.687617447175427, 35.212797358343906 ] } },
{ "type": "Feature", "properties": { "P29_001": "22210", "P29_002": "C122210000495", "P29_003": "16002", "P29_004": "富士市立富士中学校", "P29_005": "静岡県富士市中島320", "P29_006": "3", "P29_007": "1", "P29_008": "00", "P29_009": null }, "geometry": { "type": "Point", "coordinates": [ 138.647610344241627, 35.16247103193632 ] } },
{ "type": "Feature", "properties": { "P29_001": "22210", "P29_002": "C122210000501", "P29_003": "16002", "P29_004": "富士市立富士南中学校", "P29_005": "静岡県富士市森島550", "P29_006": "3", "P29_007": "1", "P29_008": "00", "P29_009": null }, "geometry": { "type": "Point", "coordinates": [ 138.646312071858802, 35.13812913101264 ] } },
{ "type": "Feature", "properties": { "P29_001": "22210", "P29_002": "C122210000510", "P29_003": "16002", "P29_004": "富士市立田子浦中学校", "P29_005": "静岡県富士市中丸411", "P29_006": "3", "P29_007": "1", "P29_008": "00", "P29_009": null }, "geometry": { "type": "Point", "coordinates": [ 138.669027447736852, 35.135705294626732 ] } },
{ "type": "Feature", "properties": { "P29_001": "22210", "P29_002": "C122210000529", "P29_003": "16002", "P29_004": "富士市立岩松中学校", "P29_005": "静岡県富士市松岡2353-1", "P29_006": "3", "P29_007": "1", "P29_008": "00", "P29_009": null }, "geometry": { "type": "Point", "coordinates": [ 138.630801002120052, 35.168414999183803 ] } },
{ "type": "Feature", "properties": { "P29_001": "22210", "P29_002": "C122210000538", "P29_003": "16002", "P29_004": "富士市立鷹岡中学校", "P29_005": "静岡県富士市久沢713", "P29_006": "3", "P29_007": "1", "P29_008": "00", "P29_009": null }, "geometry": { "type": "Point", "coordinates": [ 138.652902906484826, 35.195784472233129 ] } },
{ "type": "Feature", "properties": { "P29_001": "22210", "P29_002": "C122210000547", "P29_003": "16002", "P29_004": "富士市立岳陽中学校", "P29_005": "静岡県富士市伝法630", "P29_006": "3", "P29_007": "1", "P29_008": "00", "P29_009": null }, "geometry": { "type": "Point", "coordinates": [ 138.672158997674671, 35.186664003470874 ] } },
{ "type": "Feature", "properties": { "P29_001": "22210", "P29_002": "C122210000556", "P29_003": "16002", "P29_004": "富士市立吉原北中学校", "P29_005": "静岡県富士市原田2259", "P29_006": "3", "P29_007": "1", "P29_008": "00", "P29_009": null }, "geometry": { "type": "Point", "coordinates": [ 138.719217832456877, 35.185465616991536 ] } },
{ "type": "Feature", "properties": { "P29_001": "22215", "P29_002": "C122210000565", "P29_003": "16002", "P29_004": "御殿場市立御殿場中学校", "P29_005": "静岡県御殿場市萩原364", "P29_006": "3", "P29_007": "1", "P29_008": "00", "P29_009": null }, "geometry": { "type": "Point", "coordinates": [ 138.93618961933231, 35.31233755607856 ] } },
{ "type": "Feature", "properties": { "P29_001": "22215", "P29_002": "C122210000574", "P29_003": "16002", "P29_004": "御殿場市立富士岡中学校", "P29_005": "静岡県御殿場市中山825-1", "P29_006": "3", "P29_007": "1", "P29_008": "00", "P29_009": null }, "geometry": { "type": "Point", "coordinates": [ 138.924465325821615, 35.249537657594338 ] } },
{ "type": "Feature", "properties": { "P29_001": "22215", "P29_002": "C122210000583", "P29_003": "16002", "P29_004": "御殿場市立原里中学校", "P29_005": "静岡県御殿場市川島田1363-1", "P29_006": "3", "P29_007": "1", "P29_008": "00", "P29_009": null }, "geometry": { "type": "Point", "coordinates": [ 138.911140461652906, 35.297106700051799 ] } },
{ "type": "Feature", "properties": { "P29_001": "22215", "P29_002": "C122210000592", "P29_003": "16002", "P29_004": "御殿場市立西中学校", "P29_005": "静岡県御殿場市中畑662-2", "P29_006": "3", "P29_007": "1", "P29_008": "00", "P29_009": null }, "geometry": { "type": "Point", "coordinates": [ 138.900555341725294, 35.31528181759024 ] } },
{ "type": "Feature", "properties": { "P29_001": "22215", "P29_002": "C122210000609", "P29_003": "16002", "P29_004": "御殿場市立高根中学校", "P29_005": "静岡県御殿場市塚原4-1", "P29_006": "3", "P29_007": "1", "P29_008": "00", "P29_009": null }, "geometry": { "type": "Point", "coordinates": [ 138.938393858682076, 35.329689454296052 ] } },
{ "type": "Feature", "properties": { "P29_001": "22215", "P29_002": "C122210000618", "P29_003": "16002", "P29_004": "御殿場市立南中学校", "P29_005": "静岡県御殿場市萩原1327", "P29_006": "3", "P29_007": "1", "P29_008": "00", "P29_009": null }, "geometry": { "type": "Point", "coordinates": [ 138.931261524132822, 35.291676001014693 ] } },
{ "type": "Feature", "properties": { "P29_001": "22301", "P29_002": "C122210000627", "P29_003": "16002", "P29_004": "東伊豆町立稲取中学校", "P29_005": "静岡県賀茂郡東伊豆町稲取1873", "P29_006": "3", "P29_007": "1", "P29_008": "00", "P29_009": null }, "geometry": { "type": "Point", "coordinates": [ 139.036200426085458, 34.769819197352035 ] } },
{ "type": "Feature", "properties": { "P29_001": "22301", "P29_002": "C122210000636", "P29_003": "16002", "P29_004": "東伊豆町立熱川中学校", "P29_005": "静岡県賀茂郡東伊豆町奈良本1296-3", "P29_006": "3", "P29_007": "1", "P29_008": "00", "P29_009": null }, "geometry": { "type": "Point", "coordinates": [ 139.053597015697846, 34.815472918664014 ] } },
{ "type": "Feature", "properties": { "P29_001": "22302", "P29_002": "C122210000645", "P29_003": "16002", "P29_004": "河津町立河津中学校", "P29_005": "静岡県賀茂郡河津町田中72-1", "P29_006": "3", "P29_007": "1", "P29_008": "00", "P29_009": null }, "geometry": { "type": "Point", "coordinates": [ 138.989057138765531, 34.752260828058574 ] } },
{ "type": "Feature", "properties": { "P29_001": "22304", "P29_002": "C122210000690", "P29_003": "16002", "P29_004": "南伊豆町立南伊豆東中学校", "P29_005": "静岡県賀茂郡南伊豆町湊1721", "P29_006": "3", "P29_007": "1", "P29_008": "00", "P29_009": null }, "geometry": { "type": "Point", "coordinates": [ 138.886092055288259, 34.648826555591455 ] } },
{ "type": "Feature", "properties": { "P29_001": "22304", "P29_002": "C122210000707", "P29_003": "16002", "P29_004": "南伊豆町立南伊豆中学校", "P29_005": "静岡県賀茂郡南伊豆町上賀茂744-1", "P29_006": "3", "P29_007": "1", "P29_008": "00", "P29_009": null }, "geometry": { "type": "Point", "coordinates": [ 138.86187489773647, 34.656933502178681 ] } },
{ "type": "Feature", "properties": { "P29_001": "22305", "P29_002": "C122210000716", "P29_003": "16002", "P29_004": "松崎町立松崎中学校", "P29_005": "静岡県賀茂郡松崎町江奈307", "P29_006": "3", "P29_007": "1", "P29_008": "00", "P29_009": null }, "geometry": { "type": "Point", "coordinates": [ 138.783615713614751, 34.755656608887897 ] } },
{ "type": "Feature", "properties": { "P29_001": "22306", "P29_002": "C122210000725", "P29_003": "16002", "P29_004": "西伊豆町立西伊豆中学校", "P29_005": "静岡県賀茂郡西伊豆町宇久須862-6", "P29_006": "3", "P29_007": "1", "P29_008": "00", "P29_009": null }, "geometry": { "type": "Point", "coordinates": [ 138.78428900459221, 34.848356003802564 ] } },
{ "type": "Feature", "properties": { "P29_001": "22225", "P29_002": "C122210000743", "P29_003": "16002", "P29_004": "伊豆の国市立長岡中学校", "P29_005": "静岡県伊豆の国市長岡1407-1", "P29_006": "3", "P29_007": "1", "P29_008": "00", "P29_009": null }, "geometry": { "type": "Point", "coordinates": [ 138.922743096965604, 35.043286766992331 ] } },
{ "type": "Feature", "properties": { "P29_001": "22222", "P29_002": "C122210000752", "P29_003": "16002", "P29_004": "伊豆市立修善寺中学校", "P29_005": "静岡県伊豆市柏久保395-1", "P29_006": "3", "P29_007": "1", "P29_008": "00", "P29_009": null }, "geometry": { "type": "Point", "coordinates": [ 138.952001629921654, 34.975854781654505 ] } },
{ "type": "Feature", "properties": { "P29_001": "22203", "P29_002": "C122210000761", "P29_003": "16002", "P29_004": "沼津市立戸田中学校", "P29_005": "静岡県沼津市戸田875", "P29_006": "3", "P29_007": "1", "P29_008": "00", "P29_009": null }, "geometry": { "type": "Point", "coordinates": [ 138.778997180820113, 34.972400934161328 ] } },
{ "type": "Feature", "properties": { "P29_001": "22325", "P29_002": "C122210000770", "P29_003": "16002", "P29_004": "函南町立函南中学校", "P29_005": "静岡県田方郡函南町仁田56", "P29_006": "3", "P29_007": "1", "P29_008": "00", "P29_009": null }, "geometry": { "type": "Point", "coordinates": [ 138.943216569820805, 35.088316443034927 ] } },
{ "type": "Feature", "properties": { "P29_001": "22325", "P29_002": "C122210000789", "P29_003": "16002", "P29_004": "函南町立東中学校", "P29_005": "静岡県田方郡函南町柏谷540", "P29_006": "3", "P29_007": "1", "P29_008": "00", "P29_009": null }, "geometry": { "type": "Point", "coordinates": [ 138.953509296014659, 35.078201144690524 ] } },
{ "type": "Feature", "properties": { "P29_001": "22225", "P29_002": "C122210000798", "P29_003": "16002", "P29_004": "伊豆の国市立韮山中学校", "P29_005": "静岡県伊豆の国市韮山韮山393", "P29_006": "3", "P29_007": "1", "P29_008": "00", "P29_009": null }, "geometry": { "type": "Point", "coordinates": [ 138.954512079654904, 35.052333340943569 ] } },
{ "type": "Feature", "properties": { "P29_001": "22225", "P29_002": "C122210000805", "P29_003": "16002", "P29_004": "伊豆の国市立大仁中学校", "P29_005": "静岡県伊豆の国市三福1276-3", "P29_006": "3", "P29_007": "1", "P29_008": "00", "P29_009": null }, "geometry": { "type": "Point", "coordinates": [ 138.948224541415442, 35.000414974199927 ] } },
{ "type": "Feature", "properties": { "P29_001": "22222", "P29_002": "C122210000814", "P29_003": "16002", "P29_004": "伊豆市立天城中学校", "P29_005": "静岡県伊豆市月ヶ瀬855", "P29_006": "3", "P29_007": "1", "P29_008": "00", "P29_009": null }, "geometry": { "type": "Point", "coordinates": [ 138.921595485091899, 34.920708282788887 ] } },
{ "type": "Feature", "properties": { "P29_001": "22222", "P29_002": "C122210000823", "P29_003": "16002", "P29_004": "伊豆市立中伊豆中学校", "P29_005": "静岡県伊豆市八幡407", "P29_006": "3", "P29_007": "1", "P29_008": "00", "P29_009": null }, "geometry": { "type": "Point", "coordinates": [ 138.998910005747803, 34.95392100097385 ] } },
{ "type": "Feature", "properties": { "P29_001": "22203", "P29_002": "C122210000832", "P29_003": "16002", "P29_004": "沼津市立原中学校", "P29_005": "静岡県沼津市原576", "P29_006": "3", "P29_007": "1", "P29_008": "00", "P29_009": null }, "geometry": { "type": "Point", "coordinates": [ 138.787854466841992, 35.12574088157065 ] } },
{ "type": "Feature", "properties": { "P29_001": "22203", "P29_002": "C122210000841", "P29_003": "16002", "P29_004": "沼津市立浮島中学校", "P29_005": "静岡県沼津市平沼849", "P29_006": "3", "P29_007": "1", "P29_008": "00", "P29_009": null }, "geometry": { "type": "Point", "coordinates": [ 138.783825868857264, 35.148928030882203 ] } },
{ "type": "Feature", "properties": { "P29_001": "22203", "P29_002": "C122210000850", "P29_003": "16002", "P29_004": "沼津市立長井崎中学校", "P29_005": "静岡県沼津市内浦重須字洞畑453", "P29_006": "3", "P29_007": "1", "P29_008": "00", "P29_009": null }, "geometry": { "type": "Point", "coordinates": [ 138.883368536900974, 35.021339315974636 ] } },
{ "type": "Feature", "properties": { "P29_001": "22341", "P29_002": "C122210000869", "P29_003": "16002", "P29_004": "清水町立清水中学校", "P29_005": "静岡県駿東郡清水町堂庭267", "P29_006": "3", "P29_007": "1", "P29_008": "00", "P29_009": null }, "geometry": { "type": "Point", "coordinates": [ 138.903868187774265, 35.096371544225974 ] } },
{ "type": "Feature", "properties": { "P29_001": "22341", "P29_002": "C122210000878", "P29_003": "16002", "P29_004": "清水町立南中学校", "P29_005": "静岡県駿東郡清水町徳倉2222-4", "P29_006": "3", "P29_007": "1", "P29_008": "00", "P29_009": null }, "geometry": { "type": "Point", "coordinates": [ 138.88642542238739, 35.092262169294358 ] } },
{ "type": "Feature", "properties": { "P29_001": "22342", "P29_002": "C122210000887", "P29_003": "16002", "P29_004": "長泉町立長泉中学校", "P29_005": "静岡県駿東郡長泉町下土狩777", "P29_006": "3", "P29_007": "1", "P29_008": "00", "P29_009": null }, "geometry": { "type": "Point", "coordinates": [ 138.899106478278384, 35.132363625323848 ] } },
{ "type": "Feature", "properties": { "P29_001": "22342", "P29_002": "C122210000896", "P29_003": "16002", "P29_004": "長泉町立北中学校", "P29_005": "静岡県駿東郡長泉町納米里333-3", "P29_006": "3", "P29_007": "1", "P29_008": "00", "P29_009": null }, "geometry": { "type": "Point", "coordinates": [ 138.89337304735443, 35.147271565559819 ] } },
{ "type": "Feature", "properties": { "P29_001": "22220", "P29_002": "C122210000903", "P29_003": "16002", "P29_004": "裾野市立東中学校", "P29_005": "静岡県裾野市公文名685-1", "P29_006": "3", "P29_007": "1", "P29_008": "00", "P29_009": null }, "geometry": { "type": "Point", "coordinates": [ 138.925332444666196, 35.178290190144054 ] } },
{ "type": "Feature", "properties": { "P29_001": "22220", "P29_002": "C122210000912", "P29_003": "16002", "P29_004": "裾野市立西中学校", "P29_005": "静岡県裾野市佐野450", "P29_006": "3", "P29_007": "1", "P29_008": "00", "P29_009": null }, "geometry": { "type": "Point", "coordinates": [ 138.904615172210185, 35.182115715950069 ] } },
{ "type": "Feature", "properties": { "P29_001": "22220", "P29_002": "C122210000921", "P29_003": "16002", "P29_004": "裾野市立深良中学校", "P29_005": "静岡県裾野市深良3806", "P29_006": "3", "P29_007": "1", "P29_008": "00", "P29_009": null }, "geometry": { "type": "Point", "coordinates": [ 138.927507719321369, 35.203949138201921 ] } },
{ "type": "Feature", "properties": { "P29_001": "22220", "P29_002": "C122210000930", "P29_003": "16002", "P29_004": "裾野市立富岡中学校", "P29_005": "静岡県裾野市御宿579", "P29_006": "3", "P29_007": "1", "P29_008": "00", "P29_009": null }, "geometry": { "type": "Point", "coordinates": [ 138.903777998491961, 35.200353968967285 ] } },
{ "type": "Feature", "properties": { "P29_001": "22220", "P29_002": "C122210000949", "P29_003": "16002", "P29_004": "裾野市立須山中学校", "P29_005": "静岡県裾野市須山1502-1", "P29_006": "3", "P29_007": "1", "P29_008": "00", "P29_009": null }, "geometry": { "type": "Point", "coordinates": [ 138.853519897750942, 35.248971744664829 ] } },
{ "type": "Feature", "properties": { "P29_001": "22344", "P29_002": "C122210000958", "P29_003": "16002", "P29_004": "小山町立小山中学校", "P29_005": "静岡県駿東郡小山町藤曲142", "P29_006": "3", "P29_007": "1", "P29_008": "00", "P29_009": null }, "geometry": { "type": "Point", "coordinates": [ 138.986669395782684, 35.360983179523402 ] } },
{ "type": "Feature", "properties": { "P29_001": "22344", "P29_002": "C122210000967", "P29_003": "16002", "P29_004": "小山町立北郷中学校", "P29_005": "静岡県駿東郡小山町用沢355", "P29_006": "3", "P29_007": "1", "P29_008": "00", "P29_009": null }, "geometry": { "type": "Point", "coordinates": [ 138.945943875939548, 35.34766254964579 ] } },
{ "type": "Feature", "properties": { "P29_001": "22344", "P29_002": "C122210000976", "P29_003": "16002", "P29_004": "小山町立須走中学校", "P29_005": "静岡県駿東郡小山町須走99-7", "P29_006": "3", "P29_007": "1", "P29_008": "00", "P29_009": null }, "geometry": { "type": "Point", "coordinates": [ 138.868923068114128, 35.365124274004792 ] } },
{ "type": "Feature", "properties": { "P29_001": "22207", "P29_002": "C122210000985", "P29_003": "16002", "P29_004": "富士宮市立芝川中学校", "P29_005": "静岡県富士宮市長貫1267", "P29_006": "3", "P29_007": "1", "P29_008": "00", "P29_009": null }, "geometry": { "type": "Point", "coordinates": [ 138.565999996304868, 35.203604997318706 ] } },
{ "type": "Feature", "properties": { "P29_001": "22207", "P29_002": "C122210000994", "P29_003": "16002", "P29_004": "富士宮市立柚野中学校", "P29_005": "静岡県富士宮市下柚野371", "P29_006": "3", "P29_007": "1", "P29_008": "00", "P29_009": null }, "geometry": { "type": "Point", "coordinates": [ 138.552073157082788, 35.256529694143566 ] } },
{ "type": "Feature", "properties": { "P29_001": "22101", "P29_002": "C122210001001", "P29_003": "16002", "P29_004": "静岡市立籠上中学校", "P29_005": "静岡県静岡市葵区平和2-2-1", "P29_006": "3", "P29_007": "1", "P29_008": "00", "P29_009": null }, "geometry": { "type": "Point", "coordinates": [ 138.366856919527919, 34.991930776549388 ] } },
{ "type": "Feature", "properties": { "P29_001": "22101", "P29_002": "C122210001010", "P29_003": "16002", "P29_004": "静岡市立末広中学校", "P29_005": "静岡県静岡市葵区末広町41", "P29_006": "3", "P29_007": "1", "P29_008": "00", "P29_009": null }, "geometry": { "type": "Point", "coordinates": [ 138.372398393838694, 34.982639433266066 ] } },
{ "type": "Feature", "properties": { "P29_001": "22101", "P29_002": "C122210001029", "P29_003": "16002", "P29_004": "静岡市立城内中学校", "P29_005": "静岡県静岡市葵区駿府町1-107", "P29_006": "3", "P29_007": "1", "P29_008": "00", "P29_009": null }, "geometry": { "type": "Point", "coordinates": [ 138.385951086067962, 34.977011453008309 ] } },
{ "type": "Feature", "properties": { "P29_001": "22101", "P29_002": "C122210001038", "P29_003": "16002", "P29_004": "静岡市立安東中学校", "P29_005": "静岡県静岡市葵区安東3-13-1", "P29_006": "3", "P29_007": "1", "P29_008": "00", "P29_009": null }, "geometry": { "type": "Point", "coordinates": [ 138.384353877208895, 34.992934764238129 ] } },
{ "type": "Feature", "properties": { "P29_001": "22102", "P29_002": "C122210001047", "P29_003": "16002", "P29_004": "静岡市立大里中学校", "P29_005": "静岡県静岡市駿河区中野新田57-5", "P29_006": "3", "P29_007": "1", "P29_008": "00", "P29_009": null }, "geometry": { "type": "Point", "coordinates": [ 138.384710076073191, 34.952015262793921 ] } },
{ "type": "Feature", "properties": { "P29_001": "22101", "P29_002": "C122210001056", "P29_003": "16002", "P29_004": "静岡市立東中学校", "P29_005": "静岡県静岡市葵区沓谷1-6-1", "P29_006": "3", "P29_007": "1", "P29_008": "00", "P29_009": null }, "geometry": { "type": "Point", "coordinates": [ 138.397216005889078, 34.986015998529169 ] } },
{ "type": "Feature", "properties": { "P29_001": "22102", "P29_002": "C122210001065", "P29_003": "16002", "P29_004": "静岡市立豊田中学校", "P29_005": "静岡県静岡市駿河区豊田1-3-1", "P29_006": "3", "P29_007": "1", "P29_008": "00", "P29_009": null }, "geometry": { "type": "Point", "coordinates": [ 138.408954024137245, 34.971189057927063 ] } },
{ "type": "Feature", "properties": { "P29_001": "22102", "P29_002": "C122210001074", "P29_003": "16002", "P29_004": "静岡市立東豊田中学校", "P29_005": "静岡県静岡市駿河区国吉田5-23-1", "P29_006": "3", "P29_007": "1", "P29_008": "00", "P29_009": null }, "geometry": { "type": "Point", "coordinates": [ 138.437108544024767, 34.991406911904335 ] } },
{ "type": "Feature", "properties": { "P29_001": "22101", "P29_002": "C122210001083", "P29_003": "16002", "P29_004": "静岡市立賤機中学校", "P29_005": "静岡県静岡市葵区下1353-1", "P29_006": "3", "P29_007": "1", "P29_008": "00", "P29_009": null }, "geometry": { "type": "Point", "coordinates": [ 138.377081156173062, 35.031601103249038 ] } },
{ "type": "Feature", "properties": { "P29_001": "22101", "P29_002": "C122210001092", "P29_003": "16002", "P29_004": "静岡市立西奈中学校", "P29_005": "静岡県静岡市葵区東瀬名町14-1", "P29_006": "3", "P29_007": "1", "P29_008": "00", "P29_009": null }, "geometry": { "type": "Point", "coordinates": [ 138.427648556985986, 35.011422662553706 ] } },
{ "type": "Feature", "properties": { "P29_001": "22102", "P29_002": "C122210001109", "P29_003": "16002", "P29_004": "静岡市立高松中学校", "P29_005": "静岡県静岡市駿河区登呂4-6-1", "P29_006": "3", "P29_007": "1", "P29_008": "00", "P29_009": null }, "geometry": { "type": "Point", "coordinates": [ 138.410299004682798, 34.958436996594408 ] } },
{ "type": "Feature", "properties": { "P29_001": "22102", "P29_002": "C122210001118", "P29_003": "16002", "P29_004": "静岡市立長田西中学校", "P29_005": "静岡県静岡市駿河区丸子1-1-1", "P29_006": "3", "P29_007": "1", "P29_008": "00", "P29_009": null }, "geometry": { "type": "Point", "coordinates": [ 138.359573155398465, 34.947421931356146 ] } },
{ "type": "Feature", "properties": { "P29_001": "22102", "P29_002": "C122210001127", "P29_003": "16002", "P29_004": "静岡市立長田南中学校", "P29_005": "静岡県静岡市駿河区みずほ3-9-1", "P29_006": "3", "P29_007": "1", "P29_008": "00", "P29_009": null }, "geometry": { "type": "Point", "coordinates": [ 138.368165004355689, 34.937716003419617 ] } },
{ "type": "Feature", "properties": { "P29_001": "22101", "P29_002": "C122210001136", "P29_003": "16002", "P29_004": "静岡市立安倍川中学校", "P29_005": "静岡県静岡市葵区弥勒2-11-1", "P29_006": "3", "P29_007": "1", "P29_008": "00", "P29_009": null }, "geometry": { "type": "Point", "coordinates": [ 138.368486425909026, 34.963265860560128 ] } },
{ "type": "Feature", "properties": { "P29_001": "22101", "P29_002": "C122210001145", "P29_003": "16002", "P29_004": "静岡市立美和中学校", "P29_005": "静岡県静岡市葵区足久保口組3276-2", "P29_006": "3", "P29_007": "1", "P29_008": "00", "P29_009": null }, "geometry": { "type": "Point", "coordinates": [ 138.367865381394381, 35.043777565904854 ] } },
{ "type": "Feature", "properties": { "P29_001": "22101", "P29_002": "C122210001154", "P29_003": "16002", "P29_004": "静岡市立服織中学校", "P29_005": "静岡県静岡市葵区羽鳥1-8-1", "P29_006": "3", "P29_007": "1", "P29_008": "00", "P29_009": null }, "geometry": { "type": "Point", "coordinates": [ 138.344547994921925, 34.980930995360495 ] } },
{ "type": "Feature", "properties": { "P29_001": "22101", "P29_002": "C122210001163", "P29_003": "16002", "P29_004": "静岡市立藁科中学校", "P29_005": "静岡県静岡市葵区大原1398-1", "P29_006": "3", "P29_007": "1", "P29_008": "00", "P29_009": null }, "geometry": { "type": "Point", "coordinates": [ 138.281947227649084, 35.009255437747242 ] } },
{ "type": "Feature", "properties": { "P29_001": "22101", "P29_002": "C122210001172", "P29_003": "16002", "P29_004": "静岡市立観山中学校", "P29_005": "静岡県静岡市葵区観山8-2", "P29_006": "3", "P29_007": "1", "P29_008": "00", "P29_009": null }, "geometry": { "type": "Point", "coordinates": [ 138.393576262916298, 35.013294146955374 ] } },
{ "type": "Feature", "properties": { "P29_001": "22102", "P29_002": "C122210001181", "P29_003": "16002", "P29_004": "静岡市立南中学校", "P29_005": "静岡県静岡市駿河区宮竹2-11-1", "P29_006": "3", "P29_007": "1", "P29_008": "00", "P29_009": null }, "geometry": { "type": "Point", "coordinates": [ 138.418221059826294, 34.951198440635821 ] } },
{ "type": "Feature", "properties": { "P29_001": "22103", "P29_002": "C122210001190", "P29_003": "16002", "P29_004": "静岡市立清水第一中学校", "P29_005": "静岡県静岡市清水区宮代町5-55", "P29_006": "3", "P29_007": "1", "P29_008": "00", "P29_009": null }, "geometry": { "type": "Point", "coordinates": [ 138.483620453202235, 35.026784429653198 ] } },
{ "type": "Feature", "properties": { "P29_001": "22103", "P29_002": "C122210001207", "P29_003": "16002", "P29_004": "静岡市立清水第二中学校", "P29_005": "静岡県静岡市清水区神田町4-57", "P29_006": "3", "P29_007": "1", "P29_008": "00", "P29_009": null }, "geometry": { "type": "Point", "coordinates": [ 138.479503296288385, 35.007174049018943 ] } },
{ "type": "Feature", "properties": { "P29_001": "22103", "P29_002": "C122210001216", "P29_003": "16002", "P29_004": "静岡市立清水第三中学校", "P29_005": "静岡県静岡市清水区三光町3-57", "P29_006": "3", "P29_007": "1", "P29_008": "00", "P29_009": null }, "geometry": { "type": "Point", "coordinates": [ 138.487111032886673, 35.001787954537022 ] } },
{ "type": "Feature", "properties": { "P29_001": "22103", "P29_002": "C122210001225", "P29_003": "16002", "P29_004": "静岡市立清水第四中学校", "P29_005": "静岡県静岡市清水区村松683-1", "P29_006": "3", "P29_007": "1", "P29_008": "00", "P29_009": null }, "geometry": { "type": "Point", "coordinates": [ 138.486978198873686, 34.990372782236527 ] } },
{ "type": "Feature", "properties": { "P29_001": "22103", "P29_002": "C122210001234", "P29_003": "16002", "P29_004": "静岡市立清水第五中学校", "P29_005": "静岡県静岡市清水区三保1720", "P29_006": "3", "P29_007": "1", "P29_008": "00", "P29_009": null }, "geometry": { "type": "Point", "coordinates": [ 138.524709692419066, 35.001513185299395 ] } },
{ "type": "Feature", "properties": { "P29_001": "22103", "P29_002": "C122210001243", "P29_003": "16002", "P29_004": "静岡市立清水第六中学校", "P29_005": "静岡県静岡市清水区天王西10-40", "P29_006": "3", "P29_007": "1", "P29_008": "00", "P29_009": null }, "geometry": { "type": "Point", "coordinates": [ 138.459370939607652, 35.030323677099311 ] } },
{ "type": "Feature", "properties": { "P29_001": "22103", "P29_002": "C122210001252", "P29_003": "16002", "P29_004": "静岡市立清水第七中学校", "P29_005": "静岡県静岡市清水区草薙3-9-20", "P29_006": "3", "P29_007": "1", "P29_008": "00", "P29_009": null }, "geometry": { "type": "Point", "coordinates": [ 138.447876015279405, 35.0022555474686 ] } },
{ "type": "Feature", "properties": { "P29_001": "22103", "P29_002": "C122210001261", "P29_003": "16002", "P29_004": "静岡市立清水第八中学校", "P29_005": "静岡県静岡市清水区追分4-2429", "P29_006": "3", "P29_007": "1", "P29_008": "00", "P29_009": null }, "geometry": { "type": "Point", "coordinates": [ 138.467542995574775, 35.014792995671115 ] } },
{ "type": "Feature", "properties": { "P29_001": "22103", "P29_002": "C122210001270", "P29_003": "16002", "P29_004": "静岡市立清水袖師中学校", "P29_005": "静岡県静岡市清水区西久保125-1", "P29_006": "3", "P29_007": "1", "P29_008": "00", "P29_009": null }, "geometry": { "type": "Point", "coordinates": [ 138.485533350411174, 35.039148764241965 ] } },
{ "type": "Feature", "properties": { "P29_001": "22103", "P29_002": "C122210001289", "P29_003": "16002", "P29_004": "静岡市立清水庵原中学校", "P29_005": "静岡県静岡市清水区原245", "P29_006": "3", "P29_007": "1", "P29_008": "00", "P29_009": null }, "geometry": { "type": "Point", "coordinates": [ 138.479797483119114, 35.050791616073859 ] } },
{ "type": "Feature", "properties": { "P29_001": "22103", "P29_002": "C122210001298", "P29_003": "16002", "P29_004": "静岡市立清水興津中学校", "P29_005": "静岡県静岡市清水区興津中町1478-10", "P29_006": "3", "P29_007": "1", "P29_008": "00", "P29_009": null }, "geometry": { "type": "Point", "coordinates": [ 138.521990769336355, 35.056276645291661 ] } },
{ "type": "Feature", "properties": { "P29_001": "22103", "P29_002": "C122210001305", "P29_003": "16002", "P29_004": "静岡市立清水小島中学校", "P29_005": "静岡県静岡市清水区但沼町271", "P29_006": "3", "P29_007": "1", "P29_008": "00", "P29_009": null }, "geometry": { "type": "Point", "coordinates": [ 138.510699808177748, 35.101675556538495 ] } },
{ "type": "Feature", "properties": { "P29_001": "22103", "P29_002": "C122210001314", "P29_003": "16002", "P29_004": "静岡市立清水両河内中学校", "P29_005": "静岡県静岡市清水区和田島303", "P29_006": "3", "P29_007": "1", "P29_008": "00", "P29_009": null }, "geometry": { "type": "Point", "coordinates": [ 138.479141186379366, 35.107746511048347 ] } },
{ "type": "Feature", "properties": { "P29_001": "22103", "P29_002": "C122210001323", "P29_003": "16002", "P29_004": "静岡市立清水飯田中学校", "P29_005": "静岡県静岡市清水区山原112-1", "P29_006": "3", "P29_007": "1", "P29_008": "00", "P29_009": null }, "geometry": { "type": "Point", "coordinates": [ 138.468394439827819, 35.041156018446507 ] } },
{ "type": "Feature", "properties": { "P29_001": "22103", "P29_002": "C122210001332", "P29_003": "16002", "P29_004": "静岡県立清水南高等学校中等部", "P29_005": "静岡県静岡市清水区折戸3-2-1", "P29_006": "2", "P29_007": "1", "P29_008": "00", "P29_009": null }, "geometry": { "type": "Point", "coordinates": [ 138.51035782658542, 34.984341753810078 ] } },
{ "type": "Feature", "properties": { "P29_001": "22209", "P29_002": "C122210001341", "P29_003": "16002", "P29_004": "島田市立島田第一中学校", "P29_005": "静岡県島田市稲荷3-18-1", "P29_006": "3", "P29_007": "1", "P29_008": "00", "P29_009": null }, "geometry": { "type": "Point", "coordinates": [ 138.155700624342018, 34.839081330680557 ] } },
{ "type": "Feature", "properties": { "P29_001": "22209", "P29_002": "C122210001350", "P29_003": "16002", "P29_004": "島田市立島田第二中学校", "P29_005": "静岡県島田市旗指77-1", "P29_006": "3", "P29_007": "1", "P29_008": "00", "P29_009": null }, "geometry": { "type": "Point", "coordinates": [ 138.174600311199953, 34.844173277256452 ] } },
{ "type": "Feature", "properties": { "P29_001": "22209", "P29_002": "C122210001369", "P29_003": "16002", "P29_004": "島田市立六合中学校", "P29_005": "静岡県島田市道悦2-25-1", "P29_006": "3", "P29_007": "1", "P29_008": "00", "P29_009": null }, "geometry": { "type": "Point", "coordinates": [ 138.20330589056428, 34.834426558643152 ] } },
{ "type": "Feature", "properties": { "P29_001": "22209", "P29_002": "C122210001378", "P29_003": "16002", "P29_004": "島田市立初倉中学校", "P29_005": "静岡県島田市大柳南132", "P29_006": "3", "P29_007": "1", "P29_008": "00", "P29_009": null }, "geometry": { "type": "Point", "coordinates": [ 138.227699746702456, 34.804460376261382 ] } },
{ "type": "Feature", "properties": { "P29_001": "22212", "P29_002": "C122210001396", "P29_003": "16002", "P29_004": "焼津市立焼津中学校", "P29_005": "静岡県焼津市焼津2-10-28", "P29_006": "3", "P29_007": "1", "P29_008": "00", "P29_009": null }, "geometry": { "type": "Point", "coordinates": [ 138.312201750377739, 34.86489921016188 ] } },
{ "type": "Feature", "properties": { "P29_001": "22212", "P29_002": "C122210001403", "P29_003": "16002", "P29_004": "焼津市立大村中学校", "P29_005": "静岡県焼津市大村3-25-1", "P29_006": "3", "P29_007": "1", "P29_008": "00", "P29_009": null }, "geometry": { "type": "Point", "coordinates": [ 138.304296294638192, 34.871828049473351 ] } },
{ "type": "Feature", "properties": { "P29_001": "22212", "P29_002": "C122210001412", "P29_003": "16002", "P29_004": "焼津市立豊田中学校", "P29_005": "静岡県焼津市小土301-2", "P29_006": "3", "P29_007": "1", "P29_008": "00", "P29_009": null }, "geometry": { "type": "Point", "coordinates": [ 138.293280168412736, 34.868099433824909 ] } },
{ "type": "Feature", "properties": { "P29_001": "22212", "P29_002": "C122210001421", "P29_003": "16002", "P29_004": "焼津市立小川中学校", "P29_005": "静岡県焼津市東小川4-21-1", "P29_006": "3", "P29_007": "1", "P29_008": "00", "P29_009": null }, "geometry": { "type": "Point", "coordinates": [ 138.31377599772452, 34.853025998665977 ] } },
{ "type": "Feature", "properties": { "P29_001": "22212", "P29_002": "C122210001430", "P29_003": "16002", "P29_004": "焼津市立東益津中学校", "P29_005": "静岡県焼津市中里416", "P29_006": "3", "P29_007": "1", "P29_008": "00", "P29_009": null }, "geometry": { "type": "Point", "coordinates": [ 138.318975995663806, 34.885192999328346 ] } },
{ "type": "Feature", "properties": { "P29_001": "22212", "P29_002": "C122210001449", "P29_003": "16002", "P29_004": "焼津市立大富中学校", "P29_005": "静岡県焼津市中根1-1", "P29_006": "3", "P29_007": "1", "P29_008": "00", "P29_009": null }, "geometry": { "type": "Point", "coordinates": [ 138.298089996551539, 34.839309999096614 ] } },
{ "type": "Feature", "properties": { "P29_001": "22212", "P29_002": "C122210001458", "P29_003": "16002", "P29_004": "焼津市立和田中学校", "P29_005": "静岡県焼津市田尻1984", "P29_006": "3", "P29_007": "1", "P29_008": "00", "P29_009": null }, "geometry": { "type": "Point", "coordinates": [ 138.320961302989787, 34.826469371367317 ] } },
{ "type": "Feature", "properties": { "P29_001": "22212", "P29_002": "C122210001467", "P29_003": "16002", "P29_004": "焼津市立港中学校", "P29_005": "静岡県焼津市田尻北584", "P29_006": "3", "P29_007": "1", "P29_008": "00", "P29_009": null }, "geometry": { "type": "Point", "coordinates": [ 138.330112134207184, 34.838339873105205 ] } },
{ "type": "Feature", "properties": { "P29_001": "22213", "P29_002": "C122210001476", "P29_003": "16002", "P29_004": "掛川市立栄川中学校", "P29_005": "静岡県掛川市本所538", "P29_006": "3", "P29_007": "1", "P29_008": "00", "P29_009": null }, "geometry": { "type": "Point", "coordinates": [ 138.059844196645344, 34.78289369761081 ] } },
{ "type": "Feature", "properties": { "P29_001": "22213", "P29_002": "C122210001485", "P29_003": "16002", "P29_004": "掛川市立東中学校", "P29_005": "静岡県掛川市葛川1039", "P29_006": "3", "P29_007": "1", "P29_008": "00", "P29_009": null }, "geometry": { "type": "Point", "coordinates": [ 138.023553645442462, 34.780429328888388 ] } },
{ "type": "Feature", "properties": { "P29_001": "22213", "P29_002": "C122210001494", "P29_003": "16002", "P29_004": "掛川市立西中学校", "P29_005": "静岡県掛川市下俣1007-1", "P29_006": "3", "P29_007": "1", "P29_008": "00", "P29_009": null }, "geometry": { "type": "Point", "coordinates": [ 138.000209136648465, 34.773130201007554 ] } },
{ "type": "Feature", "properties": { "P29_001": "22213", "P29_002": "C122210001500", "P29_003": "16002", "P29_004": "掛川市立桜が丘中学校", "P29_005": "静岡県掛川市富部716", "P29_006": "3", "P29_007": "1", "P29_008": "00", "P29_009": null }, "geometry": { "type": "Point", "coordinates": [ 137.975040866231808, 34.782433707954041 ] } },
{ "type": "Feature", "properties": { "P29_001": "22213", "P29_002": "C122210001519", "P29_003": "16002", "P29_004": "掛川市立原野谷中学校", "P29_005": "静岡県掛川市寺島15", "P29_006": "3", "P29_007": "1", "P29_008": "00", "P29_009": null }, "geometry": { "type": "Point", "coordinates": [ 137.955473186927406, 34.822104953578155 ] } },
{ "type": "Feature", "properties": { "P29_001": "22213", "P29_002": "C122210001528", "P29_003": "16002", "P29_004": "掛川市立北中学校", "P29_005": "静岡県掛川市上西郷220-2", "P29_006": "3", "P29_007": "1", "P29_008": "00", "P29_009": null }, "geometry": { "type": "Point", "coordinates": [ 138.016147918456113, 34.791678826259329 ] } },
{ "type": "Feature", "properties": { "P29_001": "22214", "P29_002": "C122210001537", "P29_003": "16002", "P29_004": "藤枝市立藤枝中学校", "P29_005": "静岡県藤枝市音羽町1-1-51", "P29_006": "3", "P29_007": "1", "P29_008": "00", "P29_009": null }, "geometry": { "type": "Point", "coordinates": [ 138.240777362716329, 34.870228903138212 ] } },
{ "type": "Feature", "properties": { "P29_001": "22214", "P29_002": "C122210001546", "P29_003": "16002", "P29_004": "藤枝市立西益津中学校", "P29_005": "静岡県藤枝市田中1-7-1", "P29_006": "3", "P29_007": "1", "P29_008": "00", "P29_009": null }, "geometry": { "type": "Point", "coordinates": [ 138.273534314407613, 34.871180462237476 ] } },
{ "type": "Feature", "properties": { "P29_001": "22214", "P29_002": "C122210001555", "P29_003": "16002", "P29_004": "藤枝市立青島中学校", "P29_005": "静岡県藤枝市青葉町1-7-1", "P29_006": "3", "P29_007": "1", "P29_008": "00", "P29_009": null }, "geometry": { "type": "Point", "coordinates": [ 138.242954920593178, 34.844959037589803 ] } },
{ "type": "Feature", "properties": { "P29_001": "22214", "P29_002": "C122210001564", "P29_003": "16002", "P29_004": "藤枝市立葉梨中学校", "P29_005": "静岡県藤枝市中ノ合336", "P29_006": "3", "P29_007": "1", "P29_008": "00", "P29_009": null }, "geometry": { "type": "Point", "coordinates": [ 138.247473411218806, 34.901404530762449 ] } },
{ "type": "Feature", "properties": { "P29_001": "22214", "P29_002": "C122210001573", "P29_003": "16002", "P29_004": "藤枝市立高洲中学校", "P29_005": "静岡県藤枝市与左衛門33-1", "P29_006": "3", "P29_007": "1", "P29_008": "00", "P29_009": null }, "geometry": { "type": "Point", "coordinates": [ 138.272725530043203, 34.838303195661936 ] } },
{ "type": "Feature", "properties": { "P29_001": "22214", "P29_002": "C122210001582", "P29_003": "16002", "P29_004": "藤枝市立大洲中学校", "P29_005": "静岡県藤枝市弥左衛門500", "P29_006": "3", "P29_007": "1", "P29_008": "00", "P29_009": null }, "geometry": { "type": "Point", "coordinates": [ 138.259032579453645, 34.826794352602612 ] } },
{ "type": "Feature", "properties": { "P29_001": "22214", "P29_002": "C122210001591", "P29_003": "16002", "P29_004": "藤枝市立瀬戸谷中学校", "P29_005": "静岡県藤枝市本郷4653", "P29_006": "3", "P29_007": "1", "P29_008": "00", "P29_009": null }, "geometry": { "type": "Point", "coordinates": [ 138.206892030697418, 34.921936083125956 ] } },
{ "type": "Feature", "properties": { "P29_001": "22214", "P29_002": "C122210001608", "P29_003": "16002", "P29_004": "藤枝市立広幡中学校", "P29_005": "静岡県藤枝市上当間602", "P29_006": "3", "P29_007": "1", "P29_008": "00", "P29_009": null }, "geometry": { "type": "Point", "coordinates": [ 138.286367569637179, 34.886166996948774 ] } },
{ "type": "Feature", "properties": { "P29_001": "22214", "P29_002": "C122210001617", "P29_003": "16002", "P29_004": "藤枝市立青島北中学校", "P29_005": "静岡県藤枝市南駿河台1-11-1", "P29_006": "3", "P29_007": "1", "P29_008": "00", "P29_009": null }, "geometry": { "type": "Point", "coordinates": [ 138.242569897374693, 34.860652945799814 ] } },
{ "type": "Feature", "properties": { "P29_001": "22210", "P29_002": "C122210001626", "P29_003": "16002", "P29_004": "富士市立富士川第一中学校", "P29_005": "静岡県富士市岩淵855-3", "P29_006": "3", "P29_007": "1", "P29_008": "00", "P29_009": null }, "geometry": { "type": "Point", "coordinates": [ 138.621966370911991, 35.149585810830793 ] } },
{ "type": "Feature", "properties": { "P29_001": "22210", "P29_002": "C122210001635", "P29_003": "16002", "P29_004": "富士市立富士川第二中学校", "P29_005": "静岡県富士市北松野1963-6", "P29_006": "3", "P29_007": "1", "P29_008": "00", "P29_009": null }, "geometry": { "type": "Point", "coordinates": [ 138.597682657206576, 35.184847742171002 ] } },
{ "type": "Feature", "properties": { "P29_001": "22103", "P29_002": "C122210001644", "P29_003": "16002", "P29_004": "静岡市立蒲原中学校", "P29_005": "静岡県静岡市清水区蒲原49", "P29_006": "3", "P29_007": "1", "P29_008": "00", "P29_009": null }, "geometry": { "type": "Point", "coordinates": [ 138.619346283978444, 35.124217133153984 ] } },
{ "type": "Feature", "properties": { "P29_001": "22103", "P29_002": "C122210001653", "P29_003": "16002", "P29_004": "静岡市立由比中学校", "P29_005": "静岡県静岡市清水区由比456", "P29_006": "3", "P29_007": "1", "P29_008": "00", "P29_009": null }, "geometry": { "type": "Point", "coordinates": [ 138.562117112019621, 35.110463577265769 ] } },
{ "type": "Feature", "properties": { "P29_001": "22101", "P29_002": "C122210001662", "P29_003": "16002", "P29_004": "静岡市立大河内中学校", "P29_005": "静岡県静岡市葵区平野1850-66", "P29_006": "3", "P29_007": "1", "P29_008": "00", "P29_009": null }, "geometry": { "type": "Point", "coordinates": [ 138.361547367009422, 35.148626094675393 ] } },
{ "type": "Feature", "properties": { "P29_001": "22101", "P29_002": "C122210001671", "P29_003": "16002", "P29_004": "静岡市立梅ケ島中学校", "P29_005": "静岡県静岡市葵区梅ケ島1309-1", "P29_006": "3", "P29_007": "1", "P29_008": "00", "P29_009": null }, "geometry": { "type": "Point", "coordinates": [ 138.339743300185972, 35.244022335979892 ] } },
{ "type": "Feature", "properties": { "P29_001": "22101", "P29_002": "C122210001680", "P29_003": "16002", "P29_004": "静岡市立玉川中学校", "P29_005": "静岡県静岡市葵区落合103-3", "P29_006": "3", "P29_007": "1", "P29_008": "00", "P29_009": null }, "geometry": { "type": "Point", "coordinates": [ 138.333720131577763, 35.110279384037383 ] } },
{ "type": "Feature", "properties": { "P29_001": "22101", "P29_002": "C122210001699", "P29_003": "16002", "P29_004": "静岡市立井川中学校", "P29_005": "静岡県静岡市葵区井川1561-3", "P29_006": "3", "P29_007": "1", "P29_008": "00", "P29_009": null }, "geometry": { "type": "Point", "coordinates": [ 138.235335073904025, 35.219213374297659 ] } },
{ "type": "Feature", "properties": { "P29_001": "22101", "P29_002": "C122210001706", "P29_003": "16002", "P29_004": "静岡市立大川中学校", "P29_005": "静岡県静岡市葵区日向876", "P29_006": "3", "P29_007": "1", "P29_008": "00", "P29_009": null }, "geometry": { "type": "Point", "coordinates": [ 138.241288627225458, 35.09229057659801 ] } },
{ "type": "Feature", "properties": { "P29_001": "22102", "P29_002": "C122210001715", "P29_003": "16002", "P29_004": "静岡市立城山中学校", "P29_005": "静岡県静岡市駿河区小坂2-33", "P29_006": "3", "P29_007": "1", "P29_008": "00", "P29_009": null }, "geometry": { "type": "Point", "coordinates": [ 138.357391861089752, 34.930460572987826 ] } },
{ "type": "Feature", "properties": { "P29_001": "22101", "P29_002": "C122210001724", "P29_003": "16002", "P29_004": "静岡市立竜爪中学校", "P29_005": "静岡県静岡市葵区瀬名7-31-40", "P29_006": "3", "P29_007": "1", "P29_008": "00", "P29_009": null }, "geometry": { "type": "Point", "coordinates": [ 138.423767995072154, 35.030039997622865 ] } },
{ "type": "Feature", "properties": { "P29_001": "22102", "P29_002": "C122210001733", "P29_003": "16002", "P29_004": "静岡市立中島中学校", "P29_005": "静岡県静岡市駿河区中島3303", "P29_006": "3", "P29_007": "1", "P29_008": "00", "P29_009": null }, "geometry": { "type": "Point", "coordinates": [ 138.395102892157809, 34.934597472815874 ] } },
{ "type": "Feature", "properties": { "P29_001": "22214", "P29_002": "C122210001742", "P29_003": "16002", "P29_004": "藤枝市立岡部中学校", "P29_005": "静岡県藤枝市岡部町子持坂102", "P29_006": "3", "P29_007": "1", "P29_008": "00", "P29_009": null }, "geometry": { "type": "Point", "coordinates": [ 138.267385600508703, 34.912785399088399 ] } },
{ "type": "Feature", "properties": { "P29_001": "22212", "P29_002": "C122210001751", "P29_003": "16002", "P29_004": "焼津市立大井川中学校", "P29_005": "静岡県焼津市下江留191", "P29_006": "3", "P29_007": "1", "P29_008": "00", "P29_009": null }, "geometry": { "type": "Point", "coordinates": [ 138.281500425825755, 34.801216203982442 ] } },
{ "type": "Feature", "properties": { "P29_001": "22226", "P29_002": "C122210001760", "P29_003": "16002", "P29_004": "御前崎市牧之原市学校組合立御前崎中学校", "P29_005": "静岡県牧之原市新庄800-1", "P29_006": "3", "P29_007": "1", "P29_008": "00", "P29_009": null }, "geometry": { "type": "Point", "coordinates": [ 138.189935461362325, 34.625069174318185 ] } },
{ "type": "Feature", "properties": { "P29_001": "22226", "P29_002": "C122210001779", "P29_003": "16002", "P29_004": "牧之原市立相良中学校", "P29_005": "静岡県牧之原市相良283", "P29_006": "3", "P29_007": "1", "P29_008": "00", "P29_009": null }, "geometry": { "type": "Point", "coordinates": [ 138.197749192715492, 34.687336771126411 ] } },
{ "type": "Feature", "properties": { "P29_001": "22226", "P29_002": "C122210001788", "P29_003": "16002", "P29_004": "牧之原市菊川市学校組合立牧之原中学校", "P29_005": "静岡県牧之原市東萩間2079-9", "P29_006": "3", "P29_007": "1", "P29_008": "00", "P29_009": null }, "geometry": { "type": "Point", "coordinates": [ 138.136601517963726, 34.758092669008022 ] } },
{ "type": "Feature", "properties": { "P29_001": "22226", "P29_002": "C122210001797", "P29_003": "16002", "P29_004": "牧之原市立榛原中学校", "P29_005": "静岡県牧之原市仁田100-1", "P29_006": "3", "P29_007": "1", "P29_008": "00", "P29_009": null }, "geometry": { "type": "Point", "coordinates": [ 138.217157479349964, 34.752162337160662 ] } },
{ "type": "Feature", "properties": { "P29_001": "22424", "P29_002": "C122210001804", "P29_003": "16002", "P29_004": "吉田町立吉田中学校", "P29_005": "静岡県榛原郡吉田町住吉230", "P29_006": "3", "P29_007": "1", "P29_008": "00", "P29_009": null }, "geometry": { "type": "Point", "coordinates": [ 138.253108779931267, 34.769382431112675 ] } },
{ "type": "Feature", "properties": { "P29_001": "22209", "P29_002": "C122210001813", "P29_003": "16002", "P29_004": "島田市立金谷中学校", "P29_005": "静岡県島田市金谷栄町211-1", "P29_006": "3", "P29_007": "1", "P29_008": "00", "P29_009": null }, "geometry": { "type": "Point", "coordinates": [ 138.124455941654134, 34.832272422790275 ] } },
{ "type": "Feature", "properties": { "P29_001": "22209", "P29_002": "C122210001822", "P29_003": "16002", "P29_004": "島田市立川根中学校", "P29_005": "静岡県島田市川根町身成3340", "P29_006": "3", "P29_007": "1", "P29_008": "00", "P29_009": null }, "geometry": { "type": "Point", "coordinates": [ 138.086309560971188, 34.943275653299906 ] } },
{ "type": "Feature", "properties": { "P29_001": "22429", "P29_002": "C122210001831", "P29_003": "16002", "P29_004": "川根本町立中川根中学校", "P29_005": "静岡県榛原郡川根本町上長尾744", "P29_006": "3", "P29_007": "1", "P29_008": "00", "P29_009": null }, "geometry": { "type": "Point", "coordinates": [ 138.08218160831737, 35.04470714089959 ] } },
{ "type": "Feature", "properties": { "P29_001": "22429", "P29_002": "C122210001840", "P29_003": "16002", "P29_004": "川根本町立本川根中学校", "P29_005": "静岡県榛原郡川根本町田代530", "P29_006": "3", "P29_007": "1", "P29_008": "00", "P29_009": null }, "geometry": { "type": "Point", "coordinates": [ 138.127880851391382, 35.102050328541779 ] } },
{ "type": "Feature", "properties": { "P29_001": "22213", "P29_002": "C122210001859", "P29_003": "16002", "P29_004": "掛川市立城東中学校", "P29_005": "静岡県掛川市下土方680", "P29_006": "3", "P29_007": "1", "P29_008": "00", "P29_009": null }, "geometry": { "type": "Point", "coordinates": [ 138.046105772513613, 34.710364484192226 ] } },
{ "type": "Feature", "properties": { "P29_001": "22213", "P29_002": "C122210001868", "P29_003": "16002", "P29_004": "掛川市立大須賀中学校", "P29_005": "静岡県掛川市横須賀1007", "P29_006": "3", "P29_007": "1", "P29_008": "00", "P29_009": null }, "geometry": { "type": "Point", "coordinates": [ 137.987334353894141, 34.686336610056593 ] } },
{ "type": "Feature", "properties": { "P29_001": "22213", "P29_002": "C122210001877", "P29_003": "16002", "P29_004": "掛川市立大浜中学校", "P29_005": "静岡県掛川市大坂1147", "P29_006": "3", "P29_007": "1", "P29_008": "00", "P29_009": null }, "geometry": { "type": "Point", "coordinates": [ 138.0462666827313, 34.666790568453663 ] } },
{ "type": "Feature", "properties": { "P29_001": "22223", "P29_002": "C122210001886", "P29_003": "16002", "P29_004": "御前崎市立浜岡中学校", "P29_005": "静岡県御前崎市池新田3923-1", "P29_006": "3", "P29_007": "1", "P29_008": "00", "P29_009": null }, "geometry": { "type": "Point", "coordinates": [ 138.128751888468486, 34.643690851391355 ] } },
{ "type": "Feature", "properties": { "P29_001": "22224", "P29_002": "C122210001895", "P29_003": "16002", "P29_004": "菊川市立岳洋中学校", "P29_005": "静岡県菊川市下平川5430", "P29_006": "3", "P29_007": "1", "P29_008": "00", "P29_009": null }, "geometry": { "type": "Point", "coordinates": [ 138.094267965057867, 34.697689756039907 ] } },
{ "type": "Feature", "properties": { "P29_001": "22224", "P29_002": "C122210001902", "P29_003": "16002", "P29_004": "菊川市立菊川西中学校", "P29_005": "静岡県菊川市加茂38", "P29_006": "3", "P29_007": "1", "P29_008": "00", "P29_009": null }, "geometry": { "type": "Point", "coordinates": [ 138.083393818903204, 34.751978398174991 ] } },
{ "type": "Feature", "properties": { "P29_001": "22224", "P29_002": "C122210001911", "P29_003": "16002", "P29_004": "菊川市立菊川東中学校", "P29_005": "静岡県菊川市本所670", "P29_006": "3", "P29_007": "1", "P29_008": "00", "P29_009": null }, "geometry": { "type": "Point", "coordinates": [ 138.097444701081116, 34.762118998310044 ] } },
{ "type": "Feature", "properties": { "P29_001": "22134", "P29_002": "C122210001920", "P29_003": "16002", "P29_004": "浜松市立東部中学校", "P29_005": "静岡県浜松市南区飯田町1038", "P29_006": "3", "P29_007": "1", "P29_008": "00", "P29_009": null }, "geometry": { "type": "Point", "coordinates": [ 137.773920332198998, 34.703067056772404 ] } },
{ "type": "Feature", "properties": { "P29_001": "22131", "P29_002": "C122210001939", "P29_003": "16002", "P29_004": "浜松市立西部中学校", "P29_005": "静岡県浜松市中区鴨江2-17-1", "P29_006": "3", "P29_007": "1", "P29_008": "00", "P29_009": null }, "geometry": { "type": "Point", "coordinates": [ 137.71516696396165, 34.70266030355107 ] } },
{ "type": "Feature", "properties": { "P29_001": "22131", "P29_002": "C122210001948", "P29_003": "16002", "P29_004": "浜松市立南部中学校", "P29_005": "静岡県浜松市中区龍禅寺町706", "P29_006": "3", "P29_007": "1", "P29_008": "00", "P29_009": null }, "geometry": { "type": "Point", "coordinates": [ 137.738210097528366, 34.694320287106301 ] } },
{ "type": "Feature", "properties": { "P29_001": "22131", "P29_002": "C122210001957", "P29_003": "16002", "P29_004": "浜松市立北部中学校", "P29_005": "静岡県浜松市中区文丘町28-1", "P29_006": "3", "P29_007": "1", "P29_008": "00", "P29_009": null }, "geometry": { "type": "Point", "coordinates": [ 137.714263562638422, 34.727026171281871 ] } },
{ "type": "Feature", "properties": { "P29_001": "22131", "P29_002": "C122210001966", "P29_003": "16002", "P29_004": "浜松市立中部中学校", "P29_005": "静岡県浜松市中区松城町108-1", "P29_006": "3", "P29_007": "1", "P29_008": "00", "P29_009": null }, "geometry": { "type": "Point", "coordinates": [ 137.722977410122752, 34.713292300921061 ] } },
{ "type": "Feature", "properties": { "P29_001": "22131", "P29_002": "C122210001975", "P29_003": "16002", "P29_004": "浜松市立八幡中学校", "P29_005": "静岡県浜松市中区野口町1533", "P29_006": "3", "P29_007": "1", "P29_008": "00", "P29_009": null }, "geometry": { "type": "Point", "coordinates": [ 137.741365457659327, 34.719031238122625 ] } },
{ "type": "Feature", "properties": { "P29_001": "22131", "P29_002": "C122210001984", "P29_003": "16002", "P29_004": "浜松市立曳馬中学校", "P29_005": "静岡県浜松市中区曳馬4-2-15", "P29_006": "3", "P29_007": "1", "P29_008": "00", "P29_009": null }, "geometry": { "type": "Point", "coordinates": [ 137.741379000068434, 34.729956700772412 ] } },
{ "type": "Feature", "properties": { "P29_001": "22134", "P29_002": "C122210001993", "P29_003": "16002", "P29_004": "浜松市立新津中学校", "P29_005": "静岡県浜松市南区新橋町748", "P29_006": "3", "P29_007": "1", "P29_008": "00", "P29_009": null }, "geometry": { "type": "Point", "coordinates": [ 137.701426553272597, 34.683388792426733 ] } },
{ "type": "Feature", "properties": { "P29_001": "22131", "P29_002": "C122210002000", "P29_003": "16002", "P29_004": "浜松市立江西中学校", "P29_005": "静岡県浜松市中区神田町123", "P29_006": "3", "P29_007": "1", "P29_008": "00", "P29_009": null }, "geometry": { "type": "Point", "coordinates": [ 137.726614466012819, 34.688209258683671 ] } },
{ "type": "Feature", "properties": { "P29_001": "22131", "P29_002": "C122210002019", "P29_003": "16002", "P29_004": "浜松市立蜆塚中学校", "P29_005": "静岡県浜松市中区蜆塚2-15-1", "P29_006": "3", "P29_007": "1", "P29_008": "00", "P29_009": null }, "geometry": { "type": "Point", "coordinates": [ 137.708575102967529, 34.714056348170139 ] } },
{ "type": "Feature", "properties": { "P29_001": "22132", "P29_002": "C122210002028", "P29_003": "16002", "P29_004": "浜松市立天竜中学校", "P29_005": "静岡県浜松市東区龍光町43", "P29_006": "3", "P29_007": "1", "P29_008": "00", "P29_009": null }, "geometry": { "type": "Point", "coordinates": [ 137.787605270359819, 34.721870929670985 ] } },
{ "type": "Feature", "properties": { "P29_001": "22132", "P29_002": "C122210002037", "P29_003": "16002", "P29_004": "浜松市立与進中学校", "P29_005": "静岡県浜松市東区市野町1405-1", "P29_006": "3", "P29_007": "1", "P29_008": "00", "P29_009": null }, "geometry": { "type": "Point", "coordinates": [ 137.778041762350369, 34.743392567525554 ] } },
{ "type": "Feature", "properties": { "P29_001": "22132", "P29_002": "C122210002046", "P29_003": "16002", "P29_004": "浜松市立笠井中学校", "P29_005": "静岡県浜松市東区笠井町1055", "P29_006": "3", "P29_007": "1", "P29_008": "00", "P29_009": null }, "geometry": { "type": "Point", "coordinates": [ 137.792733975033656, 34.771220530035507 ] } },
{ "type": "Feature", "properties": { "P29_001": "22134", "P29_002": "C122210002055", "P29_003": "16002", "P29_004": "浜松市立南陽中学校", "P29_005": "静岡県浜松市南区芳川町80", "P29_006": "3", "P29_007": "1", "P29_008": "00", "P29_009": null }, "geometry": { "type": "Point", "coordinates": [ 137.76500699941073, 34.69372899712296 ] } },
{ "type": "Feature", "properties": { "P29_001": "22135", "P29_002": "C122210002064", "P29_003": "16002", "P29_004": "浜松市立北星中学校", "P29_005": "静岡県浜松市北区初生町1305", "P29_006": "3", "P29_007": "1", "P29_008": "00", "P29_009": null }, "geometry": { "type": "Point", "coordinates": [ 137.716021047389603, 34.768863993244523 ] } },
{ "type": "Feature", "properties": { "P29_001": "22135", "P29_002": "C122210002073", "P29_003": "16002", "P29_004": "浜松市立都田中学校", "P29_005": "静岡県浜松市北区都田町5824-18", "P29_006": "3", "P29_007": "1", "P29_008": "00", "P29_009": null }, "geometry": { "type": "Point", "coordinates": [ 137.720649218652852, 34.832754973049823 ] } },
{ "type": "Feature", "properties": { "P29_001": "22133", "P29_002": "C122210002082", "P29_003": "16002", "P29_004": "浜松市立神久呂中学校", "P29_005": "静岡県浜松市西区大久保町6633", "P29_006": "3", "P29_007": "1", "P29_008": "00", "P29_009": null }, "geometry": { "type": "Point", "coordinates": [ 137.665430142907695, 34.725142519099009 ] } },
{ "type": "Feature", "properties": { "P29_001": "22133", "P29_002": "C122210002091", "P29_003": "16002", "P29_004": "浜松市立入野中学校", "P29_005": "静岡県浜松市西区入野町17059", "P29_006": "3", "P29_007": "1", "P29_008": "00", "P29_009": null }, "geometry": { "type": "Point", "coordinates": [ 137.676750934768734, 34.701804906163083 ] } },
{ "type": "Feature", "properties": { "P29_001": "22132", "P29_002": "C122210002108", "P29_003": "16002", "P29_004": "浜松市立積志中学校", "P29_005": "静岡県浜松市東区有玉北町1200", "P29_006": "3", "P29_007": "1", "P29_008": "00", "P29_009": null }, "geometry": { "type": "Point", "coordinates": [ 137.757711883608465, 34.76526479005669 ] } },
{ "type": "Feature", "properties": { "P29_001": "22133", "P29_002": "C122210002117", "P29_003": "16002", "P29_004": "浜松市立湖東中学校", "P29_005": "静岡県浜松市西区佐浜町4540", "P29_006": "3", "P29_007": "1", "P29_008": "00", "P29_009": null }, "geometry": { "type": "Point", "coordinates": [ 137.658213674588893, 34.756173828603529 ] } },
{ "type": "Feature", "properties": { "P29_001": "22133", "P29_002": "C122210002126", "P29_003": "16002", "P29_004": "浜松市立篠原中学校", "P29_005": "静岡県浜松市西区篠原町20200-1", "P29_006": "3", "P29_007": "1", "P29_008": "00", "P29_009": null }, "geometry": { "type": "Point", "coordinates": [ 137.657519004661907, 34.682102999687217 ] } },
{ "type": "Feature", "properties": { "P29_001": "22132", "P29_002": "C122210002135", "P29_003": "16002", "P29_004": "浜松市立丸塚中学校", "P29_005": "静岡県浜松市東区丸塚町1050", "P29_006": "3", "P29_007": "1", "P29_008": "00", "P29_009": null }, "geometry": { "type": "Point", "coordinates": [ 137.754916166984572, 34.726047278273271 ] } },
{ "type": "Feature", "properties": { "P29_001": "22131", "P29_002": "C122210002144", "P29_003": "16002", "P29_004": "浜松市立高台中学校", "P29_005": "静岡県浜松市中区住吉5-19-1", "P29_006": "3", "P29_007": "1", "P29_008": "00", "P29_009": null }, "geometry": { "type": "Point", "coordinates": [ 137.730319591274139, 34.735502073038639 ] } },
{ "type": "Feature", "properties": { "P29_001": "22133", "P29_002": "C122210002153", "P29_003": "16002", "P29_004": "浜松市立庄内中学校", "P29_005": "静岡県浜松市西区庄内町100", "P29_006": "3", "P29_007": "1", "P29_008": "00", "P29_009": null }, "geometry": { "type": "Point", "coordinates": [ 137.608552344830088, 34.754919530982363 ] } },
{ "type": "Feature", "properties": { "P29_001": "22134", "P29_002": "C122210002162", "P29_003": "16002", "P29_004": "浜松市立江南中学校", "P29_005": "静岡県浜松市南区江之島町1266-3", "P29_006": "3", "P29_007": "1", "P29_008": "00", "P29_009": null }, "geometry": { "type": "Point", "coordinates": [ 137.75354632685486, 34.663568547544187 ] } },
{ "type": "Feature", "properties": { "P29_001": "22131", "P29_002": "C122210002171", "P29_003": "16002", "P29_004": "浜松市立開成中学校", "P29_005": "静岡県浜松市中区高丘北1-15-20", "P29_006": "3", "P29_007": "1", "P29_008": "00", "P29_009": null }, "geometry": { "type": "Point", "coordinates": [ 137.707747778736575, 34.760109836797966 ] } },
{ "type": "Feature", "properties": { "P29_001": "22132", "P29_002": "C122210002180", "P29_003": "16002", "P29_004": "浜松市立中郡中学校", "P29_005": "静岡県浜松市東区中郡町897", "P29_006": "3", "P29_007": "1", "P29_008": "00", "P29_009": null }, "geometry": { "type": "Point", "coordinates": [ 137.774976624996697, 34.769057850171365 ] } },
{ "type": "Feature", "properties": { "P29_001": "22135", "P29_002": "C122210002199", "P29_003": "16002", "P29_004": "浜松市立三方原中学校", "P29_005": "静岡県浜松市北区豊岡町196", "P29_006": "3", "P29_007": "1", "P29_008": "00", "P29_009": null }, "geometry": { "type": "Point", "coordinates": [ 137.719827340735492, 34.788994793220915 ] } },
{ "type": "Feature", "properties": { "P29_001": "22134", "P29_002": "C122210002206", "P29_003": "16002", "P29_004": "浜松市立東陽中学校", "P29_005": "静岡県浜松市南区西町700", "P29_006": "3", "P29_007": "1", "P29_008": "00", "P29_009": null }, "geometry": { "type": "Point", "coordinates": [ 137.77729139964535, 34.680794208250433 ] } },
{ "type": "Feature", "properties": { "P29_001": "22131", "P29_002": "C122210002215", "P29_003": "16002", "P29_004": "浜松市立佐鳴台中学校", "P29_005": "静岡県浜松市中区佐鳴台3-32-1", "P29_006": "3", "P29_007": "1", "P29_008": "00", "P29_009": null }, "geometry": { "type": "Point", "coordinates": [ 137.698461533903725, 34.706740418726127 ] } },
{ "type": "Feature", "properties": { "P29_001": "22131", "P29_002": "C122210002224", "P29_003": "16002", "P29_004": "浜松市立富塚中学校", "P29_005": "静岡県浜松市中区富塚町460-1", "P29_006": "3", "P29_007": "1", "P29_008": "00", "P29_009": null }, "geometry": { "type": "Point", "coordinates": [ 137.703184099424789, 34.722418366620701 ] } },
{ "type": "Feature", "properties": { "P29_001": "22132", "P29_002": "C122210002233", "P29_003": "16002", "P29_004": "浜松市立積志中学校萩原分校", "P29_005": "静岡県浜松市東区有玉西町816", "P29_006": "3", "P29_007": "1", "P29_008": "00", "P29_009": null }, "geometry": { "type": "Point", "coordinates": [ 137.733668692106477, 34.755401881131156 ] } },
{ "type": "Feature", "properties": { "P29_001": "22131", "P29_002": "C122210002242", "P29_003": "16002", "P29_004": "静岡県立浜松西高等学校中等部", "P29_005": "静岡県浜松市中区西伊場町3-1", "P29_006": "2", "P29_007": "1", "P29_008": "00", "P29_009": null }, "geometry": { "type": "Point", "coordinates": [ 137.709519386224883, 34.701279132234099 ] } },
{ "type": "Feature", "properties": { "P29_001": "22211", "P29_002": "C122210002251", "P29_003": "16002", "P29_004": "磐田市立磐田第一中学校", "P29_005": "静岡県磐田市国府台39-1", "P29_006": "3", "P29_007": "1", "P29_008": "00", "P29_009": null }, "geometry": { "type": "Point", "coordinates": [ 137.848973382541118, 34.718133387213904 ] } },
{ "type": "Feature", "properties": { "P29_001": "22211", "P29_002": "C122210002260", "P29_003": "16002", "P29_004": "磐田市立城山中学校", "P29_005": "静岡県磐田市見付263-3", "P29_006": "3", "P29_007": "1", "P29_008": "00", "P29_009": null }, "geometry": { "type": "Point", "coordinates": [ 137.865585024776777, 34.724485607763668 ] } },
{ "type": "Feature", "properties": { "P29_001": "22211", "P29_002": "C122210002279", "P29_003": "16002", "P29_004": "磐田市立向陽中学校", "P29_005": "静岡県磐田市向笠竹之内1162-2", "P29_006": "3", "P29_007": "1", "P29_008": "00", "P29_009": null }, "geometry": { "type": "Point", "coordinates": [ 137.865673860168329, 34.768036691919896 ] } },
{ "type": "Feature", "properties": { "P29_001": "22211", "P29_002": "C122210002288", "P29_003": "16002", "P29_004": "磐田市立神明中学校", "P29_005": "静岡県磐田市鎌田2262-74", "P29_006": "3", "P29_007": "1", "P29_008": "00", "P29_009": null }, "geometry": { "type": "Point", "coordinates": [ 137.88737795427383, 34.718199377533921 ] } },
{ "type": "Feature", "properties": { "P29_001": "22211", "P29_002": "C122210002297", "P29_003": "16002", "P29_004": "磐田市立南部中学校", "P29_005": "静岡県磐田市野箱32", "P29_006": "3", "P29_007": "1", "P29_008": "00", "P29_009": null }, "geometry": { "type": "Point", "coordinates": [ 137.833819769869081, 34.690841164172625 ] } },
{ "type": "Feature", "properties": { "P29_001": "22216", "P29_002": "C122210002304", "P29_003": "16002", "P29_004": "袋井市立袋井中学校", "P29_005": "静岡県袋井市川井701", "P29_006": "3", "P29_007": "1", "P29_008": "00", "P29_009": null }, "geometry": { "type": "Point", "coordinates": [ 137.919197774736091, 34.745661947154069 ] } },
{ "type": "Feature", "properties": { "P29_001": "22216", "P29_002": "C122210002313", "P29_003": "16002", "P29_004": "袋井市立周南中学校", "P29_005": "静岡県袋井市下山梨1-1-1", "P29_006": "3", "P29_007": "1", "P29_008": "00", "P29_009": null }, "geometry": { "type": "Point", "coordinates": [ 137.909264534666164, 34.776908588548537 ] } },
{ "type": "Feature", "properties": { "P29_001": "22216", "P29_002": "C122210002322", "P29_003": "16002", "P29_004": "袋井市立袋井南中学校", "P29_005": "静岡県袋井市愛野3110", "P29_006": "3", "P29_007": "1", "P29_008": "00", "P29_009": null }, "geometry": { "type": "Point", "coordinates": [ 137.942672845630085, 34.7420534875179 ] } },
{ "type": "Feature", "properties": { "P29_001": "22137", "P29_002": "C122210002331", "P29_003": "16002", "P29_004": "浜松市立清竜中学校", "P29_005": "静岡県浜松市天竜区二俣町鹿島525", "P29_006": "3", "P29_007": "1", "P29_008": "00", "P29_009": null }, "geometry": { "type": "Point", "coordinates": [ 137.809213433155094, 34.849969553216141 ] } },
{ "type": "Feature", "properties": { "P29_001": "22137", "P29_002": "C122210002340", "P29_003": "16002", "P29_004": "浜松市立光が丘中学校", "P29_005": "静岡県浜松市天竜区山東2701", "P29_006": "3", "P29_007": "1", "P29_008": "00", "P29_009": null }, "geometry": { "type": "Point", "coordinates": [ 137.823089212296992, 34.875505739111517 ] } },
{ "type": "Feature", "properties": { "P29_001": "22136", "P29_002": "C122210002359", "P29_003": "16002", "P29_004": "浜松市立浜名中学校", "P29_005": "静岡県浜松市浜北区小松1762-1", "P29_006": "3", "P29_007": "1", "P29_008": "00", "P29_009": null }, "geometry": { "type": "Point", "coordinates": [ 137.762954377038398, 34.79048392817932 ] } },
{ "type": "Feature", "properties": { "P29_001": "22136", "P29_002": "C122210002368", "P29_003": "16002", "P29_004": "浜松市立北浜中学校", "P29_005": "静岡県浜松市浜北区西美薗279-2", "P29_006": "3", "P29_007": "1", "P29_008": "00", "P29_009": null }, "geometry": { "type": "Point", "coordinates": [ 137.790425149429609, 34.796873254483202 ] } },
{ "type": "Feature", "properties": { "P29_001": "22136", "P29_002": "C122210002377", "P29_003": "16002", "P29_004": "浜松市立浜北北部中学校", "P29_005": "静岡県浜松市浜北区於呂2961", "P29_006": "3", "P29_007": "1", "P29_008": "00", "P29_009": null }, "geometry": { "type": "Point", "coordinates": [ 137.800707871909083, 34.828542199871677 ] } },
{ "type": "Feature", "properties": { "P29_001": "22136", "P29_002": "C122210002386", "P29_003": "16002", "P29_004": "浜松市立麁玉中学校", "P29_005": "静岡県浜松市浜北区宮口4847", "P29_006": "3", "P29_007": "1", "P29_008": "00", "P29_009": null }, "geometry": { "type": "Point", "coordinates": [ 137.768552733509949, 34.834333959808639 ] } },
{ "type": "Feature", "properties": { "P29_001": "22136", "P29_002": "C122210002395", "P29_003": "16002", "P29_004": "浜松市立北浜東部中学校", "P29_005": "静岡県浜松市浜北区上善地317", "P29_006": "3", "P29_007": "1", "P29_008": "00", "P29_009": null }, "geometry": { "type": "Point", "coordinates": [ 137.808392556021658, 34.799224025853881 ] } },
{ "type": "Feature", "properties": { "P29_001": "22461", "P29_002": "C122210002402", "P29_003": "16002", "P29_004": "森町立旭が丘中学校", "P29_005": "静岡県周智郡森町谷中556", "P29_006": "3", "P29_007": "1", "P29_008": "00", "P29_009": null }, "geometry": { "type": "Point", "coordinates": [ 137.90117086818239, 34.815219932814095 ] } },
{ "type": "Feature", "properties": { "P29_001": "22461", "P29_002": "C122210002411", "P29_003": "16002", "P29_004": "森町立森中学校", "P29_005": "静岡県周智郡森町天宮888-1", "P29_006": "3", "P29_007": "1", "P29_008": "00", "P29_009": null }, "geometry": { "type": "Point", "coordinates": [ 137.932473536791832, 34.845050793052302 ] } },
{ "type": "Feature", "properties": { "P29_001": "22137", "P29_002": "C122210002420", "P29_003": "16002", "P29_004": "浜松市立春野中学校", "P29_005": "静岡県浜松市天竜区春野町気田380-2", "P29_006": "3", "P29_007": "1", "P29_008": "00", "P29_009": null }, "geometry": { "type": "Point", "coordinates": [ 137.906166774856217, 35.002200509494863 ] } },
{ "type": "Feature", "properties": { "P29_001": "22216", "P29_002": "C122210002439", "P29_003": "16002", "P29_004": "袋井市立浅羽中学校", "P29_005": "静岡県袋井市浅名822", "P29_006": "3", "P29_007": "1", "P29_008": "00", "P29_009": null }, "geometry": { "type": "Point", "coordinates": [ 137.933699273775034, 34.703351882246473 ] } },
{ "type": "Feature", "properties": { "P29_001": "22211", "P29_002": "C122210002448", "P29_003": "16002", "P29_004": "磐田市立福田中学校", "P29_005": "静岡県磐田市福田中島3753-1", "P29_006": "3", "P29_007": "1", "P29_008": "00", "P29_009": null }, "geometry": { "type": "Point", "coordinates": [ 137.873916100655435, 34.665849251917003 ] } },
{ "type": "Feature", "properties": { "P29_001": "22211", "P29_002": "C122210002457", "P29_003": "16002", "P29_004": "磐田市立竜洋中学校", "P29_005": "静岡県磐田市豊岡4473-8", "P29_006": "3", "P29_007": "1", "P29_008": "00", "P29_009": null }, "geometry": { "type": "Point", "coordinates": [ 137.815543120158196, 34.679373975482697 ] } },
{ "type": "Feature", "properties": { "P29_001": "22211", "P29_002": "C122210002466", "P29_003": "16002", "P29_004": "磐田市立豊田中学校", "P29_005": "静岡県磐田市加茂243", "P29_006": "3", "P29_007": "1", "P29_008": "00", "P29_009": null }, "geometry": { "type": "Point", "coordinates": [ 137.828824283984886, 34.73442431447593 ] } },
{ "type": "Feature", "properties": { "P29_001": "22211", "P29_002": "C122210002475", "P29_003": "16002", "P29_004": "磐田市立豊田南中学校", "P29_005": "静岡県磐田市立野200", "P29_006": "3", "P29_007": "1", "P29_008": "00", "P29_009": null }, "geometry": { "type": "Point", "coordinates": [ 137.82194390012819, 34.717944578254183 ] } },
{ "type": "Feature", "properties": { "P29_001": "22211", "P29_002": "C122210002484", "P29_003": "16002", "P29_004": "磐田市立豊岡中学校", "P29_005": "静岡県磐田市合代島943", "P29_006": "3", "P29_007": "1", "P29_008": "00", "P29_009": null }, "geometry": { "type": "Point", "coordinates": [ 137.837860811064758, 34.833116346479905 ] } },
{ "type": "Feature", "properties": { "P29_001": "22137", "P29_002": "C122210002493", "P29_003": "16002", "P29_004": "浜松市立佐久間中学校", "P29_005": "静岡県浜松市天竜区佐久間町中部683-1", "P29_006": "3", "P29_007": "1", "P29_008": "00", "P29_009": null }, "geometry": { "type": "Point", "coordinates": [ 137.796055254880116, 35.079294248974449 ] } },
{ "type": "Feature", "properties": { "P29_001": "22137", "P29_002": "C122210002509", "P29_003": "16002", "P29_004": "浜松市立水窪中学校", "P29_005": "静岡県浜松市天竜区水窪町地頭方366", "P29_006": "3", "P29_007": "1", "P29_008": "00", "P29_009": null }, "geometry": { "type": "Point", "coordinates": [ 137.870649864728222, 35.154142866205675 ] } },
{ "type": "Feature", "properties": { "P29_001": "22134", "P29_002": "C122210002518", "P29_003": "16002", "P29_004": "浜松市立可美中学校", "P29_005": "静岡県浜松市南区増楽町700", "P29_006": "3", "P29_007": "1", "P29_008": "00", "P29_009": null }, "geometry": { "type": "Point", "coordinates": [ 137.690863583213627, 34.687660413193115 ] } },
{ "type": "Feature", "properties": { "P29_001": "22133", "P29_002": "C122210002527", "P29_003": "16002", "P29_004": "浜松市立舞阪中学校", "P29_005": "静岡県浜松市西区舞阪町舞阪4601", "P29_006": "3", "P29_007": "1", "P29_008": "00", "P29_009": null }, "geometry": { "type": "Point", "coordinates": [ 137.615608508802012, 34.67949583287195 ] } },
{ "type": "Feature", "properties": { "P29_001": "22221", "P29_002": "C122210002536", "P29_003": "16002", "P29_004": "湖西市立新居中学校", "P29_005": "静岡県湖西市新居町中之郷1181", "P29_006": "3", "P29_007": "1", "P29_008": "00", "P29_009": null }, "geometry": { "type": "Point", "coordinates": [ 137.555735703854651, 34.695344045885136 ] } },
{ "type": "Feature", "properties": { "P29_001": "22221", "P29_002": "C122210002545", "P29_003": "16002", "P29_004": "湖西市立鷲津中学校", "P29_005": "静岡県湖西市鷲津629", "P29_006": "3", "P29_007": "1", "P29_008": "00", "P29_009": null }, "geometry": { "type": "Point", "coordinates": [ 137.541909873027549, 34.71408946031665 ] } },
{ "type": "Feature", "properties": { "P29_001": "22221", "P29_002": "C122210002554", "P29_003": "16002", "P29_004": "湖西市立白須賀中学校", "P29_005": "静岡県湖西市白須賀986", "P29_006": "3", "P29_007": "1", "P29_008": "00", "P29_009": null }, "geometry": { "type": "Point", "coordinates": [ 137.507763239530988, 34.684092171026506 ] } },
{ "type": "Feature", "properties": { "P29_001": "22221", "P29_002": "C122210002563", "P29_003": "16002", "P29_004": "湖西市立湖西中学校", "P29_005": "静岡県湖西市太田135", "P29_006": "3", "P29_007": "1", "P29_008": "00", "P29_009": null }, "geometry": { "type": "Point", "coordinates": [ 137.516010383387197, 34.74264209020555 ] } },
{ "type": "Feature", "properties": { "P29_001": "22221", "P29_002": "C122210002572", "P29_003": "16002", "P29_004": "湖西市立岡崎中学校", "P29_005": "静岡県湖西市岡崎587-2", "P29_006": "3", "P29_007": "1", "P29_008": "00", "P29_009": null }, "geometry": { "type": "Point", "coordinates": [ 137.502881595281707, 34.72698664838142 ] } },
{ "type": "Feature", "properties": { "P29_001": "22133", "P29_002": "C122210002581", "P29_003": "16002", "P29_004": "浜松市立雄踏中学校", "P29_005": "静岡県浜松市西区雄踏町宇布見9595", "P29_006": "3", "P29_007": "1", "P29_008": "00", "P29_009": null }, "geometry": { "type": "Point", "coordinates": [ 137.633191564259448, 34.694145022977786 ] } },
{ "type": "Feature", "properties": { "P29_001": "22135", "P29_002": "C122210002590", "P29_003": "16002", "P29_004": "浜松市立細江中学校", "P29_005": "静岡県浜松市北区細江町気賀7300-1", "P29_006": "3", "P29_007": "1", "P29_008": "00", "P29_009": null }, "geometry": { "type": "Point", "coordinates": [ 137.646368748771664, 34.807626781042238 ] } },
{ "type": "Feature", "properties": { "P29_001": "22135", "P29_002": "C122210002607", "P29_003": "16002", "P29_004": "浜松市立引佐北部中学校", "P29_005": "静岡県浜松市北区引佐町四方浄134-6", "P29_006": "3", "P29_007": "1", "P29_008": "00", "P29_009": null }, "geometry": { "type": "Point", "coordinates": [ 137.655612524324994, 34.899029749997361 ] } },
{ "type": "Feature", "properties": { "P29_001": "22135", "P29_002": "C122210002616", "P29_003": "16002", "P29_004": "浜松市立引佐南部中学校", "P29_005": "静岡県浜松市北区引佐町横尾426", "P29_006": "3", "P29_007": "1", "P29_008": "00", "P29_009": null }, "geometry": { "type": "Point", "coordinates": [ 137.662300447789931, 34.834851130792437 ] } },
{ "type": "Feature", "properties": { "P29_001": "22135", "P29_002": "C122210002625", "P29_003": "16002", "P29_004": "浜松市立三ヶ日中学校", "P29_005": "静岡県浜松市北区三ヶ日町宇志1320-5", "P29_006": "3", "P29_007": "1", "P29_008": "00", "P29_009": null }, "geometry": { "type": "Point", "coordinates": [ 137.555863106206118, 34.798501652906033 ] } },
{ "type": "Feature", "properties": { "P29_001": "22219", "P29_002": "C122210002634", "P29_003": "16002", "P29_004": "下田市立下田中学校", "P29_005": "静岡県下田市敷根765-1", "P29_006": "3", "P29_007": "1", "P29_008": "00", "P29_009": null }, "geometry": { "type": "Point", "coordinates": [ 138.929493961813222, 34.681682565964266 ] } },
{ "type": "Feature", "properties": { "P29_001": "22211", "P29_002": "C122210002643", "P29_003": "16002", "P29_004": "静岡県立ふじのくに中学校磐田本校", "P29_005": "静岡県磐田市中泉1-6-16", "P29_006": "2", "P29_007": "1", "P29_008": "00", "P29_009": null }, "geometry": { "type": "Point", "coordinates": [ 137.852508534775581, 34.712078316209109 ] } },
{ "type": "Feature", "properties": { "P29_001": "22206", "P29_002": "C122210002652", "P29_003": "16002", "P29_004": "静岡県立ふじのくに中学校三島教室", "P29_005": "静岡県三島市文教町1-3-93", "P29_006": "2", "P29_007": "1", "P29_008": "00", "P29_009": null }, "geometry": { "type": "Point", "coordinates": [ 138.911647346481828, 35.128692743507997 ] } },
{ "type": "Feature", "properties": { "P29_001": "22220", "P29_002": "C122310000019", "P29_003": "16002", "P29_004": "不二聖心女子学院中学校", "P29_005": "静岡県裾野市桃園198", "P29_006": "4", "P29_007": "1", "P29_008": "00", "P29_009": null }, "geometry": { "type": "Point", "coordinates": [ 138.894121556424352, 35.180608040777727 ] } },
{ "type": "Feature", "properties": { "P29_001": "22203", "P29_002": "C122310000028", "P29_003": "16002", "P29_004": "加藤学園暁秀中学校", "P29_005": "静岡県沼津市岡宮字中見代1361-1", "P29_006": "4", "P29_007": "1", "P29_008": "00", "P29_009": null }, "geometry": { "type": "Point", "coordinates": [ 138.864496917665463, 35.134708374958755 ] } },
{ "type": "Feature", "properties": { "P29_001": "22103", "P29_002": "C122310000037", "P29_003": "16002", "P29_004": "清水国際中学校", "P29_005": "静岡県静岡市清水区天神1-4-1", "P29_006": "4", "P29_007": "1", "P29_008": "00", "P29_009": null }, "geometry": { "type": "Point", "coordinates": [ 138.480649228401148, 35.025331052979148 ] } },
{ "type": "Feature", "properties": { "P29_001": "22103", "P29_002": "C122310000046", "P29_003": "16002", "P29_004": "静岡サレジオ中学校", "P29_005": "静岡県静岡市清水区中之郷3-2-1", "P29_006": "4", "P29_007": "1", "P29_008": "00", "P29_009": null }, "geometry": { "type": "Point", "coordinates": [ 138.43852396577725, 35.003194522343549 ] } },
{ "type": "Feature", "properties": { "P29_001": "22103", "P29_002": "C122310000055", "P29_003": "16002", "P29_004": "東海大学付属静岡翔洋高等学校中等部", "P29_005": "静岡県静岡市清水区折戸3-20-1", "P29_006": "4", "P29_007": "1", "P29_008": "00", "P29_009": null }, "geometry": { "type": "Point", "coordinates": [ 138.51483327717375, 34.988559407318242 ] } },
{ "type": "Feature", "properties": { "P29_001": "22101", "P29_002": "C122310000064", "P29_003": "16002", "P29_004": "静岡大成中学校", "P29_005": "静岡県静岡市葵区鷹匠2-4-18", "P29_006": "4", "P29_007": "1", "P29_008": "00", "P29_009": null }, "geometry": { "type": "Point", "coordinates": [ 138.388784273835768, 34.978235905658636 ] } },
{ "type": "Feature", "properties": { "P29_001": "22101", "P29_002": "C122310000073", "P29_003": "16002", "P29_004": "静岡英和女学院中学校", "P29_005": "静岡県静岡市葵区西草深町8-1", "P29_006": "4", "P29_007": "1", "P29_008": "00", "P29_009": null }, "geometry": { "type": "Point", "coordinates": [ 138.379867292945875, 34.981824370478677 ] } },
{ "type": "Feature", "properties": { "P29_001": "22101", "P29_002": "C122310000082", "P29_003": "16002", "P29_004": "静岡雙葉中学校", "P29_005": "静岡県静岡市葵区追手町10-71", "P29_006": "4", "P29_007": "1", "P29_008": "00", "P29_009": null }, "geometry": { "type": "Point", "coordinates": [ 138.38055647932444, 34.980761056047022 ] } },
{ "type": "Feature", "properties": { "P29_001": "22102", "P29_002": "C122310000091", "P29_003": "16002", "P29_004": "城南静岡中学校", "P29_005": "静岡県静岡市駿河区南八幡町1-1", "P29_006": "4", "P29_007": "1", "P29_008": "00", "P29_009": null }, "geometry": { "type": "Point", "coordinates": [ 138.400302634609261, 34.963279686571887 ] } },
{ "type": "Feature", "properties": { "P29_001": "22101", "P29_002": "C122310000108", "P29_003": "16002", "P29_004": "常葉大学附属常葉中学校", "P29_005": "静岡県静岡市葵区水落町1-30", "P29_006": "4", "P29_007": "1", "P29_008": "00", "P29_009": null }, "geometry": { "type": "Point", "coordinates": [ 138.388405611609187, 34.981130334661152 ] } },
{ "type": "Feature", "properties": { "P29_001": "22101", "P29_002": "C122310000117", "P29_003": "16002", "P29_004": "常葉大学附属橘中学校", "P29_005": "静岡県静岡市葵区瀬名2-1-1", "P29_006": "4", "P29_007": "1", "P29_008": "00", "P29_009": null }, "geometry": { "type": "Point", "coordinates": [ 138.417205534543484, 35.01391062872986 ] } },
{ "type": "Feature", "properties": { "P29_001": "22131", "P29_002": "C122310000126", "P29_003": "16002", "P29_004": "静岡県西遠女子学園中学校", "P29_005": "静岡県浜松市中区佐藤3-20-1", "P29_006": "4", "P29_007": "1", "P29_008": "00", "P29_009": null }, "geometry": { "type": "Point", "coordinates": [ 137.751642470877897, 34.714413609173519 ] } },
{ "type": "Feature", "properties": { "P29_001": "22131", "P29_002": "C122310000135", "P29_003": "16002", "P29_004": "浜松開誠館中学校", "P29_005": "静岡県浜松市中区松城町207-2", "P29_006": "4", "P29_007": "1", "P29_008": "00", "P29_009": null }, "geometry": { "type": "Point", "coordinates": [ 137.723267241427607, 34.709740707664615 ] } },
{ "type": "Feature", "properties": { "P29_001": "22131", "P29_002": "C122310000144", "P29_003": "16002", "P29_004": "浜松修学舎中学校", "P29_005": "静岡県浜松市中区向宿2-20-1", "P29_006": "4", "P29_007": "1", "P29_008": "00", "P29_009": null }, "geometry": { "type": "Point", "coordinates": [ 137.752773296108785, 34.705211167353042 ] } },
{ "type": "Feature", "properties": { "P29_001": "22102", "P29_002": "C122310000153", "P29_003": "16002", "P29_004": "静岡聖光学院中学校", "P29_005": "静岡県静岡市駿河区小鹿1440", "P29_006": "4", "P29_007": "1", "P29_008": "00", "P29_009": null }, "geometry": { "type": "Point", "coordinates": [ 138.433644310685253, 34.971797995794056 ] } },
{ "type": "Feature", "properties": { "P29_001": "22101", "P29_002": "C122310000162", "P29_003": "16002", "P29_004": "静岡学園中学校", "P29_005": "静岡県静岡市葵区東鷹匠町25", "P29_006": "4", "P29_007": "1", "P29_008": "00", "P29_009": null }, "geometry": { "type": "Point", "coordinates": [ 138.394219805742182, 34.982478672551188 ] } },
{ "type": "Feature", "properties": { "P29_001": "22132", "P29_002": "C122310000171", "P29_003": "16002", "P29_004": "浜松日体中学校", "P29_005": "静岡県浜松市東区半田山3-30-1", "P29_006": "4", "P29_007": "1", "P29_008": "00", "P29_009": null }, "geometry": { "type": "Point", "coordinates": [ 137.741075989700647, 34.774130777434493 ] } },
{ "type": "Feature", "properties": { "P29_001": "22206", "P29_002": "C122310000180", "P29_003": "16002", "P29_004": "日本大学三島中学校", "P29_005": "静岡県三島市文教町2-31-145", "P29_006": "4", "P29_007": "1", "P29_008": "00", "P29_009": null }, "geometry": { "type": "Point", "coordinates": [ 138.913533048755482, 35.133462538175642 ] } },
{ "type": "Feature", "properties": { "P29_001": "22214", "P29_002": "C122310000199", "P29_003": "16002", "P29_004": "藤枝順心中学校", "P29_005": "静岡県藤枝市前島2-3-1", "P29_006": "4", "P29_007": "1", "P29_008": "00", "P29_009": null }, "geometry": { "type": "Point", "coordinates": [ 138.253298419968758, 34.845901805077368 ] } },
{ "type": "Feature", "properties": { "P29_001": "22214", "P29_002": "C122310000206", "P29_003": "16002", "P29_004": "藤枝明誠中学校", "P29_005": "静岡県藤枝市大洲2-2-1", "P29_006": "4", "P29_007": "1", "P29_008": "00", "P29_009": null }, "geometry": { "type": "Point", "coordinates": [ 138.251588637093477, 34.833113989654336 ] } },
{ "type": "Feature", "properties": { "P29_001": "22224", "P29_002": "C122310000215", "P29_003": "16002", "P29_004": "常葉大学附属菊川中学校", "P29_005": "静岡県菊川市半済1550", "P29_006": "4", "P29_007": "1", "P29_008": "00", "P29_009": null }, "geometry": { "type": "Point", "coordinates": [ 138.081369345893961, 34.756626620999874 ] } },
{ "type": "Feature", "properties": { "P29_001": "22211", "P29_002": "C122310000224", "P29_003": "16002", "P29_004": "磐田東中学校", "P29_005": "静岡県磐田市見付180-5", "P29_006": "4", "P29_007": "1", "P29_008": "00", "P29_009": null }, "geometry": { "type": "Point", "coordinates": [ 137.864420977029226, 34.721160790379571 ] } },
{ "type": "Feature", "properties": { "P29_001": "22131", "P29_002": "C122310000233", "P29_003": "16002", "P29_004": "浜松学院中学校", "P29_005": "静岡県浜松市中区高林1-17-2", "P29_006": "4", "P29_007": "1", "P29_008": "00", "P29_009": null }, "geometry": { "type": "Point", "coordinates": [ 137.729282396648358, 34.72808731263703 ] } },
{ "type": "Feature", "properties": { "P29_001": "22131", "P29_002": "C122310000242", "P29_003": "16002", "P29_004": "浜松学芸中学校", "P29_005": "静岡県浜松市中区下池川町34-3", "P29_006": "4", "P29_007": "1", "P29_008": "00", "P29_009": null }, "geometry": { "type": "Point", "coordinates": [ 137.727516823259009, 34.718928061409656 ] } },
{ "type": "Feature", "properties": { "P29_001": "22135", "P29_002": "C122310000251", "P29_003": "16002", "P29_004": "聖隷クリストファー中学校", "P29_005": "静岡県浜松市北区三方原町3453", "P29_006": "4", "P29_007": "1", "P29_008": "00", "P29_009": null }, "geometry": { "type": "Point", "coordinates": [ 137.695955520067827, 34.792194135524817 ] } },
{ "type": "Feature", "properties": { "P29_001": "22101", "P29_002": "C122310000260", "P29_003": "16002", "P29_004": "静岡北中学校", "P29_005": "静岡県静岡市葵区瀬名5-14-1", "P29_006": "4", "P29_007": "1", "P29_008": "00", "P29_009": null }, "geometry": { "type": "Point", "coordinates": [ 138.421863204337029, 35.027137276942121 ] } },
{ "type": "Feature", "properties": { "P29_001": "22207", "P29_002": "C122310000279", "P29_003": "16002", "P29_004": "星陵中学校", "P29_005": "静岡県富士宮市星山1068", "P29_006": "4", "P29_007": "1", "P29_008": "00", "P29_009": null }, "geometry": { "type": "Point", "coordinates": [ 138.616919741730868, 35.201888711605967 ] } },
{ "type": "Feature", "properties": { "P29_001": "22210", "P29_002": "C122310000288", "P29_003": "16002", "P29_004": "静岡県富士見中学校", "P29_005": "静岡県富士市平垣町1-1", "P29_006": "4", "P29_007": "1", "P29_008": "00", "P29_009": null }, "geometry": { "type": "Point", "coordinates": [ 138.64670991029945, 35.155461172533485 ] } }
]
}
