{
"type": "FeatureCollection",
"name": "geo_22_大学",
"crs": { "type": "name", "properties": { "name": "urn:ogc:def:crs:EPSG::6668" } },
"features": [
{ "type": "Feature", "properties": { "P29_001": "22102", "P29_002": "F122110106224", "P29_003": "16007", "P29_004": "静岡大学", "P29_005": "静岡県静岡市駿河区大谷836", "P29_006": "1", "P29_007": "0", "P29_008": "01", "P29_009": "静岡キャンパス" }, "geometry": { "type": "Point", "coordinates": [ 138.432880660954652, 34.96559880176828 ] } },
{ "type": "Feature", "properties": { "P29_001": "22132", "P29_002": "F122110106233", "P29_003": "16007", "P29_004": "浜松医科大学", "P29_005": "静岡県浜松市東区半田山1-20-1", "P29_006": "1", "P29_007": "0", "P29_008": "00", "P29_009": null }, "geometry": { "type": "Point", "coordinates": [ 137.742678729286951, 34.768880911265164 ] } },
{ "type": "Feature", "properties": { "P29_001": "22211", "P29_002": "F122210106240", "P29_003": "16007", "P29_004": "静岡県立農林環境専門職大学", "P29_005": "静岡県磐田市富丘678-1", "P29_006": "2", "P29_007": "0", "P29_008": "00", "P29_009": null }, "geometry": { "type": "Point", "coordinates": [ 137.846079069776465, 34.729790027260549 ] } },
{ "type": "Feature", "properties": { "P29_001": "22102", "P29_002": "F122210106259", "P29_003": "16007", "P29_004": "静岡県立大学", "P29_005": "静岡県静岡市駿河区谷田52-1", "P29_006": "2", "P29_007": "0", "P29_008": "00", "P29_009": null }, "geometry": { "type": "Point", "coordinates": [ 138.446128999411542, 34.995377997688273 ] } },
{ "type": "Feature", "properties": { "P29_001": "22131", "P29_002": "F122210106268", "P29_003": "16007", "P29_004": "静岡文化芸術大学", "P29_005": "静岡県浜松市中央区中央2-1-1", "P29_006": "3", "P29_007": "0", "P29_008": "00", "P29_009": null }, "geometry": { "type": "Point", "coordinates": [ 137.738746359655124, 34.712644090343218 ] } },
{ "type": "Feature", "properties": { "P29_001": "22101", "P29_002": "F122210111877", "P29_003": "16007", "P29_004": "静岡社会健康医学大学院大学", "P29_005": "静岡県静岡市葵区北安東4-27-2", "P29_006": "3", "P29_007": "0", "P29_008": "00", "P29_009": null }, "geometry": { "type": "Point", "coordinates": [ 138.386551934362302, 35.001782870275285 ] } },
{ "type": "Feature", "properties": { "P29_001": "22133", "P29_002": "F122310106275", "P29_003": "16007", "P29_004": "光産業創成大学院大学", "P29_005": "静岡県浜松市西区呉松町1955-1", "P29_006": "4", "P29_007": "0", "P29_008": "00", "P29_009": null }, "geometry": { "type": "Point", "coordinates": [ 137.630004586377822, 34.776744297576833 ] } },
{ "type": "Feature", "properties": { "P29_001": "22212", "P29_002": "F122310106284", "P29_003": "16007", "P29_004": "静岡福祉大学", "P29_005": "静岡県焼津市本中根549-1", "P29_006": "4", "P29_007": "0", "P29_008": "00", "P29_009": null }, "geometry": { "type": "Point", "coordinates": [ 138.29689311471347, 34.829581687822298 ] } },
{ "type": "Feature", "properties": { "P29_001": "22131", "P29_002": "F122310106293", "P29_003": "16007", "P29_004": "浜松学院大学", "P29_005": "静岡県浜松市中区布橋3-2-3", "P29_006": "4", "P29_007": "0", "P29_008": "00", "P29_009": null }, "geometry": { "type": "Point", "coordinates": [ 137.713112123275039, 34.720773897265758 ] } },
{ "type": "Feature", "properties": { "P29_001": "22102", "P29_002": "F122310106300", "P29_003": "16007", "P29_004": "静岡英和学院大学", "P29_005": "静岡県静岡市駿河区池田1769", "P29_006": "4", "P29_007": "0", "P29_008": "00", "P29_009": null }, "geometry": { "type": "Point", "coordinates": [ 138.437055417030109, 34.982936176196525 ] } },
{ "type": "Feature", "properties": { "P29_001": "22102", "P29_002": "F122310106319", "P29_003": "16007", "P29_004": "常葉大学", "P29_005": "静岡県静岡市駿河区弥生町6-1", "P29_006": "4", "P29_007": "0", "P29_008": "01", "P29_009": "静岡草薙キャンパス" }, "geometry": { "type": "Point", "coordinates": [ 138.437412799552845, 35.004542982798426 ] } },
{ "type": "Feature", "properties": { "P29_001": "22216", "P29_002": "F122310106328", "P29_003": "16007", "P29_004": "静岡理工科大学", "P29_005": "静岡県袋井市豊沢2200-2", "P29_006": "4", "P29_007": "0", "P29_008": "00", "P29_009": null }, "geometry": { "type": "Point", "coordinates": [ 137.96126878133893, 34.738471986220787 ] } },
{ "type": "Feature", "properties": { "P29_001": "22135", "P29_002": "F122310106337", "P29_003": "16007", "P29_004": "聖隷クリストファー大学", "P29_005": "静岡県浜松市北区三方原町3453", "P29_006": "4", "P29_007": "0", "P29_008": "00", "P29_009": null }, "geometry": { "type": "Point", "coordinates": [ 137.692370110197089, 34.792642044611007 ] } },
{ "type": "Feature", "properties": { "P29_001": "22214", "P29_002": "F122310106346", "P29_003": "16007", "P29_004": "静岡産業大学", "P29_005": "静岡県藤枝市駿河台4-1-1", "P29_006": "4", "P29_007": "0", "P29_008": "01", "P29_009": "藤枝キャンパス" }, "geometry": { "type": "Point", "coordinates": [ 138.228833771194417, 34.860590431139926 ] } },
{ "type": "Feature", "properties": { "P29_001": "22206", "P29_002": "F113310103055", "P29_003": "16007", "P29_004": "順天堂大学", "P29_005": "静岡県三島市大宮町3-7-33", "P29_006": "4", "P29_007": "0", "P29_008": "03", "P29_009": "三島キャンパス" }, "geometry": { "type": "Point", "coordinates": [ 138.919092402569191, 35.125767336991245 ] } },
{ "type": "Feature", "properties": { "P29_001": "22103", "P29_002": "F113310103233", "P29_003": "16007", "P29_004": "東海大学", "P29_005": "静岡県静岡市清水区折戸3-20-1", "P29_006": "4", "P29_007": "0", "P29_008": "05", "P29_009": "静岡キャンパス" }, "geometry": { "type": "Point", "coordinates": [ 138.515182839126254, 34.988796419867334 ] } },
{ "type": "Feature", "properties": { "P29_001": "22206", "P29_002": "F113310103395", "P29_003": "16007", "P29_004": "日本大学", "P29_005": "静岡県三島市文教町2-31-145", "P29_006": "4", "P29_007": "0", "P29_008": "17", "P29_009": "国際関係学部" }, "geometry": { "type": "Point", "coordinates": [ 138.914783738667865, 35.132840171976063 ] } },
{ "type": "Feature", "properties": { "P29_001": "22206", "P29_002": "F114110104609", "P29_003": "16007", "P29_004": "総合研究大学院大学", "P29_005": "静岡県三島市谷田1111", "P29_006": "1", "P29_007": "0", "P29_008": "09", "P29_009": "遺伝学コース" }, "geometry": { "type": "Point", "coordinates": [ 138.938289138260529, 35.117762745434405 ] } },
{ "type": "Feature", "properties": { "P29_001": "22131", "P29_002": "F122110106224", "P29_003": "16007", "P29_004": "静岡大学", "P29_005": "静岡県浜松市中区城北3-5-1", "P29_006": "1", "P29_007": "0", "P29_008": "02", "P29_009": "浜松キャンパス" }, "geometry": { "type": "Point", "coordinates": [ 137.716004497708042, 34.725193885840632 ] } },
{ "type": "Feature", "properties": { "P29_001": "22101", "P29_002": "F122310106319", "P29_003": "16007", "P29_004": "常葉大学", "P29_005": "静岡県静岡市葵区瀬名1-22-1", "P29_006": "4", "P29_007": "0", "P29_008": "02", "P29_009": "静岡瀬名キャンパス" }, "geometry": { "type": "Point", "coordinates": [ 138.426503864784053, 35.01358812038324 ] } },
{ "type": "Feature", "properties": { "P29_001": "22135", "P29_002": "F122310106319", "P29_003": "16007", "P29_004": "常葉大学", "P29_005": "静岡県浜松市浜北区都田町1230", "P29_006": "4", "P29_007": "0", "P29_008": "03", "P29_009": "浜松キャンパス" }, "geometry": { "type": "Point", "coordinates": [ 137.708734588365132, 34.81468331979363 ] } },
{ "type": "Feature", "properties": { "P29_001": "22101", "P29_002": "F122310106319", "P29_003": "16007", "P29_004": "常葉大学", "P29_005": "静岡県静岡市葵区水落町1-30", "P29_006": "4", "P29_007": "0", "P29_008": "04", "P29_009": "静岡水落キャンパス" }, "geometry": { "type": "Point", "coordinates": [ 138.388438703542533, 34.981184191548607 ] } },
{ "type": "Feature", "properties": { "P29_001": "22211", "P29_002": "F122310106346", "P29_003": "16007", "P29_004": "静岡産業大学", "P29_005": "静岡県磐田市大原1572-1", "P29_006": "4", "P29_007": "0", "P29_008": "02", "P29_009": "磐田キャンパス" }, "geometry": { "type": "Point", "coordinates": [ 137.859829939952476, 34.697788341290646 ] } }
]
}
