{
"type": "FeatureCollection",
"name": "geo_22_幼保連携型認定こども園",
"crs": { "type": "name", "properties": { "name": "urn:ogc:def:crs:EPSG::6668" } },
"features": [
{ "type": "Feature", "properties": { "P29_001": "22101", "P29_002": "A222210000014", "P29_003": "16013", "P29_004": "静岡市立上土こども園", "P29_005": "静岡県静岡市葵区古庄4-2-11", "P29_006": "3", "P29_007": "0", "P29_008": "00", "P29_009": null }, "geometry": { "type": "Point", "coordinates": [ 138.416027121167303, 34.999029442306046 ] } },
{ "type": "Feature", "properties": { "P29_001": "22101", "P29_002": "A222210000023", "P29_003": "16013", "P29_004": "静岡市立安倍口中央こども園", "P29_005": "静岡県静岡市葵区安倍口団地3-1", "P29_006": "3", "P29_007": "0", "P29_008": "00", "P29_009": null }, "geometry": { "type": "Point", "coordinates": [ 138.364612370049684, 35.020386382063556 ] } },
{ "type": "Feature", "properties": { "P29_001": "22101", "P29_002": "A222210000032", "P29_003": "16013", "P29_004": "静岡市立瀬名川こども園", "P29_005": "静岡県静岡市葵区瀬名川1-21-40", "P29_006": "3", "P29_007": "0", "P29_008": "00", "P29_009": null }, "geometry": { "type": "Point", "coordinates": [ 138.42696116919268, 35.004728336342652 ] } },
{ "type": "Feature", "properties": { "P29_001": "22101", "P29_002": "A222210000041", "P29_003": "16013", "P29_004": "静岡市立田町こども園", "P29_005": "静岡県静岡市葵区田町1-79", "P29_006": "3", "P29_007": "0", "P29_008": "00", "P29_009": null }, "geometry": { "type": "Point", "coordinates": [ 138.366105604566172, 34.974972220848827 ] } },
{ "type": "Feature", "properties": { "P29_001": "22101", "P29_002": "A222210000050", "P29_003": "16013", "P29_004": "静岡市立長沼こども園", "P29_005": "静岡県静岡市葵区長沼2-18-31", "P29_006": "3", "P29_007": "0", "P29_008": "00", "P29_009": null }, "geometry": { "type": "Point", "coordinates": [ 138.414304162594561, 34.99331357396467 ] } },
{ "type": "Feature", "properties": { "P29_001": "22101", "P29_002": "A222210000069", "P29_003": "16013", "P29_004": "静岡市立中藁科こども園", "P29_005": "静岡県静岡市葵区大原1237", "P29_006": "3", "P29_007": "0", "P29_008": "00", "P29_009": null }, "geometry": { "type": "Point", "coordinates": [ 138.27867722133513, 35.007579238177797 ] } },
{ "type": "Feature", "properties": { "P29_001": "22101", "P29_002": "A222210000078", "P29_003": "16013", "P29_004": "静岡市立服織こども園", "P29_005": "静岡県静岡市葵区山崎1-17-1", "P29_006": "3", "P29_007": "0", "P29_008": "00", "P29_009": null }, "geometry": { "type": "Point", "coordinates": [ 138.353825995671599, 34.975688997139102 ] } },
{ "type": "Feature", "properties": { "P29_001": "22101", "P29_002": "A222210000087", "P29_003": "16013", "P29_004": "静岡市立服織中央こども園", "P29_005": "静岡県静岡市葵区羽鳥本町25-33", "P29_006": "3", "P29_007": "0", "P29_008": "00", "P29_009": null }, "geometry": { "type": "Point", "coordinates": [ 138.330319814788169, 34.986367703337805 ] } },
{ "type": "Feature", "properties": { "P29_001": "22101", "P29_002": "A222210000096", "P29_003": "16013", "P29_004": "静岡市立安東こども園", "P29_005": "静岡県静岡市葵区安東3-11-17", "P29_006": "3", "P29_007": "0", "P29_008": "00", "P29_009": null }, "geometry": { "type": "Point", "coordinates": [ 138.384048004900023, 34.991638002321373 ] } },
{ "type": "Feature", "properties": { "P29_001": "22102", "P29_002": "A222210000103", "P29_003": "16013", "P29_004": "静岡市立久能こども園", "P29_005": "静岡県静岡市駿河区青沢240", "P29_006": "3", "P29_007": "0", "P29_008": "00", "P29_009": null }, "geometry": { "type": "Point", "coordinates": [ 138.451453059636549, 34.955610570732006 ] } },
{ "type": "Feature", "properties": { "P29_001": "22101", "P29_002": "A222210000112", "P29_003": "16013", "P29_004": "静岡市立西奈こども園", "P29_005": "静岡県静岡市葵区瀬名3-24-25", "P29_006": "3", "P29_007": "0", "P29_008": "00", "P29_009": null }, "geometry": { "type": "Point", "coordinates": [ 138.421055279007248, 35.023451595996491 ] } },
{ "type": "Feature", "properties": { "P29_001": "22101", "P29_002": "A222210000121", "P29_003": "16013", "P29_004": "静岡市立安倍口こども園", "P29_005": "静岡県静岡市葵区安倍口新田43-1", "P29_006": "3", "P29_007": "0", "P29_008": "00", "P29_009": null }, "geometry": { "type": "Point", "coordinates": [ 138.35892575476953, 35.022407622341987 ] } },
{ "type": "Feature", "properties": { "P29_001": "22102", "P29_002": "A222210000130", "P29_003": "16013", "P29_004": "静岡市立小黒こども園", "P29_005": "静岡県静岡市駿河区小黒1-7-6", "P29_006": "3", "P29_007": "0", "P29_008": "00", "P29_009": null }, "geometry": { "type": "Point", "coordinates": [ 138.400898994049754, 34.975033997837251 ] } },
{ "type": "Feature", "properties": { "P29_001": "22102", "P29_002": "A222210000149", "P29_003": "16013", "P29_004": "静岡市立下川原こども園", "P29_005": "静岡県静岡市駿河区下川原6-8-26", "P29_006": "3", "P29_007": "0", "P29_008": "00", "P29_009": null }, "geometry": { "type": "Point", "coordinates": [ 138.373662889187102, 34.933611237324371 ] } },
{ "type": "Feature", "properties": { "P29_001": "22102", "P29_002": "A222210000158", "P29_003": "16013", "P29_004": "静岡市立高松こども園", "P29_005": "静岡県静岡市駿河区敷地2-7-14", "P29_006": "3", "P29_007": "0", "P29_008": "00", "P29_009": null }, "geometry": { "type": "Point", "coordinates": [ 138.412448997729712, 34.949318002602773 ] } },
{ "type": "Feature", "properties": { "P29_001": "22102", "P29_002": "A222210000167", "P29_003": "16013", "P29_004": "静岡市立東新田こども園", "P29_005": "静岡県静岡市駿河区東新田4-1-40", "P29_006": "3", "P29_007": "0", "P29_008": "00", "P29_009": null }, "geometry": { "type": "Point", "coordinates": [ 138.375855485020395, 34.944807272435121 ] } },
{ "type": "Feature", "properties": { "P29_001": "22102", "P29_002": "A222210000176", "P29_003": "16013", "P29_004": "静岡市立登呂こども園", "P29_005": "静岡県静岡市駿河区登呂3-19-1", "P29_006": "3", "P29_007": "0", "P29_008": "00", "P29_009": null }, "geometry": { "type": "Point", "coordinates": [ 138.407388226641046, 34.958479098609189 ] } },
{ "type": "Feature", "properties": { "P29_001": "22102", "P29_002": "A222210000185", "P29_003": "16013", "P29_004": "静岡市立中田こども園", "P29_005": "静岡県静岡市駿河区馬渕4-2-29", "P29_006": "3", "P29_007": "0", "P29_008": "00", "P29_009": null }, "geometry": { "type": "Point", "coordinates": [ 138.392253000675623, 34.962571998489473 ] } },
{ "type": "Feature", "properties": { "P29_001": "22102", "P29_002": "A222210000194", "P29_003": "16013", "P29_004": "静岡市立中村町こども園", "P29_005": "静岡県静岡市駿河区中村町94", "P29_006": "3", "P29_007": "0", "P29_008": "00", "P29_009": null }, "geometry": { "type": "Point", "coordinates": [ 138.392007590075934, 34.953878322923643 ] } },
{ "type": "Feature", "properties": { "P29_001": "22102", "P29_002": "A222210000201", "P29_003": "16013", "P29_004": "静岡市立東豊田中央こども園", "P29_005": "静岡県静岡市駿河区国吉田6-7-29", "P29_006": "3", "P29_007": "0", "P29_008": "00", "P29_009": null }, "geometry": { "type": "Point", "coordinates": [ 138.436601193875504, 34.990392669729275 ] } },
{ "type": "Feature", "properties": { "P29_001": "22102", "P29_002": "A222210000210", "P29_003": "16013", "P29_004": "静岡市立広野こども園", "P29_005": "静岡県静岡市駿河区広野6-11-1", "P29_006": "3", "P29_007": "0", "P29_008": "00", "P29_009": null }, "geometry": { "type": "Point", "coordinates": [ 138.373691638543619, 34.929066251688894 ] } },
{ "type": "Feature", "properties": { "P29_001": "22102", "P29_002": "A222210000229", "P29_003": "16013", "P29_004": "静岡市立富士見台こども園", "P29_005": "静岡県静岡市駿河区富士見台2-11-44", "P29_006": "3", "P29_007": "0", "P29_008": "00", "P29_009": null }, "geometry": { "type": "Point", "coordinates": [ 138.417997995889294, 34.963142002404268 ] } },
{ "type": "Feature", "properties": { "P29_001": "22102", "P29_002": "A222210000238", "P29_003": "16013", "P29_004": "静岡市立丸子こども園", "P29_005": "静岡県静岡市駿河区丸子2-18-32", "P29_006": "3", "P29_007": "0", "P29_008": "00", "P29_009": null }, "geometry": { "type": "Point", "coordinates": [ 138.355588352576319, 34.942757575832687 ] } },
{ "type": "Feature", "properties": { "P29_001": "22102", "P29_002": "A222210000247", "P29_003": "16013", "P29_004": "静岡市立用宗こども園", "P29_005": "静岡県静岡市駿河区用宗5-18-7", "P29_006": "3", "P29_007": "0", "P29_008": "00", "P29_009": null }, "geometry": { "type": "Point", "coordinates": [ 138.361389999772683, 34.918403998044475 ] } },
{ "type": "Feature", "properties": { "P29_001": "22102", "P29_002": "A222210000256", "P29_003": "16013", "P29_004": "静岡市立八幡こども園", "P29_005": "静岡県静岡市駿河区八幡2-15-20", "P29_006": "3", "P29_007": "0", "P29_008": "00", "P29_009": null }, "geometry": { "type": "Point", "coordinates": [ 138.397370720357969, 34.971641472231312 ] } },
{ "type": "Feature", "properties": { "P29_001": "22101", "P29_002": "A222210000265", "P29_003": "16013", "P29_004": "静岡市立藁科こども園", "P29_005": "静岡県静岡市葵区吉津1", "P29_006": "3", "P29_007": "0", "P29_008": "00", "P29_009": null }, "geometry": { "type": "Point", "coordinates": [ 138.308789486307489, 34.980414944147185 ] } },
{ "type": "Feature", "properties": { "P29_001": "22102", "P29_002": "A222210000274", "P29_003": "16013", "P29_004": "静岡市立大谷こども園", "P29_005": "静岡県静岡市駿河区西大谷6-8", "P29_006": "3", "P29_007": "0", "P29_008": "00", "P29_009": null }, "geometry": { "type": "Point", "coordinates": [ 138.426773554083553, 34.954092388914184 ] } },
{ "type": "Feature", "properties": { "P29_001": "22102", "P29_002": "A222210000283", "P29_003": "16013", "P29_004": "静岡市立東豊田こども園", "P29_005": "静岡県静岡市駿河区池田492-2", "P29_006": "3", "P29_007": "0", "P29_008": "00", "P29_009": null }, "geometry": { "type": "Point", "coordinates": [ 138.424513131479557, 34.984052288618585 ] } },
{ "type": "Feature", "properties": { "P29_001": "22103", "P29_002": "A222210000292", "P29_003": "16013", "P29_004": "静岡市立飯田北こども園", "P29_005": "静岡県静岡市清水区石川本町11-92", "P29_006": "3", "P29_007": "0", "P29_008": "00", "P29_009": null }, "geometry": { "type": "Point", "coordinates": [ 138.461404000683189, 35.034209996288858 ] } },
{ "type": "Feature", "properties": { "P29_001": "22103", "P29_002": "A222210000309", "P29_003": "16013", "P29_004": "静岡市立飯田南こども園", "P29_005": "静岡県静岡市清水区高橋4-4-56", "P29_006": "3", "P29_007": "0", "P29_008": "00", "P29_009": null }, "geometry": { "type": "Point", "coordinates": [ 138.474278681551652, 35.029164836035086 ] } },
{ "type": "Feature", "properties": { "P29_001": "22103", "P29_002": "A222210000318", "P29_003": "16013", "P29_004": "静岡市立庵原こども園", "P29_005": "静岡県静岡市清水区庵原町1938", "P29_006": "3", "P29_007": "0", "P29_008": "00", "P29_009": null }, "geometry": { "type": "Point", "coordinates": [ 138.473337646063925, 35.054335943655403 ] } },
{ "type": "Feature", "properties": { "P29_001": "22103", "P29_002": "A222210000327", "P29_003": "16013", "P29_004": "静岡市立入江こども園", "P29_005": "静岡県静岡市清水区入江1-13-15", "P29_006": "3", "P29_007": "0", "P29_008": "00", "P29_009": null }, "geometry": { "type": "Point", "coordinates": [ 138.479318672480929, 35.019149360225221 ] } },
{ "type": "Feature", "properties": { "P29_001": "22103", "P29_002": "A222210000336", "P29_003": "16013", "P29_004": "静岡市立有度北こども園", "P29_005": "静岡県静岡市清水区長崎740-1", "P29_006": "3", "P29_007": "0", "P29_008": "00", "P29_009": null }, "geometry": { "type": "Point", "coordinates": [ 138.443096991654841, 35.015695551581835 ] } },
{ "type": "Feature", "properties": { "P29_001": "22103", "P29_002": "A222210000345", "P29_003": "16013", "P29_004": "静岡市立有度西こども園", "P29_005": "静岡県静岡市清水区中之郷1-10-27", "P29_006": "3", "P29_007": "0", "P29_008": "00", "P29_009": null }, "geometry": { "type": "Point", "coordinates": [ 138.440664833875587, 34.998599044047232 ] } },
{ "type": "Feature", "properties": { "P29_001": "22103", "P29_002": "A222210000354", "P29_003": "16013", "P29_004": "静岡市立興津北こども園", "P29_005": "静岡県静岡市清水区八木間町478", "P29_006": "3", "P29_007": "0", "P29_008": "00", "P29_009": null }, "geometry": { "type": "Point", "coordinates": [ 138.52091019029217, 35.065416881522083 ] } },
{ "type": "Feature", "properties": { "P29_001": "22103", "P29_002": "A222210000372", "P29_003": "16013", "P29_004": "静岡市立川原こども園", "P29_005": "静岡県静岡市清水区川原町24-8", "P29_006": "3", "P29_007": "0", "P29_008": "00", "P29_009": null }, "geometry": { "type": "Point", "coordinates": [ 138.475270001537467, 35.000239001467044 ] } },
{ "type": "Feature", "properties": { "P29_001": "22103", "P29_002": "A222210000381", "P29_003": "16013", "P29_004": "静岡市立駒越こども園", "P29_005": "静岡県静岡市清水区迎山町4-15", "P29_006": "3", "P29_007": "0", "P29_008": "00", "P29_009": null }, "geometry": { "type": "Point", "coordinates": [ 138.49238000182828, 34.977554998071724 ] } },
{ "type": "Feature", "properties": { "P29_001": "22103", "P29_002": "A222210000390", "P29_003": "16013", "P29_004": "静岡市立清水こども園", "P29_005": "静岡県静岡市清水区本町11-32", "P29_006": "3", "P29_007": "0", "P29_008": "00", "P29_009": null }, "geometry": { "type": "Point", "coordinates": [ 138.487202357552519, 35.008519507351586 ] } },
{ "type": "Feature", "properties": { "P29_001": "22103", "P29_002": "A222210000407", "P29_003": "16013", "P29_004": "静岡市立高部中央こども園", "P29_005": "静岡県静岡市清水区梅ケ谷459-1", "P29_006": "3", "P29_007": "0", "P29_008": "00", "P29_009": null }, "geometry": { "type": "Point", "coordinates": [ 138.45190697593128, 35.042589690234742 ] } },
{ "type": "Feature", "properties": { "P29_001": "22103", "P29_002": "A222210000416", "P29_003": "16013", "P29_004": "静岡市立辻こども園", "P29_005": "静岡県静岡市清水区辻4-7-21", "P29_006": "3", "P29_007": "0", "P29_008": "00", "P29_009": null }, "geometry": { "type": "Point", "coordinates": [ 138.48641900276553, 35.028726997195612 ] } },
{ "type": "Feature", "properties": { "P29_001": "22103", "P29_002": "A222210000425", "P29_003": "16013", "P29_004": "静岡市立西久保こども園", "P29_005": "静岡県静岡市清水区西久保438-1", "P29_006": "3", "P29_007": "0", "P29_008": "00", "P29_009": null }, "geometry": { "type": "Point", "coordinates": [ 138.484289816551581, 35.035773158671851 ] } },
{ "type": "Feature", "properties": { "P29_001": "22103", "P29_002": "A222210000434", "P29_003": "16013", "P29_004": "静岡市立原こども園", "P29_005": "静岡県静岡市清水区原45-5", "P29_006": "3", "P29_007": "0", "P29_008": "00", "P29_009": null }, "geometry": { "type": "Point", "coordinates": [ 138.483032790731556, 35.04724785483117 ] } },
{ "type": "Feature", "properties": { "P29_001": "22103", "P29_002": "A222210000452", "P29_003": "16013", "P29_004": "静岡市立横砂こども園", "P29_005": "静岡県静岡市清水区横砂東町17-5", "P29_006": "3", "P29_007": "0", "P29_008": "00", "P29_009": null }, "geometry": { "type": "Point", "coordinates": [ 138.502728085691956, 35.044241812019514 ] } },
{ "type": "Feature", "properties": { "P29_001": "22103", "P29_002": "A222210000461", "P29_003": "16013", "P29_004": "静岡市立蒲原西部こども園", "P29_005": "静岡県静岡市清水区蒲原中566-1", "P29_006": "3", "P29_007": "0", "P29_008": "00", "P29_009": null }, "geometry": { "type": "Point", "coordinates": [ 138.583492996787982, 35.115899001404472 ] } },
{ "type": "Feature", "properties": { "P29_001": "22103", "P29_002": "A222210000470", "P29_003": "16013", "P29_004": "静岡市立蒲原東部こども園", "P29_005": "静岡県静岡市清水区蒲原5092-3", "P29_006": "3", "P29_007": "0", "P29_008": "00", "P29_009": null }, "geometry": { "type": "Point", "coordinates": [ 138.620068510543575, 35.126023549952301 ] } },
{ "type": "Feature", "properties": { "P29_001": "22103", "P29_002": "A222210000489", "P29_003": "16013", "P29_004": "静岡市立入山こども園", "P29_005": "静岡県静岡市清水区由比入山1964", "P29_006": "3", "P29_007": "0", "P29_008": "00", "P29_009": null }, "geometry": { "type": "Point", "coordinates": [ 138.557320185038975, 35.13038905719754 ] } },
{ "type": "Feature", "properties": { "P29_001": "22103", "P29_002": "A222210000498", "P29_003": "16013", "P29_004": "静岡市立由比中央こども園", "P29_005": "静岡県静岡市清水区由比北田146", "P29_006": "3", "P29_007": "0", "P29_008": "00", "P29_009": null }, "geometry": { "type": "Point", "coordinates": [ 138.559009647880487, 35.108704616008183 ] } },
{ "type": "Feature", "properties": { "P29_001": "22103", "P29_002": "A222210000504", "P29_003": "16013", "P29_004": "静岡市立高部こども園", "P29_005": "静岡県静岡市清水区押切996-2", "P29_006": "3", "P29_007": "0", "P29_008": "00", "P29_009": null }, "geometry": { "type": "Point", "coordinates": [ 138.453557830912445, 35.02801994284183 ] } },
{ "type": "Feature", "properties": { "P29_001": "22103", "P29_002": "A222210000513", "P29_003": "16013", "P29_004": "静岡市立小島こども園", "P29_005": "静岡県静岡市清水区小島町621-1", "P29_006": "3", "P29_007": "0", "P29_008": "00", "P29_009": null }, "geometry": { "type": "Point", "coordinates": [ 138.51462012174656, 35.091528595291059 ] } },
{ "type": "Feature", "properties": { "P29_001": "22103", "P29_002": "A222210000522", "P29_003": "16013", "P29_004": "静岡市立小河内こども園", "P29_005": "静岡県静岡市清水区小河内2693-2", "P29_006": "3", "P29_007": "0", "P29_008": "00", "P29_009": null }, "geometry": { "type": "Point", "coordinates": [ 138.510391978764972, 35.119900386189279 ] } },
{ "type": "Feature", "properties": { "P29_001": "22103", "P29_002": "A222210000531", "P29_003": "16013", "P29_004": "静岡市立和田島こども園", "P29_005": "静岡県静岡市清水区和田島694-1", "P29_006": "3", "P29_007": "0", "P29_008": "00", "P29_009": null }, "geometry": { "type": "Point", "coordinates": [ 138.479467997952327, 35.110040999913714 ] } },
{ "type": "Feature", "properties": { "P29_001": "22103", "P29_002": "A222210000540", "P29_003": "16013", "P29_004": "静岡市立由比こども園", "P29_005": "静岡県静岡市清水区由比377-1", "P29_006": "3", "P29_007": "0", "P29_008": "00", "P29_009": null }, "geometry": { "type": "Point", "coordinates": [ 138.561702003444196, 35.109497998315476 ] } },
{ "type": "Feature", "properties": { "P29_001": "22211", "P29_002": "A222210000559", "P29_003": "16013", "P29_004": "磐田市立福田こども園", "P29_005": "静岡県磐田市福田中島55", "P29_006": "3", "P29_007": "0", "P29_008": "00", "P29_009": null }, "geometry": { "type": "Point", "coordinates": [ 137.875018856473218, 34.683555003804614 ] } },
{ "type": "Feature", "properties": { "P29_001": "22211", "P29_002": "A222210000568", "P29_003": "16013", "P29_004": "磐田市立竜洋東こども園", "P29_005": "静岡県磐田市中平松30-4", "P29_006": "3", "P29_007": "0", "P29_008": "00", "P29_009": null }, "geometry": { "type": "Point", "coordinates": [ 137.823507683393501, 34.671565900554377 ] } },
{ "type": "Feature", "properties": { "P29_001": "22219", "P29_002": "A222210000577", "P29_003": "16013", "P29_004": "下田市立下田認定こども園", "P29_005": "静岡県下田市敷根765-19", "P29_006": "3", "P29_007": "0", "P29_008": "00", "P29_009": null }, "geometry": { "type": "Point", "coordinates": [ 138.928090632688907, 34.681709024960625 ] } },
{ "type": "Feature", "properties": { "P29_001": "22222", "P29_002": "A222210000586", "P29_003": "16013", "P29_004": "伊豆市立熊坂こども園", "P29_005": "静岡県伊豆市熊坂426", "P29_006": "3", "P29_007": "0", "P29_008": "00", "P29_009": null }, "geometry": { "type": "Point", "coordinates": [ 138.932718923533798, 34.989748514363846 ] } },
{ "type": "Feature", "properties": { "P29_001": "22222", "P29_002": "A222210000595", "P29_003": "16013", "P29_004": "伊豆市立修善寺東こども園", "P29_005": "静岡県伊豆市加殿22-1", "P29_006": "3", "P29_007": "0", "P29_008": "00", "P29_009": null }, "geometry": { "type": "Point", "coordinates": [ 138.947561128038757, 34.971641602666296 ] } },
{ "type": "Feature", "properties": { "P29_001": "22222", "P29_002": "A222210000602", "P29_003": "16013", "P29_004": "伊豆市立土肥こども園", "P29_005": "静岡県伊豆市土肥665-26", "P29_006": "3", "P29_007": "0", "P29_008": "00", "P29_009": null }, "geometry": { "type": "Point", "coordinates": [ 138.794238778750497, 34.909485472926505 ] } },
{ "type": "Feature", "properties": { "P29_001": "22223", "P29_002": "A222210000611", "P29_003": "16013", "P29_004": "認定こども園御前崎市立御前崎こども園", "P29_005": "静岡県御前崎市御前崎78-27", "P29_006": "3", "P29_007": "0", "P29_008": "00", "P29_009": null }, "geometry": { "type": "Point", "coordinates": [ 138.213617471591817, 34.603978906769314 ] } },
{ "type": "Feature", "properties": { "P29_001": "22223", "P29_002": "A222210000620", "P29_003": "16013", "P29_004": "認定こども園御前崎市立さくらこども園", "P29_005": "静岡県御前崎市佐倉888-1", "P29_006": "3", "P29_007": "0", "P29_008": "00", "P29_009": null }, "geometry": { "type": "Point", "coordinates": [ 138.15566434868586, 34.634453757994663 ] } },
{ "type": "Feature", "properties": { "P29_001": "22224", "P29_002": "A222210000639", "P29_003": "16013", "P29_004": "菊川市立おおぞら認定こども園", "P29_005": "静岡県菊川市下内田832-1", "P29_006": "3", "P29_007": "0", "P29_008": "00", "P29_009": null }, "geometry": { "type": "Point", "coordinates": [ 138.080064000812285, 34.72148799528938 ] } },
{ "type": "Feature", "properties": { "P29_001": "22304", "P29_002": "A222210000648", "P29_003": "16013", "P29_004": "南伊豆町立南伊豆認定こども園", "P29_005": "静岡県賀茂郡南伊豆町上賀茂277", "P29_006": "3", "P29_007": "0", "P29_008": "00", "P29_009": null }, "geometry": { "type": "Point", "coordinates": [ 138.859313078174267, 34.659556090664758 ] } },
{ "type": "Feature", "properties": { "P29_001": "22306", "P29_002": "A222210000657", "P29_003": "16013", "P29_004": "西伊豆町立伊豆海認定こども園", "P29_005": "静岡県賀茂郡西伊豆町田子1709-50", "P29_006": "3", "P29_007": "0", "P29_008": "00", "P29_009": null }, "geometry": { "type": "Point", "coordinates": [ 138.765284448227106, 34.806803901459006 ] } },
{ "type": "Feature", "properties": { "P29_001": "22344", "P29_002": "A222210000666", "P29_003": "16013", "P29_004": "小山町立きたごうこども園", "P29_005": "静岡県駿東郡小山町用沢207-1", "P29_006": "3", "P29_007": "0", "P29_008": "00", "P29_009": null }, "geometry": { "type": "Point", "coordinates": [ 138.946490573680961, 35.344996176928134 ] } },
{ "type": "Feature", "properties": { "P29_001": "22342", "P29_002": "A222210000684", "P29_003": "16013", "P29_004": "長泉町立北こども園", "P29_005": "静岡県駿東郡長泉町上土狩38-5", "P29_006": "3", "P29_007": "0", "P29_008": "00", "P29_009": null }, "geometry": { "type": "Point", "coordinates": [ 138.906775154713358, 35.139873964603723 ] } },
{ "type": "Feature", "properties": { "P29_001": "22306", "P29_002": "A222210000693", "P29_003": "16013", "P29_004": "西伊豆町立仁科認定こども園", "P29_005": "静岡県賀茂郡西伊豆町仁科267", "P29_006": "3", "P29_007": "0", "P29_008": "00", "P29_009": null }, "geometry": { "type": "Point", "coordinates": [ 138.777223956267079, 34.769369008721256 ] } },
{ "type": "Feature", "properties": { "P29_001": "22344", "P29_002": "A222210000700", "P29_003": "16013", "P29_004": "小山町立するがおやまこども園", "P29_005": "静岡県駿東郡小山町小山289-1", "P29_006": "3", "P29_007": "0", "P29_008": "00", "P29_009": null }, "geometry": { "type": "Point", "coordinates": [ 138.990451375122689, 35.360028550231299 ] } },
{ "type": "Feature", "properties": { "P29_001": "22344", "P29_002": "A222210000719", "P29_003": "16013", "P29_004": "小山町立すがぬまこども園", "P29_005": "静岡県駿東郡小山町菅沼274-2", "P29_006": "3", "P29_007": "0", "P29_008": "00", "P29_009": null }, "geometry": { "type": "Point", "coordinates": [ 138.974322278413382, 35.346287199046991 ] } },
{ "type": "Feature", "properties": { "P29_001": "22344", "P29_002": "A222210000728", "P29_003": "16013", "P29_004": "小山町立すばしりこども園", "P29_005": "静岡県駿東郡小山町須走83", "P29_006": "3", "P29_007": "0", "P29_008": "00", "P29_009": null }, "geometry": { "type": "Point", "coordinates": [ 138.868038221874798, 35.364774903819487 ] } },
{ "type": "Feature", "properties": { "P29_001": "22210", "P29_002": "A222210000737", "P29_003": "16013", "P29_004": "富士市立松野こども園", "P29_005": "静岡県富士市北松野1825-1", "P29_006": "3", "P29_007": "0", "P29_008": "00", "P29_009": null }, "geometry": { "type": "Point", "coordinates": [ 138.597275039895379, 35.185024544112885 ] } },
{ "type": "Feature", "properties": { "P29_001": "22213", "P29_002": "A222210000746", "P29_003": "16013", "P29_004": "幼保連携型認定こども園掛川市立すこやかこども園", "P29_005": "静岡県掛川市宮脇2-6-1", "P29_006": "3", "P29_007": "0", "P29_008": "00", "P29_009": null }, "geometry": { "type": "Point", "coordinates": [ 138.026917999251282, 34.78405400134244 ] } },
{ "type": "Feature", "properties": { "P29_001": "22216", "P29_002": "A222210000755", "P29_003": "16013", "P29_004": "袋井市立笠原こども園", "P29_005": "静岡県袋井市山崎5093-13", "P29_006": "3", "P29_007": "0", "P29_008": "00", "P29_009": null }, "geometry": { "type": "Point", "coordinates": [ 137.954399016931774, 34.699416470803065 ] } },
{ "type": "Feature", "properties": { "P29_001": "22226", "P29_002": "A222210000773", "P29_003": "16013", "P29_004": "牧之原市立相良こども園", "P29_005": "静岡県牧之原市相良249-2", "P29_006": "3", "P29_007": "0", "P29_008": "00", "P29_009": null }, "geometry": { "type": "Point", "coordinates": [ 138.201679955260261, 34.684486077581084 ] } },
{ "type": "Feature", "properties": { "P29_001": "22221", "P29_002": "A222210000782", "P29_003": "16013", "P29_004": "幼保連携型認定こども園新居幼稚園", "P29_005": "静岡県湖西市新居町新居1730", "P29_006": "3", "P29_007": "0", "P29_008": "00", "P29_009": null }, "geometry": { "type": "Point", "coordinates": [ 137.560690001167558, 34.689972997872417 ] } },
{ "type": "Feature", "properties": { "P29_001": "22203", "P29_002": "A222210000791", "P29_003": "16013", "P29_004": "沼津市立戸田こども園", "P29_005": "静岡県沼津市戸田1031-1", "P29_006": "3", "P29_007": "0", "P29_008": "00", "P29_009": null }, "geometry": { "type": "Point", "coordinates": [ 138.784059998153936, 34.97122700078075 ] } },
{ "type": "Feature", "properties": { "P29_001": "22205", "P29_002": "A222210000808", "P29_003": "16013", "P29_004": "熱海市立あたみこども園", "P29_005": "静岡県熱海市桜町3-20", "P29_006": "3", "P29_007": "0", "P29_008": "00", "P29_009": null }, "geometry": { "type": "Point", "coordinates": [ 139.065975252872192, 35.087831248899555 ] } },
{ "type": "Feature", "properties": { "P29_001": "22216", "P29_002": "A222210000817", "P29_003": "16013", "P29_004": "袋井市立若草こども園", "P29_005": "静岡県袋井市堀越766-1", "P29_006": "3", "P29_007": "0", "P29_008": "00", "P29_009": null }, "geometry": { "type": "Point", "coordinates": [ 137.910267674273371, 34.758035489280218 ] } },
{ "type": "Feature", "properties": { "P29_001": "22216", "P29_002": "A222210000826", "P29_003": "16013", "P29_004": "袋井市立浅羽東こども園", "P29_005": "静岡県袋井市浅羽2617-1", "P29_006": "3", "P29_007": "0", "P29_008": "00", "P29_009": null }, "geometry": { "type": "Point", "coordinates": [ 137.928919267236381, 34.720095034440718 ] } },
{ "type": "Feature", "properties": { "P29_001": "22221", "P29_002": "A222210000835", "P29_003": "16013", "P29_004": "幼保連携型認定こども園湖西市立岡崎幼稚園", "P29_005": "静岡県湖西市岡崎2586-37", "P29_006": "3", "P29_007": "0", "P29_008": "00", "P29_009": null }, "geometry": { "type": "Point", "coordinates": [ 137.505819375812592, 34.723216033917026 ] } },
{ "type": "Feature", "properties": { "P29_001": "22342", "P29_002": "A222210000844", "P29_003": "16013", "P29_004": "長泉町立南こども園", "P29_005": "静岡県駿東郡長泉町竹原88", "P29_006": "3", "P29_007": "0", "P29_008": "00", "P29_009": null }, "geometry": { "type": "Point", "coordinates": [ 138.893148978860808, 35.122121234811154 ] } },
{ "type": "Feature", "properties": { "P29_001": "22216", "P29_002": "A222210000853", "P29_003": "16013", "P29_004": "袋井市立山梨こども園", "P29_005": "静岡県袋井市春岡1-8-7", "P29_006": "3", "P29_007": "0", "P29_008": "00", "P29_009": null }, "geometry": { "type": "Point", "coordinates": [ 137.914187219207747, 34.792774585954795 ] } },
{ "type": "Feature", "properties": { "P29_001": "22216", "P29_002": "A222210000862", "P29_003": "16013", "P29_004": "袋井市立若葉こども園", "P29_005": "静岡県袋井市久能1310", "P29_006": "3", "P29_007": "0", "P29_008": "00", "P29_009": null }, "geometry": { "type": "Point", "coordinates": [ 137.919891531933956, 34.75923785207025 ] } },
{ "type": "Feature", "properties": { "P29_001": "22211", "P29_002": "A222210000871", "P29_003": "16013", "P29_004": "磐田市立二之宮こども園", "P29_005": "静岡県磐田市二之宮962-1", "P29_006": "3", "P29_007": "0", "P29_008": "00", "P29_009": null }, "geometry": { "type": "Point", "coordinates": [ 137.854121519963428, 34.705223173256464 ] } },
{ "type": "Feature", "properties": { "P29_001": "22101", "P29_002": "A222310000012", "P29_003": "16013", "P29_004": "北沼上こども園", "P29_005": "静岡県静岡市葵区北沼上758-1", "P29_006": "4", "P29_007": "0", "P29_008": "00", "P29_009": null }, "geometry": { "type": "Point", "coordinates": [ 138.424563717771747, 35.035151215035917 ] } },
{ "type": "Feature", "properties": { "P29_001": "22101", "P29_002": "A222310000021", "P29_003": "16013", "P29_004": "こすもすこども園", "P29_005": "静岡県静岡市葵区秋山町25-3", "P29_006": "4", "P29_007": "0", "P29_008": "00", "P29_009": null }, "geometry": { "type": "Point", "coordinates": [ 138.36289399456723, 35.005489002848705 ] } },
{ "type": "Feature", "properties": { "P29_001": "22101", "P29_002": "A222310000030", "P29_003": "16013", "P29_004": "賤機こども園", "P29_005": "静岡県静岡市葵区俵沢109-1", "P29_006": "4", "P29_007": "0", "P29_008": "00", "P29_009": null }, "geometry": { "type": "Point", "coordinates": [ 138.364628002652381, 35.108215004499158 ] } },
{ "type": "Feature", "properties": { "P29_001": "22101", "P29_002": "A222310000049", "P29_003": "16013", "P29_004": "幼保連携型認定こども園新間杉の子幼稚園", "P29_005": "静岡県静岡市葵区新間670-9", "P29_006": "4", "P29_007": "0", "P29_008": "00", "P29_009": null }, "geometry": { "type": "Point", "coordinates": [ 138.308279281415167, 34.995483552889212 ] } },
{ "type": "Feature", "properties": { "P29_001": "22102", "P29_002": "A222310000058", "P29_003": "16013", "P29_004": "小鹿こども園", "P29_005": "静岡県静岡市駿河区小鹿2-25-15", "P29_006": "4", "P29_007": "0", "P29_008": "00", "P29_009": null }, "geometry": { "type": "Point", "coordinates": [ 138.420856602622649, 34.974129261066686 ] } },
{ "type": "Feature", "properties": { "P29_001": "22102", "P29_002": "A222310000067", "P29_003": "16013", "P29_004": "認定こども園ひばり幼稚園", "P29_005": "静岡県静岡市駿河区用宗4-18-28", "P29_006": "4", "P29_007": "0", "P29_008": "00", "P29_009": null }, "geometry": { "type": "Point", "coordinates": [ 138.363034601604454, 34.919911999405123 ] } },
{ "type": "Feature", "properties": { "P29_001": "22102", "P29_002": "A222310000076", "P29_003": "16013", "P29_004": "幼保連携型認定こども園静岡なかはら幼稚園", "P29_005": "静岡県静岡市駿河区中原524", "P29_006": "4", "P29_007": "0", "P29_008": "00", "P29_009": null }, "geometry": { "type": "Point", "coordinates": [ 138.386222677693411, 34.95633026768779 ] } },
{ "type": "Feature", "properties": { "P29_001": "22102", "P29_002": "A222310000085", "P29_003": "16013", "P29_004": "幼保連携型認定こども園ふじみ幼稚園", "P29_005": "静岡県静岡市駿河区西島402", "P29_006": "4", "P29_007": "0", "P29_008": "00", "P29_009": null }, "geometry": { "type": "Point", "coordinates": [ 138.405612749932004, 34.944882367066839 ] } },
{ "type": "Feature", "properties": { "P29_001": "22103", "P29_002": "A222310000094", "P29_003": "16013", "P29_004": "草薙ふたばこども園", "P29_005": "静岡県静岡市清水区草薙359-6", "P29_006": "4", "P29_007": "0", "P29_008": "00", "P29_009": null }, "geometry": { "type": "Point", "coordinates": [ 138.453854124564515, 34.993154000090918 ] } },
{ "type": "Feature", "properties": { "P29_001": "22103", "P29_002": "A222310000101", "P29_003": "16013", "P29_004": "梅花こども園", "P29_005": "静岡県静岡市清水区蒲原新田2-16-23", "P29_006": "4", "P29_007": "0", "P29_008": "00", "P29_009": null }, "geometry": { "type": "Point", "coordinates": [ 138.599916774031641, 35.118911752595658 ] } },
{ "type": "Feature", "properties": { "P29_001": "22103", "P29_002": "A222310000110", "P29_003": "16013", "P29_004": "幼保連携型認定こども園めぐみこども園", "P29_005": "静岡県静岡市清水区淡島町2-9", "P29_006": "4", "P29_007": "0", "P29_008": "00", "P29_009": null }, "geometry": { "type": "Point", "coordinates": [ 138.479811003248415, 35.014684000044348 ] } },
{ "type": "Feature", "properties": { "P29_001": "22103", "P29_002": "A222310000129", "P29_003": "16013", "P29_004": "認定こども園ももはな", "P29_005": "静岡県静岡市清水区興津中町335-1", "P29_006": "4", "P29_007": "0", "P29_008": "00", "P29_009": null }, "geometry": { "type": "Point", "coordinates": [ 138.526087488393898, 35.053840771765678 ] } },
{ "type": "Feature", "properties": { "P29_001": "22103", "P29_002": "A222310000138", "P29_003": "16013", "P29_004": "認定こども園清水白百合幼稚園", "P29_005": "静岡県静岡市清水区木の下町312", "P29_006": "4", "P29_007": "0", "P29_008": "00", "P29_009": null }, "geometry": { "type": "Point", "coordinates": [ 138.471482323971145, 35.004074232403468 ] } },
{ "type": "Feature", "properties": { "P29_001": "22103", "P29_002": "A222310000147", "P29_003": "16013", "P29_004": "若竹幼稚園", "P29_005": "静岡県静岡市清水区蜂ヶ谷443", "P29_006": "4", "P29_007": "0", "P29_008": "00", "P29_009": null }, "geometry": { "type": "Point", "coordinates": [ 138.457334488174411, 35.042520956022727 ] } },
{ "type": "Feature", "properties": { "P29_001": "22103", "P29_002": "A222310000156", "P29_003": "16013", "P29_004": "認定こども園東海大学付属静岡翔洋幼稚園", "P29_005": "静岡県静岡市清水区折戸3-20-1", "P29_006": "4", "P29_007": "0", "P29_008": "00", "P29_009": null }, "geometry": { "type": "Point", "coordinates": [ 138.513711300007714, 34.987960134032086 ] } },
{ "type": "Feature", "properties": { "P29_001": "22103", "P29_002": "A222310000165", "P29_003": "16013", "P29_004": "幼保連携型認定こども園蒲原学園幼稚園", "P29_005": "静岡県静岡市清水区蒲原中204", "P29_006": "4", "P29_007": "0", "P29_008": "00", "P29_009": null }, "geometry": { "type": "Point", "coordinates": [ 138.588656123309164, 35.113675257777928 ] } },
{ "type": "Feature", "properties": { "P29_001": "22102", "P29_002": "A222310000174", "P29_003": "16013", "P29_004": "だきしめこども園", "P29_005": "静岡県静岡市駿河区栗原17-15", "P29_006": "4", "P29_007": "0", "P29_008": "00", "P29_009": null }, "geometry": { "type": "Point", "coordinates": [ 138.426546411525209, 34.992133599258089 ] } },
{ "type": "Feature", "properties": { "P29_001": "22102", "P29_002": "A222310000183", "P29_003": "16013", "P29_004": "幼保連携型認定こども園静岡若葉幼稚園", "P29_005": "静岡県静岡市駿河区中田3-7-2", "P29_006": "4", "P29_007": "0", "P29_008": "00", "P29_009": null }, "geometry": { "type": "Point", "coordinates": [ 138.396724127780573, 34.960726787131208 ] } },
{ "type": "Feature", "properties": { "P29_001": "22102", "P29_002": "A222310000192", "P29_003": "16013", "P29_004": "学校法人織田学園幼保連携型認定こども園やよい幼稚園", "P29_005": "静岡県静岡市駿河区石田2-18-28", "P29_006": "4", "P29_007": "0", "P29_008": "00", "P29_009": null }, "geometry": { "type": "Point", "coordinates": [ 138.404910004128737, 34.95722000161657 ] } },
{ "type": "Feature", "properties": { "P29_001": "22103", "P29_002": "A222310000209", "P29_003": "16013", "P29_004": "みどりが丘こども園", "P29_005": "静岡県静岡市清水区日立町4-19", "P29_006": "4", "P29_007": "0", "P29_008": "00", "P29_009": null }, "geometry": { "type": "Point", "coordinates": [ 138.485998564688401, 34.994270925047417 ] } },
{ "type": "Feature", "properties": { "P29_001": "22103", "P29_002": "A222310000218", "P29_003": "16013", "P29_004": "清水りんぽかんこども園", "P29_005": "静岡県静岡市清水区有東坂4-8", "P29_006": "4", "P29_007": "0", "P29_008": "00", "P29_009": null }, "geometry": { "type": "Point", "coordinates": [ 138.463984964246947, 35.007997074590641 ] } },
{ "type": "Feature", "properties": { "P29_001": "22101", "P29_002": "A222310000227", "P29_003": "16013", "P29_004": "幼保連携型認定こども園日吉町保育園", "P29_005": "静岡県静岡市葵区鷹匠2-24-18", "P29_006": "4", "P29_007": "0", "P29_008": "00", "P29_009": null }, "geometry": { "type": "Point", "coordinates": [ 138.391202496185485, 34.976403269047459 ] } },
{ "type": "Feature", "properties": { "P29_001": "22101", "P29_002": "A222310000236", "P29_003": "16013", "P29_004": "幼保連携型認定こども園北安東保育園", "P29_005": "静岡県静岡市葵区北安東4-29-24", "P29_006": "4", "P29_007": "0", "P29_008": "00", "P29_009": null }, "geometry": { "type": "Point", "coordinates": [ 138.385571004353665, 35.004440999034898 ] } },
{ "type": "Feature", "properties": { "P29_001": "22101", "P29_002": "A222310000245", "P29_003": "16013", "P29_004": "竜南こども園", "P29_005": "静岡県静岡市葵区竜南1-19-15", "P29_006": "4", "P29_007": "0", "P29_008": "00", "P29_009": null }, "geometry": { "type": "Point", "coordinates": [ 138.395723999783087, 34.998264995426965 ] } },
{ "type": "Feature", "properties": { "P29_001": "22102", "P29_002": "A222310000254", "P29_003": "16013", "P29_004": "セイユウモンテッソーリこども園", "P29_005": "静岡県静岡市駿河区北丸子2-21-12", "P29_006": "4", "P29_007": "0", "P29_008": "00", "P29_009": null }, "geometry": { "type": "Point", "coordinates": [ 138.345432998581828, 34.950866000668192 ] } },
{ "type": "Feature", "properties": { "P29_001": "22102", "P29_002": "A222310000263", "P29_003": "16013", "P29_004": "静岡学園幼稚園", "P29_005": "静岡県静岡市駿河区聖一色400", "P29_006": "4", "P29_007": "0", "P29_008": "00", "P29_009": null }, "geometry": { "type": "Point", "coordinates": [ 138.426917932656551, 34.987129453159014 ] } },
{ "type": "Feature", "properties": { "P29_001": "22103", "P29_002": "A222310000272", "P29_003": "16013", "P29_004": "梅花幼稚園", "P29_005": "静岡県静岡市清水区南岡町3-8", "P29_006": "4", "P29_007": "0", "P29_008": "00", "P29_009": null }, "geometry": { "type": "Point", "coordinates": [ 138.48671120782177, 35.005635693213051 ] } },
{ "type": "Feature", "properties": { "P29_001": "22101", "P29_002": "A222310000281", "P29_003": "16013", "P29_004": "幼保連携型認定こども園あおぞらキンダーガーデン", "P29_005": "静岡県静岡市葵区千代田1-15-40", "P29_006": "4", "P29_007": "0", "P29_008": "00", "P29_009": null }, "geometry": { "type": "Point", "coordinates": [ 138.397696036622904, 34.991802412899887 ] } },
{ "type": "Feature", "properties": { "P29_001": "22101", "P29_002": "A222310000290", "P29_003": "16013", "P29_004": "あゆみ第２こども園", "P29_005": "静岡県静岡市葵区瀬名中央1-1-44", "P29_006": "4", "P29_007": "0", "P29_008": "00", "P29_009": null }, "geometry": { "type": "Point", "coordinates": [ 138.420593070667735, 35.006981440566513 ] } },
{ "type": "Feature", "properties": { "P29_001": "22101", "P29_002": "A222310000307", "P29_003": "16013", "P29_004": "静岡平和幼稚園", "P29_005": "静岡県静岡市葵区平和2-23-22", "P29_006": "4", "P29_007": "0", "P29_008": "00", "P29_009": null }, "geometry": { "type": "Point", "coordinates": [ 138.367268294040656, 34.993490706878752 ] } },
{ "type": "Feature", "properties": { "P29_001": "22101", "P29_002": "A222310000316", "P29_003": "16013", "P29_004": "幼保連携型認定こども園常葉大学附属たちばな幼稚園", "P29_005": "静岡県静岡市葵区瀬名1-1-17", "P29_006": "4", "P29_007": "0", "P29_008": "00", "P29_009": null }, "geometry": { "type": "Point", "coordinates": [ 138.417901862969188, 35.010981519948686 ] } },
{ "type": "Feature", "properties": { "P29_001": "22101", "P29_002": "A222310000325", "P29_003": "16013", "P29_004": "幼保連携型認定こども園千代田幼稚園", "P29_005": "静岡県静岡市葵区東千代田1-8-10", "P29_006": "4", "P29_007": "0", "P29_008": "00", "P29_009": null }, "geometry": { "type": "Point", "coordinates": [ 138.409244998181038, 35.000780996539604 ] } },
{ "type": "Feature", "properties": { "P29_001": "22101", "P29_002": "A222310000334", "P29_003": "16013", "P29_004": "幼保連携型認定こども園常葉大学附属とこは幼稚園", "P29_005": "静岡県静岡市葵区城北37", "P29_006": "4", "P29_007": "0", "P29_008": "00", "P29_009": null }, "geometry": { "type": "Point", "coordinates": [ 138.394614445109227, 35.0002613621444 ] } },
{ "type": "Feature", "properties": { "P29_001": "22101", "P29_002": "A222310000343", "P29_003": "16013", "P29_004": "沼上こども園", "P29_005": "静岡県静岡市葵区南沼上1-22-1", "P29_006": "4", "P29_007": "0", "P29_008": "00", "P29_009": null }, "geometry": { "type": "Point", "coordinates": [ 138.40748303057174, 35.008778470218026 ] } },
{ "type": "Feature", "properties": { "P29_001": "22101", "P29_002": "A222310000352", "P29_003": "16013", "P29_004": "沼上こども園分園", "P29_005": "静岡県静岡市葵区川合3-1-13", "P29_006": "4", "P29_007": "0", "P29_008": "00", "P29_009": null }, "geometry": { "type": "Point", "coordinates": [ 138.412583071804193, 35.005161396045537 ] } },
{ "type": "Feature", "properties": { "P29_001": "22101", "P29_002": "A222310000361", "P29_003": "16013", "P29_004": "認定こども園羽鳥るり幼稚園", "P29_005": "静岡県静岡市葵区羽鳥本町1-1", "P29_006": "4", "P29_007": "0", "P29_008": "00", "P29_009": null }, "geometry": { "type": "Point", "coordinates": [ 138.333433310781373, 34.982266316008072 ] } },
{ "type": "Feature", "properties": { "P29_001": "22101", "P29_002": "A222310000370", "P29_003": "16013", "P29_004": "若竹こどもの森", "P29_005": "静岡県静岡市葵区瀬名川3-7-18", "P29_006": "4", "P29_007": "0", "P29_008": "00", "P29_009": null }, "geometry": { "type": "Point", "coordinates": [ 138.435139265706624, 35.009663556997964 ] } },
{ "type": "Feature", "properties": { "P29_001": "22101", "P29_002": "A222310000389", "P29_003": "16013", "P29_004": "幼保連携型認定こども園わらべ幼稚園", "P29_005": "静岡県静岡市葵区千代1-4-15", "P29_006": "4", "P29_007": "0", "P29_008": "00", "P29_009": null }, "geometry": { "type": "Point", "coordinates": [ 138.352226383863893, 34.980648296331232 ] } },
{ "type": "Feature", "properties": { "P29_001": "22102", "P29_002": "A222310000398", "P29_003": "16013", "P29_004": "認定こども園東新田ひばりこども園", "P29_005": "静岡県静岡市駿河区東新田3-31-10", "P29_006": "4", "P29_007": "0", "P29_008": "00", "P29_009": null }, "geometry": { "type": "Point", "coordinates": [ 138.373538707714602, 34.944206974803066 ] } },
{ "type": "Feature", "properties": { "P29_001": "22102", "P29_002": "A222310000405", "P29_003": "16013", "P29_004": "幼保連携型認定こども園若杉幼稚園", "P29_005": "静岡県静岡市駿河区丸子3653", "P29_006": "4", "P29_007": "0", "P29_008": "00", "P29_009": null }, "geometry": { "type": "Point", "coordinates": [ 138.353046145254808, 34.940560255479198 ] } },
{ "type": "Feature", "properties": { "P29_001": "22103", "P29_002": "A222310000414", "P29_003": "16013", "P29_004": "認定こども園東海幼稚園", "P29_005": "静岡県静岡市清水区興津本町78", "P29_006": "4", "P29_007": "0", "P29_008": "00", "P29_009": null }, "geometry": { "type": "Point", "coordinates": [ 138.516884999515355, 35.047467001012677 ] } },
{ "type": "Feature", "properties": { "P29_001": "22101", "P29_002": "A222310000423", "P29_003": "16013", "P29_004": "幼保連携型認定こども園麻華こども園", "P29_005": "静岡県静岡市葵区北1-29-25", "P29_006": "4", "P29_007": "0", "P29_008": "00", "P29_009": null }, "geometry": { "type": "Point", "coordinates": [ 138.394025167755075, 35.029681551189867 ] } },
{ "type": "Feature", "properties": { "P29_001": "22101", "P29_002": "A222310000432", "P29_003": "16013", "P29_004": "蛍ヶ丘保育園", "P29_005": "静岡県静岡市葵区新間394-1", "P29_006": "4", "P29_007": "0", "P29_008": "00", "P29_009": null }, "geometry": { "type": "Point", "coordinates": [ 138.306542000117048, 34.98789699995465 ] } },
{ "type": "Feature", "properties": { "P29_001": "22102", "P29_002": "A222310000441", "P29_003": "16013", "P29_004": "幼保連携型認定こども園若杉幼稚園分園", "P29_005": "静岡県静岡市駿河区丸子3655-3", "P29_006": "4", "P29_007": "0", "P29_008": "00", "P29_009": null }, "geometry": { "type": "Point", "coordinates": [ 138.353084073445672, 34.940636557066178 ] } },
{ "type": "Feature", "properties": { "P29_001": "22103", "P29_002": "A222310000450", "P29_003": "16013", "P29_004": "清水やぐらこども園", "P29_005": "静岡県静岡市清水区矢倉町4-15", "P29_006": "4", "P29_007": "0", "P29_008": "00", "P29_009": null }, "geometry": { "type": "Point", "coordinates": [ 138.4856095465679, 35.03092664538962 ] } },
{ "type": "Feature", "properties": { "P29_001": "22101", "P29_002": "A222310000469", "P29_003": "16013", "P29_004": "足久保こども園", "P29_005": "静岡県静岡市葵区足久保口組29-5", "P29_006": "4", "P29_007": "0", "P29_008": "00", "P29_009": null }, "geometry": { "type": "Point", "coordinates": [ 138.366358228494249, 35.046924682353222 ] } },
{ "type": "Feature", "properties": { "P29_001": "22101", "P29_002": "A222310000478", "P29_003": "16013", "P29_004": "美和保育園", "P29_005": "静岡県静岡市葵区遠藤新田339-2", "P29_006": "4", "P29_007": "0", "P29_008": "00", "P29_009": null }, "geometry": { "type": "Point", "coordinates": [ 138.36116617818405, 35.026191922176579 ] } },
{ "type": "Feature", "properties": { "P29_001": "22102", "P29_002": "A222310000487", "P29_003": "16013", "P29_004": "るり幼稚園", "P29_005": "静岡県静岡市駿河区向敷地11", "P29_006": "4", "P29_007": "0", "P29_008": "00", "P29_009": null }, "geometry": { "type": "Point", "coordinates": [ 138.362950894461306, 34.95398681810822 ] } },
{ "type": "Feature", "properties": { "P29_001": "22101", "P29_002": "A222310000496", "P29_003": "16013", "P29_004": "新富町こども園", "P29_005": "静岡県静岡市葵区新富町3-21-2", "P29_006": "4", "P29_007": "0", "P29_008": "00", "P29_009": null }, "geometry": { "type": "Point", "coordinates": [ 138.369536134160143, 34.971224740298489 ] } },
{ "type": "Feature", "properties": { "P29_001": "22132", "P29_002": "A222310000502", "P29_003": "16013", "P29_004": "聖隷こども園ひかりの子", "P29_005": "静岡県浜松市東区天王町1896", "P29_006": "4", "P29_007": "0", "P29_008": "00", "P29_009": null }, "geometry": { "type": "Point", "coordinates": [ 137.76737199602303, 34.74096799865216 ] } },
{ "type": "Feature", "properties": { "P29_001": "22133", "P29_002": "A222310000511", "P29_003": "16013", "P29_004": "和光こども園", "P29_005": "静岡県浜松市西区和光町517", "P29_006": "4", "P29_007": "0", "P29_008": "00", "P29_009": null }, "geometry": { "type": "Point", "coordinates": [ 137.681247728825184, 34.786523815826989 ] } },
{ "type": "Feature", "properties": { "P29_001": "22133", "P29_002": "A222310000520", "P29_003": "16013", "P29_004": "入野こども園", "P29_005": "静岡県浜松市西区入野町10827-1", "P29_006": "4", "P29_007": "0", "P29_008": "00", "P29_009": null }, "geometry": { "type": "Point", "coordinates": [ 137.673988890945111, 34.695442666589074 ] } },
{ "type": "Feature", "properties": { "P29_001": "22134", "P29_002": "A222310000539", "P29_003": "16013", "P29_004": "ずだじこども園", "P29_005": "静岡県浜松市南区恩地町291", "P29_006": "4", "P29_007": "0", "P29_008": "00", "P29_009": null }, "geometry": { "type": "Point", "coordinates": [ 137.762516920367034, 34.686662146533976 ] } },
{ "type": "Feature", "properties": { "P29_001": "22134", "P29_002": "A222310000548", "P29_003": "16013", "P29_004": "太陽こども園", "P29_005": "静岡県浜松市南区飯田町1507", "P29_006": "4", "P29_007": "0", "P29_008": "00", "P29_009": null }, "geometry": { "type": "Point", "coordinates": [ 137.781588005684398, 34.708184060982525 ] } },
{ "type": "Feature", "properties": { "P29_001": "22134", "P29_002": "A222310000557", "P29_003": "16013", "P29_004": "太陽第二こども園", "P29_005": "静岡県浜松市南区白羽町1231", "P29_006": "4", "P29_007": "0", "P29_008": "00", "P29_009": null }, "geometry": { "type": "Point", "coordinates": [ 137.735459234010847, 34.675349716610903 ] } },
{ "type": "Feature", "properties": { "P29_001": "22135", "P29_002": "A222310000566", "P29_003": "16013", "P29_004": "聖隷こども園わかば", "P29_005": "静岡県浜松市北区根洗町645-1", "P29_006": "4", "P29_007": "0", "P29_008": "00", "P29_009": null }, "geometry": { "type": "Point", "coordinates": [ 137.69522915888669, 34.793970579354102 ] } },
{ "type": "Feature", "properties": { "P29_001": "22135", "P29_002": "A222310000575", "P29_003": "16013", "P29_004": "聖隷こども園桜ヶ丘", "P29_005": "静岡県浜松市北区都田町8749-3", "P29_006": "4", "P29_007": "0", "P29_008": "00", "P29_009": null }, "geometry": { "type": "Point", "coordinates": [ 137.736784027520116, 34.811019035426497 ] } },
{ "type": "Feature", "properties": { "P29_001": "22135", "P29_002": "A222310000584", "P29_003": "16013", "P29_004": "なごみこども園", "P29_005": "静岡県浜松市北区三方原町1367-1", "P29_006": "4", "P29_007": "0", "P29_008": "00", "P29_009": null }, "geometry": { "type": "Point", "coordinates": [ 137.71117387855719, 34.783301567024282 ] } },
{ "type": "Feature", "properties": { "P29_001": "22135", "P29_002": "A222310000593", "P29_003": "16013", "P29_004": "聖隷クリストファー大学附属クリストファーこども園", "P29_005": "静岡県浜松市北区三方原町2762", "P29_006": "4", "P29_007": "0", "P29_008": "00", "P29_009": null }, "geometry": { "type": "Point", "coordinates": [ 137.694501763834438, 34.787133386869094 ] } },
{ "type": "Feature", "properties": { "P29_001": "22136", "P29_002": "A222310000600", "P29_003": "16013", "P29_004": "認定こども園きじの里", "P29_005": "静岡県浜松市浜北区染地台5-4-3", "P29_006": "4", "P29_007": "0", "P29_008": "00", "P29_009": null }, "geometry": { "type": "Point", "coordinates": [ 137.750155999818645, 34.791522998445373 ] } },
{ "type": "Feature", "properties": { "P29_001": "22131", "P29_002": "A222310000619", "P29_003": "16013", "P29_004": "ひくまこども園", "P29_005": "静岡県浜松市中区曳馬4-8-12", "P29_006": "4", "P29_007": "0", "P29_008": "00", "P29_009": null }, "geometry": { "type": "Point", "coordinates": [ 137.744849449357645, 34.729291281892145 ] } },
{ "type": "Feature", "properties": { "P29_001": "22131", "P29_002": "A222310000628", "P29_003": "16013", "P29_004": "なかざわこども園", "P29_005": "静岡県浜松市中区中沢町58-9", "P29_006": "4", "P29_007": "0", "P29_008": "00", "P29_009": null }, "geometry": { "type": "Point", "coordinates": [ 137.727880067759088, 34.722951872823231 ] } },
{ "type": "Feature", "properties": { "P29_001": "22131", "P29_002": "A222310000637", "P29_003": "16013", "P29_004": "相生こども園", "P29_005": "静岡県浜松市中区相生町14-30", "P29_006": "4", "P29_007": "0", "P29_008": "00", "P29_009": null }, "geometry": { "type": "Point", "coordinates": [ 137.74832313323401, 34.708333670720805 ] } },
{ "type": "Feature", "properties": { "P29_001": "22132", "P29_002": "A222310000646", "P29_003": "16013", "P29_004": "いずみこども園", "P29_005": "静岡県浜松市東区小池町710", "P29_006": "4", "P29_007": "0", "P29_008": "00", "P29_009": null }, "geometry": { "type": "Point", "coordinates": [ 137.760298261546922, 34.75166496409053 ] } },
{ "type": "Feature", "properties": { "P29_001": "22132", "P29_002": "A222310000655", "P29_003": "16013", "P29_004": "市野与進こども園", "P29_005": "静岡県浜松市東区市野町2636", "P29_006": "4", "P29_007": "0", "P29_008": "00", "P29_009": null }, "geometry": { "type": "Point", "coordinates": [ 137.767062057488914, 34.747784795752239 ] } },
{ "type": "Feature", "properties": { "P29_001": "22133", "P29_002": "A222310000664", "P29_003": "16013", "P29_004": "さざんかこども園", "P29_005": "静岡県浜松市西区篠原町25654", "P29_006": "4", "P29_007": "0", "P29_008": "00", "P29_009": null }, "geometry": { "type": "Point", "coordinates": [ 137.658372867711336, 34.676299756761743 ] } },
{ "type": "Feature", "properties": { "P29_001": "22133", "P29_002": "A222310000673", "P29_003": "16013", "P29_004": "春日こども園", "P29_005": "静岡県浜松市西区馬郡町2560", "P29_006": "4", "P29_007": "0", "P29_008": "00", "P29_009": null }, "geometry": { "type": "Point", "coordinates": [ 137.627552753689969, 34.683392587408839 ] } },
{ "type": "Feature", "properties": { "P29_001": "22134", "P29_002": "A222310000682", "P29_003": "16013", "P29_004": "平和こども園", "P29_005": "静岡県浜松市南区三島町1200", "P29_006": "4", "P29_007": "0", "P29_008": "00", "P29_009": null }, "geometry": { "type": "Point", "coordinates": [ 137.74768600169287, 34.687302003657706 ] } },
{ "type": "Feature", "properties": { "P29_001": "22131", "P29_002": "A222310000691", "P29_003": "16013", "P29_004": "瑞雲こども園", "P29_005": "静岡県浜松市中区佐藤2-22-1", "P29_006": "4", "P29_007": "0", "P29_008": "00", "P29_009": null }, "geometry": { "type": "Point", "coordinates": [ 137.748894643063579, 34.71352919524454 ] } },
{ "type": "Feature", "properties": { "P29_001": "22131", "P29_002": "A222310000708", "P29_003": "16013", "P29_004": "遊歩の丘にしおかこども園", "P29_005": "静岡県浜松市中区西丘町296", "P29_006": "4", "P29_007": "0", "P29_008": "00", "P29_009": null }, "geometry": { "type": "Point", "coordinates": [ 137.691612371151933, 34.767332892306584 ] } },
{ "type": "Feature", "properties": { "P29_001": "22131", "P29_002": "A222310000717", "P29_003": "16013", "P29_004": "みそらこども園", "P29_005": "静岡県浜松市中区神田町513", "P29_006": "4", "P29_007": "0", "P29_008": "00", "P29_009": null }, "geometry": { "type": "Point", "coordinates": [ 137.718699650682851, 34.690818427863562 ] } },
{ "type": "Feature", "properties": { "P29_001": "22134", "P29_002": "A222310000726", "P29_003": "16013", "P29_004": "なかよし第２こども園", "P29_005": "静岡県浜松市中区領家3-23-13", "P29_006": "4", "P29_007": "0", "P29_008": "00", "P29_009": null }, "geometry": { "type": "Point", "coordinates": [ 137.754720312000103, 34.693661342274865 ] } },
{ "type": "Feature", "properties": { "P29_001": "22131", "P29_002": "A222310000735", "P29_003": "16013", "P29_004": "聖隷こども園めぐみ", "P29_005": "静岡県浜松市中区和合町555-1", "P29_006": "4", "P29_007": "0", "P29_008": "00", "P29_009": null }, "geometry": { "type": "Point", "coordinates": [ 137.701001992509418, 34.741259138269442 ] } },
{ "type": "Feature", "properties": { "P29_001": "22132", "P29_002": "A222310000744", "P29_003": "16013", "P29_004": "まるづかこども園", "P29_005": "静岡県浜松市東区丸塚町287-1", "P29_006": "4", "P29_007": "0", "P29_008": "00", "P29_009": null }, "geometry": { "type": "Point", "coordinates": [ 137.760233114467127, 34.727747474030529 ] } },
{ "type": "Feature", "properties": { "P29_001": "22132", "P29_002": "A222310000753", "P29_003": "16013", "P29_004": "太陽さぎのみやこども園", "P29_005": "静岡県浜松市東区大瀬町752", "P29_006": "4", "P29_007": "0", "P29_008": "00", "P29_009": null }, "geometry": { "type": "Point", "coordinates": [ 137.763190226901116, 34.76065129930624 ] } },
{ "type": "Feature", "properties": { "P29_001": "22132", "P29_002": "A222310000762", "P29_003": "16013", "P29_004": "遊歩の丘かみにしこども園", "P29_005": "静岡県浜松市東区上西町853-2", "P29_006": "4", "P29_007": "0", "P29_008": "00", "P29_009": null }, "geometry": { "type": "Point", "coordinates": [ 137.759187349694173, 34.723490890505538 ] } },
{ "type": "Feature", "properties": { "P29_001": "22132", "P29_002": "A222310000771", "P29_003": "16013", "P29_004": "きなりこどもえん", "P29_005": "静岡県浜松市東区植松町53-4", "P29_006": "4", "P29_007": "0", "P29_008": "00", "P29_009": null }, "geometry": { "type": "Point", "coordinates": [ 137.754391266244994, 34.710096340885457 ] } },
{ "type": "Feature", "properties": { "P29_001": "22133", "P29_002": "A222310000780", "P29_003": "16013", "P29_004": "順愛こども園", "P29_005": "静岡県浜松市西区舞阪町舞阪5372", "P29_006": "4", "P29_007": "0", "P29_008": "00", "P29_009": null }, "geometry": { "type": "Point", "coordinates": [ 137.622657342580794, 34.685542370327582 ] } },
{ "type": "Feature", "properties": { "P29_001": "22133", "P29_002": "A222310000799", "P29_003": "16013", "P29_004": "瞳ヶ丘こども園", "P29_005": "静岡県浜松市西区大人見町12-654", "P29_006": "4", "P29_007": "0", "P29_008": "00", "P29_009": null }, "geometry": { "type": "Point", "coordinates": [ 137.647929236441314, 34.733463238601217 ] } },
{ "type": "Feature", "properties": { "P29_001": "22134", "P29_002": "A222310000806", "P29_003": "16013", "P29_004": "なかよしこども園", "P29_005": "静岡県浜松市南区三島町1230", "P29_006": "4", "P29_007": "0", "P29_008": "00", "P29_009": null }, "geometry": { "type": "Point", "coordinates": [ 137.747833721467771, 34.689415363335605 ] } },
{ "type": "Feature", "properties": { "P29_001": "22134", "P29_002": "A222310000815", "P29_003": "16013", "P29_004": "ハローこども園", "P29_005": "静岡県浜松市南区下江町522", "P29_006": "4", "P29_007": "0", "P29_008": "00", "P29_009": null }, "geometry": { "type": "Point", "coordinates": [ 137.773306314354016, 34.680670032485054 ] } },
{ "type": "Feature", "properties": { "P29_001": "22134", "P29_002": "A222310000824", "P29_003": "16013", "P29_004": "たかつか光こども園", "P29_005": "静岡県浜松市南区高塚町2312-16", "P29_006": "4", "P29_007": "0", "P29_008": "00", "P29_009": null }, "geometry": { "type": "Point", "coordinates": [ 137.683790999513889, 34.686370003839869 ] } },
{ "type": "Feature", "properties": { "P29_001": "22134", "P29_002": "A222310000833", "P29_003": "16013", "P29_004": "はぁもにぃこども園", "P29_005": "静岡県浜松市南区三和町782", "P29_006": "4", "P29_007": "0", "P29_008": "00", "P29_009": null }, "geometry": { "type": "Point", "coordinates": [ 137.772748001294985, 34.701036998368579 ] } },
{ "type": "Feature", "properties": { "P29_001": "22134", "P29_002": "A222310000842", "P29_003": "16013", "P29_004": "若林こどもの園", "P29_005": "静岡県浜松市南区若林町2658-1", "P29_006": "4", "P29_007": "0", "P29_008": "00", "P29_009": null }, "geometry": { "type": "Point", "coordinates": [ 137.701630894535782, 34.693717362969664 ] } },
{ "type": "Feature", "properties": { "P29_001": "22136", "P29_002": "A222310000851", "P29_003": "16013", "P29_004": "子育てセンターこまつ", "P29_005": "静岡県浜松市浜北区小松3221", "P29_006": "4", "P29_007": "0", "P29_008": "00", "P29_009": null }, "geometry": { "type": "Point", "coordinates": [ 137.770703051048429, 34.782680102146927 ] } },
{ "type": "Feature", "properties": { "P29_001": "22136", "P29_002": "A222310000860", "P29_003": "16013", "P29_004": "子育てセンターきぶね", "P29_005": "静岡県浜松市浜北区貴布祢2668", "P29_006": "4", "P29_007": "0", "P29_008": "00", "P29_009": null }, "geometry": { "type": "Point", "coordinates": [ 137.782844143897364, 34.800373503301266 ] } },
{ "type": "Feature", "properties": { "P29_001": "22136", "P29_002": "A222310000879", "P29_003": "16013", "P29_004": "子育てセンターしばもと", "P29_005": "静岡県浜松市浜北区於呂3087-2", "P29_006": "4", "P29_007": "0", "P29_008": "00", "P29_009": null }, "geometry": { "type": "Point", "coordinates": [ 137.799737583619873, 34.823397172480746 ] } },
{ "type": "Feature", "properties": { "P29_001": "22136", "P29_002": "A222310000888", "P29_003": "16013", "P29_004": "子育てセンターしんぱら", "P29_005": "静岡県浜松市浜北区新原2669", "P29_006": "4", "P29_007": "0", "P29_008": "00", "P29_009": null }, "geometry": { "type": "Point", "coordinates": [ 137.773930017060678, 34.815337543160901 ] } },
{ "type": "Feature", "properties": { "P29_001": "22136", "P29_002": "A222310000897", "P29_003": "16013", "P29_004": "子育てセンターなかぜ", "P29_005": "静岡県浜松市浜北区中瀬673", "P29_006": "4", "P29_007": "0", "P29_008": "00", "P29_009": null }, "geometry": { "type": "Point", "coordinates": [ 137.806797944145103, 34.809663569789841 ] } },
{ "type": "Feature", "properties": { "P29_001": "22136", "P29_002": "A222310000904", "P29_003": "16013", "P29_004": "遊歩の丘はまなこども園", "P29_005": "静岡県浜松市浜北区小松1285-1", "P29_006": "4", "P29_007": "0", "P29_008": "00", "P29_009": null }, "geometry": { "type": "Point", "coordinates": [ 137.771564292582326, 34.792619056725925 ] } },
{ "type": "Feature", "properties": { "P29_001": "22136", "P29_002": "A222310000913", "P29_003": "16013", "P29_004": "子育てセンターかきのみ", "P29_005": "静岡県浜松市浜北区中瀬2308", "P29_006": "4", "P29_007": "0", "P29_008": "00", "P29_009": null }, "geometry": { "type": "Point", "coordinates": [ 137.808524192509509, 34.830052592955418 ] } },
{ "type": "Feature", "properties": { "P29_001": "22137", "P29_002": "A222310000922", "P29_003": "16013", "P29_004": "子育てセンターすぎのこ", "P29_005": "静岡県浜松市天竜区大谷111-1", "P29_006": "4", "P29_007": "0", "P29_008": "00", "P29_009": null }, "geometry": { "type": "Point", "coordinates": [ 137.816795982619936, 34.872400098430042 ] } },
{ "type": "Feature", "properties": { "P29_001": "22137", "P29_002": "A222310000931", "P29_003": "16013", "P29_004": "子育てセンターやまびこ", "P29_005": "静岡県浜松市天竜区山東3577", "P29_006": "4", "P29_007": "0", "P29_008": "00", "P29_009": null }, "geometry": { "type": "Point", "coordinates": [ 137.825867856372497, 34.870509089742278 ] } },
{ "type": "Feature", "properties": { "P29_001": "22131", "P29_002": "A222310000940", "P29_003": "16013", "P29_004": "れんげこども園", "P29_005": "静岡県浜松市中区和合北1-2-37", "P29_006": "4", "P29_007": "0", "P29_008": "00", "P29_009": null }, "geometry": { "type": "Point", "coordinates": [ 137.722329004403633, 34.736522886053514 ] } },
{ "type": "Feature", "properties": { "P29_001": "22131", "P29_002": "A222310000959", "P29_003": "16013", "P29_004": "和合こども園", "P29_005": "静岡県浜松市中区和合町220-1280", "P29_006": "4", "P29_007": "0", "P29_008": "00", "P29_009": null }, "geometry": { "type": "Point", "coordinates": [ 137.708259086773893, 34.742230009638988 ] } },
{ "type": "Feature", "properties": { "P29_001": "22132", "P29_002": "A222310000968", "P29_003": "16013", "P29_004": "ありたまこども園", "P29_005": "静岡県浜松市東区有玉南町2013", "P29_006": "4", "P29_007": "0", "P29_008": "00", "P29_009": null }, "geometry": { "type": "Point", "coordinates": [ 137.746233444746139, 34.74952510967546 ] } },
{ "type": "Feature", "properties": { "P29_001": "22132", "P29_002": "A222310000977", "P29_003": "16013", "P29_004": "蒲こども園", "P29_005": "静岡県浜松市東区大蒲町95-2", "P29_006": "4", "P29_007": "0", "P29_008": "00", "P29_009": null }, "geometry": { "type": "Point", "coordinates": [ 137.766580417512586, 34.715050421696873 ] } },
{ "type": "Feature", "properties": { "P29_001": "22132", "P29_002": "A222310000986", "P29_003": "16013", "P29_004": "そらいろこども園", "P29_005": "静岡県浜松市東区市野町1084", "P29_006": "4", "P29_007": "0", "P29_008": "00", "P29_009": null }, "geometry": { "type": "Point", "coordinates": [ 137.778741045843361, 34.751250565051869 ] } },
{ "type": "Feature", "properties": { "P29_001": "22203", "P29_002": "A222310000995", "P29_003": "16013", "P29_004": "認定こども園しょうえい幼稚園", "P29_005": "静岡県沼津市大塚812-2", "P29_006": "4", "P29_007": "0", "P29_008": "00", "P29_009": null }, "geometry": { "type": "Point", "coordinates": [ 138.809576440473279, 35.125998429160497 ] } },
{ "type": "Feature", "properties": { "P29_001": "22203", "P29_002": "A222310001002", "P29_003": "16013", "P29_004": "認定こども園片浜桜", "P29_005": "静岡県沼津市今沢680-4", "P29_006": "4", "P29_007": "0", "P29_008": "00", "P29_009": null }, "geometry": { "type": "Point", "coordinates": [ 138.813717996900408, 35.121897003845135 ] } },
{ "type": "Feature", "properties": { "P29_001": "22203", "P29_002": "A222310001011", "P29_003": "16013", "P29_004": "認定こども園中央幼稚園", "P29_005": "静岡県沼津市幸町23-3", "P29_006": "4", "P29_007": "0", "P29_008": "00", "P29_009": null }, "geometry": { "type": "Point", "coordinates": [ 138.854303034025435, 35.096033068960807 ] } },
{ "type": "Feature", "properties": { "P29_001": "22203", "P29_002": "A222310001020", "P29_003": "16013", "P29_004": "認定こども園杉浦学園", "P29_005": "静岡県沼津市柳沢307", "P29_006": "4", "P29_007": "0", "P29_008": "00", "P29_009": null }, "geometry": { "type": "Point", "coordinates": [ 138.818220425324199, 35.140616738736497 ] } },
{ "type": "Feature", "properties": { "P29_001": "22203", "P29_002": "A222310001039", "P29_003": "16013", "P29_004": "認定こども園こずわ幼稚園", "P29_005": "静岡県沼津市小諏訪242-4", "P29_006": "4", "P29_007": "0", "P29_008": "00", "P29_009": null }, "geometry": { "type": "Point", "coordinates": [ 138.838727116275265, 35.107353603758831 ] } },
{ "type": "Feature", "properties": { "P29_001": "22206", "P29_002": "A222310001048", "P29_003": "16013", "P29_004": "幼保連携型認定こども園ピ－タ－パン幼稚園", "P29_005": "静岡県三島市芙蓉台2-2-1", "P29_006": "4", "P29_007": "0", "P29_008": "00", "P29_009": null }, "geometry": { "type": "Point", "coordinates": [ 138.91550099474631, 35.153367031028701 ] } },
{ "type": "Feature", "properties": { "P29_001": "22206", "P29_002": "A222310001057", "P29_003": "16013", "P29_004": "幼保連携型認定こども園のびる幼稚園", "P29_005": "静岡県三島市青木164", "P29_006": "4", "P29_007": "0", "P29_008": "00", "P29_009": null }, "geometry": { "type": "Point", "coordinates": [ 138.924065258406188, 35.101849526524575 ] } },
{ "type": "Feature", "properties": { "P29_001": "22206", "P29_002": "A222310001066", "P29_003": "16013", "P29_004": "しらゆり幼稚園", "P29_005": "静岡県三島市徳倉5-11-15", "P29_006": "4", "P29_007": "0", "P29_008": "00", "P29_009": null }, "geometry": { "type": "Point", "coordinates": [ 138.915743222447333, 35.149494081816805 ] } },
{ "type": "Feature", "properties": { "P29_001": "22207", "P29_002": "A222310001075", "P29_003": "16013", "P29_004": "認定こども園芝川リズム", "P29_005": "静岡県富士宮市羽鮒689", "P29_006": "4", "P29_007": "0", "P29_008": "00", "P29_009": null }, "geometry": { "type": "Point", "coordinates": [ 138.573245454713771, 35.202814051906294 ] } },
{ "type": "Feature", "properties": { "P29_001": "22207", "P29_002": "A222310001084", "P29_003": "16013", "P29_004": "認定こども園ふじキンダー学園", "P29_005": "静岡県富士宮市万野原新田4079-5", "P29_006": "4", "P29_007": "0", "P29_008": "00", "P29_009": null }, "geometry": { "type": "Point", "coordinates": [ 138.615068005471443, 35.25578499968686 ] } },
{ "type": "Feature", "properties": { "P29_001": "22207", "P29_002": "A222310001093", "P29_003": "16013", "P29_004": "認定こども園リーチェル幼稚園", "P29_005": "静岡県富士宮市淀師1742-1", "P29_006": "4", "P29_007": "0", "P29_008": "00", "P29_009": null }, "geometry": { "type": "Point", "coordinates": [ 138.601592760869579, 35.247458549507883 ] } },
{ "type": "Feature", "properties": { "P29_001": "22207", "P29_002": "A222310001100", "P29_003": "16013", "P29_004": "大中里こども園", "P29_005": "静岡県富士宮市大中里837", "P29_006": "4", "P29_007": "0", "P29_008": "00", "P29_009": null }, "geometry": { "type": "Point", "coordinates": [ 138.594728996078032, 35.222460996902583 ] } },
{ "type": "Feature", "properties": { "P29_001": "22207", "P29_002": "A222310001119", "P29_003": "16013", "P29_004": "野中こども園", "P29_005": "静岡県富士宮市野中東町294", "P29_006": "4", "P29_007": "0", "P29_008": "00", "P29_009": null }, "geometry": { "type": "Point", "coordinates": [ 138.610834777469876, 35.214837631079959 ] } },
{ "type": "Feature", "properties": { "P29_001": "22207", "P29_002": "A222310001128", "P29_003": "16013", "P29_004": "東こども園", "P29_005": "静岡県富士宮市東町18-18", "P29_006": "4", "P29_007": "0", "P29_008": "00", "P29_009": null }, "geometry": { "type": "Point", "coordinates": [ 138.620705343832213, 35.222659401127544 ] } },
{ "type": "Feature", "properties": { "P29_001": "22207", "P29_002": "A222310001137", "P29_003": "16013", "P29_004": "富丘こども園", "P29_005": "静岡県富士宮市青木325-5", "P29_006": "4", "P29_007": "0", "P29_008": "00", "P29_009": null }, "geometry": { "type": "Point", "coordinates": [ 138.594396880356385, 35.244294437143324 ] } },
{ "type": "Feature", "properties": { "P29_001": "22207", "P29_002": "A222310001146", "P29_003": "16013", "P29_004": "小泉こども園", "P29_005": "静岡県富士宮市西小泉町51-1", "P29_006": "4", "P29_007": "0", "P29_008": "00", "P29_009": null }, "geometry": { "type": "Point", "coordinates": [ 138.630437994809654, 35.219172995427364 ] } },
{ "type": "Feature", "properties": { "P29_001": "22209", "P29_002": "A222310001155", "P29_003": "16013", "P29_004": "みどり認定こども園", "P29_005": "静岡県島田市大柳南308", "P29_006": "4", "P29_007": "0", "P29_008": "00", "P29_009": null }, "geometry": { "type": "Point", "coordinates": [ 138.226099998274748, 34.808619996873816 ] } },
{ "type": "Feature", "properties": { "P29_001": "22209", "P29_002": "A222310001164", "P29_003": "16013", "P29_004": "認定こども園島田学園付属幼稚園", "P29_005": "静岡県島田市伊太2075-1", "P29_006": "4", "P29_007": "0", "P29_008": "00", "P29_009": null }, "geometry": { "type": "Point", "coordinates": [ 138.152557868427067, 34.848215519373262 ] } },
{ "type": "Feature", "properties": { "P29_001": "22209", "P29_002": "A222310001173", "P29_003": "16013", "P29_004": "認定こども園島田中央幼稚園", "P29_005": "静岡県島田市旗指2888-1", "P29_006": "4", "P29_007": "0", "P29_008": "00", "P29_009": null }, "geometry": { "type": "Point", "coordinates": [ 138.166695686700876, 34.844756261483091 ] } },
{ "type": "Feature", "properties": { "P29_001": "22209", "P29_002": "A222310001182", "P29_003": "16013", "P29_004": "幼保連携型認定こども園エルフのみらい", "P29_005": "静岡県島田市道悦2-27-14", "P29_006": "4", "P29_007": "0", "P29_008": "00", "P29_009": null }, "geometry": { "type": "Point", "coordinates": [ 138.203981870161272, 34.835086565979672 ] } },
{ "type": "Feature", "properties": { "P29_001": "22209", "P29_002": "A222310001191", "P29_003": "16013", "P29_004": "幼保連携型認定こども園エルフのゆめ", "P29_005": "静岡県島田市東町1210", "P29_006": "4", "P29_007": "0", "P29_008": "00", "P29_009": null }, "geometry": { "type": "Point", "coordinates": [ 138.221792853861615, 34.833784674610044 ] } },
{ "type": "Feature", "properties": { "P29_001": "22210", "P29_002": "A222310001208", "P29_003": "16013", "P29_004": "認定こども園曙幼稚園", "P29_005": "静岡県富士市吉原4-17-45", "P29_006": "4", "P29_007": "0", "P29_008": "00", "P29_009": null }, "geometry": { "type": "Point", "coordinates": [ 138.683847144138383, 35.166312070929123 ] } },
{ "type": "Feature", "properties": { "P29_001": "22210", "P29_002": "A222310001217", "P29_003": "16013", "P29_004": "認定こども園富士ふたば幼稚園", "P29_005": "静岡県富士市水戸島本町2-10", "P29_006": "4", "P29_007": "0", "P29_008": "00", "P29_009": null }, "geometry": { "type": "Point", "coordinates": [ 138.649453060763079, 35.148674060696635 ] } },
{ "type": "Feature", "properties": { "P29_001": "22210", "P29_002": "A222310001226", "P29_003": "16013", "P29_004": "たかおかこども園", "P29_005": "静岡県富士市厚原1385", "P29_006": "4", "P29_007": "0", "P29_008": "00", "P29_009": null }, "geometry": { "type": "Point", "coordinates": [ 138.656335002662587, 35.192549997665701 ] } },
{ "type": "Feature", "properties": { "P29_001": "22210", "P29_002": "A222310001235", "P29_003": "16013", "P29_004": "認定こども園わかば幼稚園", "P29_005": "静岡県富士市大淵3", "P29_006": "4", "P29_007": "0", "P29_008": "00", "P29_009": null }, "geometry": { "type": "Point", "coordinates": [ 138.691006358771375, 35.186744909738145 ] } },
{ "type": "Feature", "properties": { "P29_001": "22210", "P29_002": "A222310001244", "P29_003": "16013", "P29_004": "認定こども園みのる幼稚園", "P29_005": "静岡県富士市原田1742-1", "P29_006": "4", "P29_007": "0", "P29_008": "00", "P29_009": null }, "geometry": { "type": "Point", "coordinates": [ 138.714840977646389, 35.178333659127617 ] } },
{ "type": "Feature", "properties": { "P29_001": "22210", "P29_002": "A222310001253", "P29_003": "16013", "P29_004": "認定こども園さくら台幼稚園", "P29_005": "静岡県富士市中之郷3779", "P29_006": "4", "P29_007": "0", "P29_008": "00", "P29_009": null }, "geometry": { "type": "Point", "coordinates": [ 138.616173996378791, 35.140705004392323 ] } },
{ "type": "Feature", "properties": { "P29_001": "22210", "P29_002": "A222310001262", "P29_003": "16013", "P29_004": "認定こども園須津幼稚園", "P29_005": "静岡県富士市神谷新町227", "P29_006": "4", "P29_007": "0", "P29_008": "00", "P29_009": null }, "geometry": { "type": "Point", "coordinates": [ 138.742506695425106, 35.16075654968266 ] } },
{ "type": "Feature", "properties": { "P29_001": "22211", "P29_002": "A222310001271", "P29_003": "16013", "P29_004": "龍の子幼稚園", "P29_005": "静岡県磐田市前野2575", "P29_006": "4", "P29_007": "0", "P29_008": "00", "P29_009": null }, "geometry": { "type": "Point", "coordinates": [ 137.82849313055209, 34.696829264927317 ] } },
{ "type": "Feature", "properties": { "P29_001": "22211", "P29_002": "A222310001280", "P29_003": "16013", "P29_004": "聖隷こども園こうのとり豊田", "P29_005": "静岡県磐田市下本郷1055", "P29_006": "4", "P29_007": "0", "P29_008": "00", "P29_009": null }, "geometry": { "type": "Point", "coordinates": [ 137.82432032784186, 34.708231102984556 ] } },
{ "type": "Feature", "properties": { "P29_001": "22211", "P29_002": "A222310001299", "P29_003": "16013", "P29_004": "子育てセンターとみがおか", "P29_005": "静岡県磐田市富丘162-1", "P29_006": "4", "P29_007": "0", "P29_008": "00", "P29_009": null }, "geometry": { "type": "Point", "coordinates": [ 137.842718737965924, 34.739151348685311 ] } },
{ "type": "Feature", "properties": { "P29_001": "22211", "P29_002": "A222310001306", "P29_003": "16013", "P29_004": "子育てセンターみなみしま", "P29_005": "静岡県磐田市南島164-1", "P29_006": "4", "P29_007": "0", "P29_008": "00", "P29_009": null }, "geometry": { "type": "Point", "coordinates": [ 137.883930301873278, 34.691850996151523 ] } },
{ "type": "Feature", "properties": { "P29_001": "22211", "P29_002": "A222310001315", "P29_003": "16013", "P29_004": "聖隷こども園こうのとり東", "P29_005": "静岡県磐田市東新屋271-3", "P29_006": "4", "P29_007": "0", "P29_008": "00", "P29_009": null }, "geometry": { "type": "Point", "coordinates": [ 137.88828590358375, 34.699858488250563 ] } },
{ "type": "Feature", "properties": { "P29_001": "22211", "P29_002": "A222310001324", "P29_003": "16013", "P29_004": "広瀬こども園", "P29_005": "静岡県磐田市上神増460-1", "P29_006": "4", "P29_007": "0", "P29_008": "00", "P29_009": null }, "geometry": { "type": "Point", "coordinates": [ 137.849285168429475, 34.820195232352482 ] } },
{ "type": "Feature", "properties": { "P29_001": "22211", "P29_002": "A222310001333", "P29_003": "16013", "P29_004": "聖隷こども園こうのとり富丘", "P29_005": "静岡県磐田市富丘677-1", "P29_006": "4", "P29_007": "0", "P29_008": "00", "P29_009": null }, "geometry": { "type": "Point", "coordinates": [ 137.843055924636928, 34.730417516266876 ] } },
{ "type": "Feature", "properties": { "P29_001": "22213", "P29_002": "A222310001342", "P29_003": "16013", "P29_004": "幼保連携型認定こども園こども広場あんり", "P29_005": "静岡県掛川市本郷623-1", "P29_006": "4", "P29_007": "0", "P29_008": "00", "P29_009": null }, "geometry": { "type": "Point", "coordinates": [ 137.955813888119422, 34.803863633274204 ] } },
{ "type": "Feature", "properties": { "P29_001": "22213", "P29_002": "A222310001351", "P29_003": "16013", "P29_004": "掛川こども園", "P29_005": "静岡県掛川市家代の里1-5-1", "P29_006": "4", "P29_007": "0", "P29_008": "00", "P29_009": null }, "geometry": { "type": "Point", "coordinates": [ 137.975371561947696, 34.787466063712216 ] } },
{ "type": "Feature", "properties": { "P29_001": "22213", "P29_002": "A222310001360", "P29_003": "16013", "P29_004": "桜木こどもの森", "P29_005": "静岡県掛川市家代1761-1", "P29_006": "4", "P29_007": "0", "P29_008": "00", "P29_009": null }, "geometry": { "type": "Point", "coordinates": [ 137.97723401660312, 34.794100891225803 ] } },
{ "type": "Feature", "properties": { "P29_001": "22213", "P29_002": "A222310001379", "P29_003": "16013", "P29_004": "子育てセンターとものもり", "P29_005": "静岡県掛川市大池2305", "P29_006": "4", "P29_007": "0", "P29_008": "00", "P29_009": null }, "geometry": { "type": "Point", "coordinates": [ 137.999143417079353, 34.784471867995059 ] } },
{ "type": "Feature", "properties": { "P29_001": "22213", "P29_002": "A222310001388", "P29_003": "16013", "P29_004": "おおさかこども園", "P29_005": "静岡県掛川市大坂2805", "P29_006": "4", "P29_007": "0", "P29_008": "00", "P29_009": null }, "geometry": { "type": "Point", "coordinates": [ 138.04547169717938, 34.675220729283375 ] } },
{ "type": "Feature", "properties": { "P29_001": "22213", "P29_002": "A222310001397", "P29_003": "16013", "P29_004": "ちはまこども園", "P29_005": "静岡県掛川市千浜5870", "P29_006": "4", "P29_007": "0", "P29_008": "00", "P29_009": null }, "geometry": { "type": "Point", "coordinates": [ 138.075380843260945, 34.660301729055497 ] } },
{ "type": "Feature", "properties": { "P29_001": "22214", "P29_002": "A222310001404", "P29_003": "16013", "P29_004": "学校法人広幡学園広幡こども園", "P29_005": "静岡県藤枝市鬼島393", "P29_006": "4", "P29_007": "0", "P29_008": "00", "P29_009": null }, "geometry": { "type": "Point", "coordinates": [ 138.281926660468145, 34.889590586746756 ] } },
{ "type": "Feature", "properties": { "P29_001": "22214", "P29_002": "A222310001413", "P29_003": "16013", "P29_004": "学校法人大雄学園青島こども園", "P29_005": "静岡県藤枝市小石川町4-1-3", "P29_006": "4", "P29_007": "0", "P29_008": "00", "P29_009": null }, "geometry": { "type": "Point", "coordinates": [ 138.25955688333832, 34.852161804054639 ] } },
{ "type": "Feature", "properties": { "P29_001": "22214", "P29_002": "A222310001422", "P29_003": "16013", "P29_004": "大洲こども園", "P29_005": "静岡県藤枝市大洲2-27-13", "P29_006": "4", "P29_007": "0", "P29_008": "00", "P29_009": null }, "geometry": { "type": "Point", "coordinates": [ 138.248485003946485, 34.827806997882291 ] } },
{ "type": "Feature", "properties": { "P29_001": "22214", "P29_002": "A222310001431", "P29_003": "16013", "P29_004": "こばとこども園", "P29_005": "静岡県藤枝市瀬戸新屋70", "P29_006": "4", "P29_007": "0", "P29_008": "00", "P29_009": null }, "geometry": { "type": "Point", "coordinates": [ 138.244149001174321, 34.848723997134002 ] } },
{ "type": "Feature", "properties": { "P29_001": "22214", "P29_002": "A222310001440", "P29_003": "16013", "P29_004": "駿河台こども園", "P29_005": "静岡県藤枝市駿河台2-13-2", "P29_006": "4", "P29_007": "0", "P29_008": "00", "P29_009": null }, "geometry": { "type": "Point", "coordinates": [ 138.234836173482904, 34.862916045759647 ] } },
{ "type": "Feature", "properties": { "P29_001": "22214", "P29_002": "A222310001459", "P29_003": "16013", "P29_004": "いなばこども園", "P29_005": "静岡県藤枝市堀之内520-3", "P29_006": "4", "P29_007": "0", "P29_008": "00", "P29_009": null }, "geometry": { "type": "Point", "coordinates": [ 138.224222756987643, 34.878527101627846 ] } },
{ "type": "Feature", "properties": { "P29_001": "22214", "P29_002": "A222310001468", "P29_003": "16013", "P29_004": "幼保連携型認定こども園志太こども園", "P29_005": "静岡県藤枝市志太2-10-30", "P29_006": "4", "P29_007": "0", "P29_008": "00", "P29_009": null }, "geometry": { "type": "Point", "coordinates": [ 138.246492912026952, 34.863048371456443 ] } },
{ "type": "Feature", "properties": { "P29_001": "22214", "P29_002": "A222310001477", "P29_003": "16013", "P29_004": "幼保連携型認定こども園せとやこども園", "P29_005": "静岡県藤枝市本郷225", "P29_006": "4", "P29_007": "0", "P29_008": "00", "P29_009": null }, "geometry": { "type": "Point", "coordinates": [ 138.198136555679071, 34.904636416852625 ] } },
{ "type": "Feature", "properties": { "P29_001": "22216", "P29_002": "A222310001486", "P29_003": "16013", "P29_004": "浜松学院大学付属愛野こども園", "P29_005": "静岡県袋井市愛野南2-2-3", "P29_006": "4", "P29_007": "0", "P29_008": "00", "P29_009": null }, "geometry": { "type": "Point", "coordinates": [ 137.961947936717308, 34.748947136841934 ] } },
{ "type": "Feature", "properties": { "P29_001": "22216", "P29_002": "A222310001495", "P29_003": "16013", "P29_004": "袋井ハローこども園", "P29_005": "静岡県袋井市下山梨559-1", "P29_006": "4", "P29_007": "0", "P29_008": "00", "P29_009": null }, "geometry": { "type": "Point", "coordinates": [ 137.904910103186324, 34.779012226678823 ] } },
{ "type": "Feature", "properties": { "P29_001": "22216", "P29_002": "A222310001501", "P29_003": "16013", "P29_004": "ルンビニあゆみ園", "P29_005": "静岡県袋井市高尾1777-1", "P29_006": "4", "P29_007": "0", "P29_008": "00", "P29_009": null }, "geometry": { "type": "Point", "coordinates": [ 137.92377325006504, 34.739166295498165 ] } },
{ "type": "Feature", "properties": { "P29_001": "22215", "P29_002": "A222310001510", "P29_003": "16013", "P29_004": "神山認定こども園", "P29_005": "静岡県御殿場市神山1692-4", "P29_006": "4", "P29_007": "0", "P29_008": "00", "P29_009": null }, "geometry": { "type": "Point", "coordinates": [ 138.915972071688742, 35.233480043638359 ] } },
{ "type": "Feature", "properties": { "P29_001": "22221", "P29_002": "A222310001529", "P29_003": "16013", "P29_004": "しらゆりこども園", "P29_005": "静岡県湖西市入出377", "P29_006": "4", "P29_007": "0", "P29_008": "00", "P29_009": null }, "geometry": { "type": "Point", "coordinates": [ 137.526296996939834, 34.748148996914161 ] } },
{ "type": "Feature", "properties": { "P29_001": "22221", "P29_002": "A222310001538", "P29_003": "16013", "P29_004": "おかさきこども園", "P29_005": "静岡県湖西市吉美3294-136", "P29_006": "4", "P29_007": "0", "P29_008": "00", "P29_009": null }, "geometry": { "type": "Point", "coordinates": [ 137.500951638197478, 34.715428859113239 ] } },
{ "type": "Feature", "properties": { "P29_001": "22221", "P29_002": "A222310001547", "P29_003": "16013", "P29_004": "微笑こども園", "P29_005": "静岡県湖西市梅田128-3", "P29_006": "4", "P29_007": "0", "P29_008": "00", "P29_009": null }, "geometry": { "type": "Point", "coordinates": [ 137.484335933991559, 34.734001569234003 ] } },
{ "type": "Feature", "properties": { "P29_001": "22221", "P29_002": "A222310001556", "P29_003": "16013", "P29_004": "真愛三ツ谷こども園", "P29_005": "静岡県湖西市新居町中之郷2044-2", "P29_006": "4", "P29_007": "0", "P29_008": "00", "P29_009": null }, "geometry": { "type": "Point", "coordinates": [ 137.549905674707901, 34.703498609229499 ] } },
{ "type": "Feature", "properties": { "P29_001": "22222", "P29_002": "A222310001565", "P29_003": "16013", "P29_004": "認定こども園あゆのさと", "P29_005": "静岡県伊豆市柏久保1309", "P29_006": "4", "P29_007": "0", "P29_008": "00", "P29_009": null }, "geometry": { "type": "Point", "coordinates": [ 138.950850002683723, 34.981044000213828 ] } },
{ "type": "Feature", "properties": { "P29_001": "22222", "P29_002": "A222310001574", "P29_003": "16013", "P29_004": "あまぎ認定こども園", "P29_005": "静岡県伊豆市月ヶ瀬408-1", "P29_006": "4", "P29_007": "0", "P29_008": "00", "P29_009": null }, "geometry": { "type": "Point", "coordinates": [ 138.924802618846599, 34.915766624625554 ] } },
{ "type": "Feature", "properties": { "P29_001": "22222", "P29_002": "A222310001583", "P29_003": "16013", "P29_004": "なかいず認定こども園", "P29_005": "静岡県伊豆市八幡282-1", "P29_006": "4", "P29_007": "0", "P29_008": "00", "P29_009": null }, "geometry": { "type": "Point", "coordinates": [ 138.998497919921817, 34.9549100256827 ] } },
{ "type": "Feature", "properties": { "P29_001": "22226", "P29_002": "A222310001592", "P29_003": "16013", "P29_004": "学校法人榛原学園川崎幼稚園", "P29_005": "静岡県牧之原市静波1398-2", "P29_006": "4", "P29_007": "0", "P29_008": "00", "P29_009": null }, "geometry": { "type": "Point", "coordinates": [ 138.226704999171886, 34.741570002970683 ] } },
{ "type": "Feature", "properties": { "P29_001": "22226", "P29_002": "A222310001609", "P29_003": "16013", "P29_004": "認定こども園みのり幼稚園", "P29_005": "静岡県牧之原市細江812-2", "P29_006": "4", "P29_007": "0", "P29_008": "00", "P29_009": null }, "geometry": { "type": "Point", "coordinates": [ 138.233686420956502, 34.748002024671727 ] } },
{ "type": "Feature", "properties": { "P29_001": "22226", "P29_002": "A222310001618", "P29_003": "16013", "P29_004": "認定こども園すすき幼稚園", "P29_005": "静岡県牧之原市須々木464-3", "P29_006": "4", "P29_007": "0", "P29_008": "00", "P29_009": null }, "geometry": { "type": "Point", "coordinates": [ 138.192800927060148, 34.671794279791563 ] } },
{ "type": "Feature", "properties": { "P29_001": "22224", "P29_002": "A222310001627", "P29_003": "16013", "P29_004": "菊川中央こども園", "P29_005": "静岡県菊川市本所27", "P29_006": "4", "P29_007": "0", "P29_008": "00", "P29_009": null }, "geometry": { "type": "Point", "coordinates": [ 138.092409040820314, 34.761456379849982 ] } },
{ "type": "Feature", "properties": { "P29_001": "22224", "P29_002": "A222310001636", "P29_003": "16013", "P29_004": "ひがしこども園", "P29_005": "静岡県菊川市川上1410-1", "P29_006": "4", "P29_007": "0", "P29_008": "00", "P29_009": null }, "geometry": { "type": "Point", "coordinates": [ 138.111103872292745, 34.701117299151441 ] } },
{ "type": "Feature", "properties": { "P29_001": "22224", "P29_002": "A222310001645", "P29_003": "16013", "P29_004": "みなみこども園", "P29_005": "静岡県菊川市高橋3691", "P29_006": "4", "P29_007": "0", "P29_008": "00", "P29_009": null }, "geometry": { "type": "Point", "coordinates": [ 138.098203729314008, 34.679735466631847 ] } },
{ "type": "Feature", "properties": { "P29_001": "22225", "P29_002": "A222310001654", "P29_003": "16013", "P29_004": "しょうれんじこども園楽生・寿光", "P29_005": "静岡県伊豆の国市南江間919", "P29_006": "4", "P29_007": "0", "P29_008": "00", "P29_009": null }, "geometry": { "type": "Point", "coordinates": [ 138.930687691349561, 35.054689856133997 ] } },
{ "type": "Feature", "properties": { "P29_001": "22225", "P29_002": "A222310001663", "P29_003": "16013", "P29_004": "慈恩こども園", "P29_005": "静岡県伊豆の国市白山堂171-2", "P29_006": "4", "P29_007": "0", "P29_008": "00", "P29_009": null }, "geometry": { "type": "Point", "coordinates": [ 138.940488563735585, 35.020782416997264 ] } },
{ "type": "Feature", "properties": { "P29_001": "22342", "P29_002": "A222310001672", "P29_003": "16013", "P29_004": "あそかこども園", "P29_005": "静岡県駿東郡長泉町下土狩578", "P29_006": "4", "P29_007": "0", "P29_008": "00", "P29_009": null }, "geometry": { "type": "Point", "coordinates": [ 138.902213088297373, 35.130164959418778 ] } },
{ "type": "Feature", "properties": { "P29_001": "22342", "P29_002": "A222310001681", "P29_003": "16013", "P29_004": "あまねこども園", "P29_005": "静岡県駿東郡長泉町下土狩1401-1", "P29_006": "4", "P29_007": "0", "P29_008": "00", "P29_009": null }, "geometry": { "type": "Point", "coordinates": [ 138.896409891996967, 35.127273428273831 ] } },
{ "type": "Feature", "properties": { "P29_001": "22132", "P29_002": "A222310001690", "P29_003": "16013", "P29_004": "天竜こども園", "P29_005": "静岡県浜松市東区薬新町315-1", "P29_006": "4", "P29_007": "0", "P29_008": "00", "P29_009": null }, "geometry": { "type": "Point", "coordinates": [ 137.785732672405175, 34.721984396038259 ] } },
{ "type": "Feature", "properties": { "P29_001": "22132", "P29_002": "A222310001707", "P29_003": "16013", "P29_004": "若宮こども園", "P29_005": "静岡県浜松市東区大瀬町2050", "P29_006": "4", "P29_007": "0", "P29_008": "00", "P29_009": null }, "geometry": { "type": "Point", "coordinates": [ 137.775713618118743, 34.759129976514053 ] } },
{ "type": "Feature", "properties": { "P29_001": "22135", "P29_002": "A222310001716", "P29_003": "16013", "P29_004": "みどりのもり都田", "P29_005": "静岡県浜松市北区都田町6497-1", "P29_006": "4", "P29_007": "0", "P29_008": "00", "P29_009": null }, "geometry": { "type": "Point", "coordinates": [ 137.715130010787618, 34.824379819939388 ] } },
{ "type": "Feature", "properties": { "P29_001": "22136", "P29_002": "A222310001725", "P29_003": "16013", "P29_004": "あゆみの森こども園", "P29_005": "静岡県浜松市浜北区寺島2889-1", "P29_006": "4", "P29_007": "0", "P29_008": "00", "P29_009": null }, "geometry": { "type": "Point", "coordinates": [ 137.794251728026524, 34.786704219198448 ] } },
{ "type": "Feature", "properties": { "P29_001": "22136", "P29_002": "A222310001734", "P29_003": "16013", "P29_004": "子育てセンターみゅうのおか", "P29_005": "静岡県浜松市浜北区根堅2596-1", "P29_006": "4", "P29_007": "0", "P29_008": "00", "P29_009": null }, "geometry": { "type": "Point", "coordinates": [ 137.801194732740072, 34.853047300293149 ] } },
{ "type": "Feature", "properties": { "P29_001": "22136", "P29_002": "A222310001743", "P29_003": "16013", "P29_004": "こども園ことり", "P29_005": "静岡県浜松市浜北区内野5221-5", "P29_006": "4", "P29_007": "0", "P29_008": "00", "P29_009": null }, "geometry": { "type": "Point", "coordinates": [ 137.74190400205535, 34.796714001630868 ] } },
{ "type": "Feature", "properties": { "P29_001": "22136", "P29_002": "A222310001752", "P29_003": "16013", "P29_004": "ひらくちかえでこども園", "P29_005": "静岡県浜松市浜北区平口160", "P29_006": "4", "P29_007": "0", "P29_008": "00", "P29_009": null }, "geometry": { "type": "Point", "coordinates": [ 137.763077943933467, 34.800722414524337 ] } },
{ "type": "Feature", "properties": { "P29_001": "22131", "P29_002": "A222310001761", "P29_003": "16013", "P29_004": "小豆餅ゆすらうめこども園", "P29_005": "静岡県浜松市中区小豆餅4-18-2", "P29_006": "4", "P29_007": "0", "P29_008": "00", "P29_009": null }, "geometry": { "type": "Point", "coordinates": [ 137.729999712058884, 34.754464139691557 ] } },
{ "type": "Feature", "properties": { "P29_001": "22131", "P29_002": "A222310001770", "P29_003": "16013", "P29_004": "上池さくらこども園", "P29_005": "静岡県浜松市中区城北2-25-43", "P29_006": "4", "P29_007": "0", "P29_008": "00", "P29_009": null }, "geometry": { "type": "Point", "coordinates": [ 137.723571901480028, 34.724191698051527 ] } },
{ "type": "Feature", "properties": { "P29_001": "22131", "P29_002": "A222310001789", "P29_003": "16013", "P29_004": "音の森こども園", "P29_005": "静岡県浜松市中区富塚町3657-1", "P29_006": "4", "P29_007": "0", "P29_008": "00", "P29_009": null }, "geometry": { "type": "Point", "coordinates": [ 137.69650599913308, 34.728519001642368 ] } },
{ "type": "Feature", "properties": { "P29_001": "22135", "P29_002": "A222310001798", "P29_003": "16013", "P29_004": "こども園みらい", "P29_005": "静岡県浜松市北区三幸町159-1", "P29_006": "4", "P29_007": "0", "P29_008": "00", "P29_009": null }, "geometry": { "type": "Point", "coordinates": [ 137.714792002069117, 34.797156996442631 ] } },
{ "type": "Feature", "properties": { "P29_001": "22136", "P29_002": "A222310001805", "P29_003": "16013", "P29_004": "風の子こども園", "P29_005": "静岡県浜松市浜北区平口1973", "P29_006": "4", "P29_007": "0", "P29_008": "00", "P29_009": null }, "geometry": { "type": "Point", "coordinates": [ 137.768424928200858, 34.794542900216555 ] } },
{ "type": "Feature", "properties": { "P29_001": "22132", "P29_002": "A222310001814", "P29_003": "16013", "P29_004": "浜松東こども園", "P29_005": "静岡県浜松市東区篠ケ瀬町580-3", "P29_006": "4", "P29_007": "0", "P29_008": "00", "P29_009": null }, "geometry": { "type": "Point", "coordinates": [ 137.777946475974545, 34.72762306328535 ] } },
{ "type": "Feature", "properties": { "P29_001": "22133", "P29_002": "A222310001823", "P29_003": "16013", "P29_004": "雄踏ちゅうりっぷこども園", "P29_005": "静岡県浜松市西区雄踏町宇布見7430-8", "P29_006": "4", "P29_007": "0", "P29_008": "00", "P29_009": null }, "geometry": { "type": "Point", "coordinates": [ 137.631369487526001, 34.704761275078837 ] } },
{ "type": "Feature", "properties": { "P29_001": "22136", "P29_002": "A222310001832", "P29_003": "16013", "P29_004": "森のいえはまきた", "P29_005": "静岡県浜松市浜北区於呂2739", "P29_006": "4", "P29_007": "0", "P29_008": "00", "P29_009": null }, "geometry": { "type": "Point", "coordinates": [ 137.796346785582358, 34.838195888127629 ] } },
{ "type": "Feature", "properties": { "P29_001": "22101", "P29_002": "A222310001841", "P29_003": "16013", "P29_004": "横内幼稚園", "P29_005": "静岡県静岡市葵区横内町103-1", "P29_006": "4", "P29_007": "0", "P29_008": "00", "P29_009": null }, "geometry": { "type": "Point", "coordinates": [ 138.39130899824346, 34.984283997377787 ] } },
{ "type": "Feature", "properties": { "P29_001": "22103", "P29_002": "A222310001850", "P29_003": "16013", "P29_004": "まつぼっくりこども園", "P29_005": "静岡県静岡市清水区三保松原町15-5", "P29_006": "4", "P29_007": "0", "P29_008": "00", "P29_009": null }, "geometry": { "type": "Point", "coordinates": [ 138.517632148044243, 34.994892414616032 ] } },
{ "type": "Feature", "properties": { "P29_001": "22131", "P29_002": "A222310001869", "P29_003": "16013", "P29_004": "浜松中央こども園", "P29_005": "静岡県浜松市中区尾張町127-7", "P29_006": "4", "P29_007": "0", "P29_008": "00", "P29_009": null }, "geometry": { "type": "Point", "coordinates": [ 137.730755508574219, 34.711896401676277 ] } },
{ "type": "Feature", "properties": { "P29_001": "22131", "P29_002": "A222310001878", "P29_003": "16013", "P29_004": "たかい丘こども園", "P29_005": "静岡県浜松市中区高丘北2-25-21", "P29_006": "4", "P29_007": "0", "P29_008": "00", "P29_009": null }, "geometry": { "type": "Point", "coordinates": [ 137.70451101255145, 34.761728015607879 ] } },
{ "type": "Feature", "properties": { "P29_001": "22133", "P29_002": "A222310001887", "P29_003": "16013", "P29_004": "湖東白ゆりこども園", "P29_005": "静岡県浜松市西区湖東町5826-1", "P29_006": "4", "P29_007": "0", "P29_008": "00", "P29_009": null }, "geometry": { "type": "Point", "coordinates": [ 137.685207304136981, 34.761225878636964 ] } },
{ "type": "Feature", "properties": { "P29_001": "22203", "P29_002": "A222310001896", "P29_003": "16013", "P29_004": "認定こども園春の木幼稚園", "P29_005": "静岡県沼津市東椎路1547-1", "P29_006": "4", "P29_007": "0", "P29_008": "00", "P29_009": null }, "geometry": { "type": "Point", "coordinates": [ 138.835060996341639, 35.127474000016505 ] } },
{ "type": "Feature", "properties": { "P29_001": "22208", "P29_002": "A222310001903", "P29_003": "16013", "P29_004": "幼保連携型認定こども園川奈愛育クラブ", "P29_005": "静岡県伊東市川奈1267", "P29_006": "4", "P29_007": "0", "P29_008": "00", "P29_009": null }, "geometry": { "type": "Point", "coordinates": [ 139.124612290076499, 34.945931732418579 ] } },
{ "type": "Feature", "properties": { "P29_001": "22210", "P29_002": "A222310001912", "P29_003": "16013", "P29_004": "富士ふたばこども園", "P29_005": "静岡県富士市五貫島492-1", "P29_006": "4", "P29_007": "0", "P29_008": "00", "P29_009": null }, "geometry": { "type": "Point", "coordinates": [ 138.645115986056538, 35.134198900680182 ] } },
{ "type": "Feature", "properties": { "P29_001": "22211", "P29_002": "A222310001921", "P29_003": "16013", "P29_004": "岩田こども園", "P29_005": "静岡県磐田市匂坂中987-2", "P29_006": "4", "P29_007": "0", "P29_008": "00", "P29_009": null }, "geometry": { "type": "Point", "coordinates": [ 137.831886997558144, 34.766609922532361 ] } },
{ "type": "Feature", "properties": { "P29_001": "22213", "P29_002": "A222310001930", "P29_003": "16013", "P29_004": "智光こども園", "P29_005": "静岡県掛川市仁藤町5-5", "P29_006": "4", "P29_007": "0", "P29_008": "00", "P29_009": null }, "geometry": { "type": "Point", "coordinates": [ 138.017502793551955, 34.774175174995996 ] } },
{ "type": "Feature", "properties": { "P29_001": "22213", "P29_002": "A222310001949", "P29_003": "16013", "P29_004": "幼保連携型認定こども園よこすかぬく森こども園", "P29_005": "静岡県掛川市横須賀1039-1", "P29_006": "4", "P29_007": "0", "P29_008": "00", "P29_009": null }, "geometry": { "type": "Point", "coordinates": [ 137.986991178109832, 34.684309170791479 ] } },
{ "type": "Feature", "properties": { "P29_001": "22213", "P29_002": "A222310001958", "P29_003": "16013", "P29_004": "子育てセンターひだまり", "P29_005": "静岡県掛川市杉谷南2-1-1", "P29_006": "4", "P29_007": "0", "P29_008": "00", "P29_009": null }, "geometry": { "type": "Point", "coordinates": [ 138.029092884619644, 34.760602395326984 ] } },
{ "type": "Feature", "properties": { "P29_001": "22213", "P29_002": "A222310001967", "P29_003": "16013", "P29_004": "子育てセンターさやのもり", "P29_005": "静岡県掛川市長谷1687-2", "P29_006": "4", "P29_007": "0", "P29_008": "00", "P29_009": null }, "geometry": { "type": "Point", "coordinates": [ 137.989799965542602, 34.768410061617757 ] } },
{ "type": "Feature", "properties": { "P29_001": "22214", "P29_002": "A222310001976", "P29_003": "16013", "P29_004": "幼保連携型認定こども園葉梨こども園", "P29_005": "静岡県藤枝市下之郷1713-6", "P29_006": "4", "P29_007": "0", "P29_008": "00", "P29_009": null }, "geometry": { "type": "Point", "coordinates": [ 138.245717113996903, 34.89331986594302 ] } },
{ "type": "Feature", "properties": { "P29_001": "22216", "P29_002": "A222310001985", "P29_003": "16013", "P29_004": "ルンビニこども園", "P29_005": "静岡県袋井市諸井1056-2", "P29_006": "4", "P29_007": "0", "P29_008": "00", "P29_009": null }, "geometry": { "type": "Point", "coordinates": [ 137.917998809345249, 34.721317383680386 ] } },
{ "type": "Feature", "properties": { "P29_001": "22220", "P29_002": "A222310001994", "P29_003": "16013", "P29_004": "幼保連携型認定こども園御宿台こども園", "P29_005": "静岡県裾野市御宿1619-1", "P29_006": "4", "P29_007": "0", "P29_008": "00", "P29_009": null }, "geometry": { "type": "Point", "coordinates": [ 138.911607420296917, 35.213055544470265 ] } },
{ "type": "Feature", "properties": { "P29_001": "22213", "P29_002": "A222310002001", "P29_003": "16013", "P29_004": "幼保連携型認定こども園おおぶちそよ風こども園", "P29_005": "静岡県掛川市大渕4385-1", "P29_006": "4", "P29_007": "0", "P29_008": "00", "P29_009": null }, "geometry": { "type": "Point", "coordinates": [ 138.015416194665818, 34.668735085078296 ] } },
{ "type": "Feature", "properties": { "P29_001": "22215", "P29_002": "A222310002010", "P29_003": "16013", "P29_004": "すみれこども園", "P29_005": "静岡県御殿場市竈1233-1", "P29_006": "4", "P29_007": "0", "P29_008": "00", "P29_009": null }, "geometry": { "type": "Point", "coordinates": [ 138.917870100316719, 35.277870645371337 ] } },
{ "type": "Feature", "properties": { "P29_001": "22215", "P29_002": "A222310002029", "P29_003": "16013", "P29_004": "幼保連携型認定こども園ぶらんこ", "P29_005": "静岡県御殿場市東田中3-1-18", "P29_006": "4", "P29_007": "0", "P29_008": "00", "P29_009": null }, "geometry": { "type": "Point", "coordinates": [ 138.940425964417756, 35.305941308740685 ] } },
{ "type": "Feature", "properties": { "P29_001": "22216", "P29_002": "A222310002038", "P29_003": "16013", "P29_004": "子育てセンターにじいろ", "P29_005": "静岡県袋井市上田町267-31", "P29_006": "4", "P29_007": "0", "P29_008": "00", "P29_009": null }, "geometry": { "type": "Point", "coordinates": [ 137.935140177724094, 34.735929266375663 ] } },
{ "type": "Feature", "properties": { "P29_001": "22224", "P29_002": "A222310002047", "P29_003": "16013", "P29_004": "幼保連携型こども園西方こども園", "P29_005": "静岡県菊川市西方1477-1", "P29_006": "4", "P29_007": "0", "P29_008": "00", "P29_009": null }, "geometry": { "type": "Point", "coordinates": [ 138.075971679691065, 34.762741961607794 ] } },
{ "type": "Feature", "properties": { "P29_001": "22131", "P29_002": "A222310002056", "P29_003": "16013", "P29_004": "花園こども園", "P29_005": "静岡県浜松市中区西伊場町77-1", "P29_006": "4", "P29_007": "0", "P29_008": "00", "P29_009": null }, "geometry": { "type": "Point", "coordinates": [ 137.705200387618646, 34.69766988236902 ] } },
{ "type": "Feature", "properties": { "P29_001": "22131", "P29_002": "A222310002065", "P29_003": "16013", "P29_004": "まつばこども園", "P29_005": "静岡県浜松市中区上島1-26-14", "P29_006": "4", "P29_007": "0", "P29_008": "00", "P29_009": null }, "geometry": { "type": "Point", "coordinates": [ 137.74315602542876, 34.739342677327542 ] } },
{ "type": "Feature", "properties": { "P29_001": "22131", "P29_002": "A222310002074", "P29_003": "16013", "P29_004": "天林寺こども園", "P29_005": "静岡県浜松市中区下池川町27-1", "P29_006": "4", "P29_007": "0", "P29_008": "00", "P29_009": null }, "geometry": { "type": "Point", "coordinates": [ 137.729498138217906, 34.715960577677137 ] } },
{ "type": "Feature", "properties": { "P29_001": "22203", "P29_002": "A222310002083", "P29_003": "16013", "P29_004": "認定こども園沼津学園第一幼稚園", "P29_005": "静岡県沼津市寿町16-40", "P29_006": "4", "P29_007": "0", "P29_008": "00", "P29_009": null }, "geometry": { "type": "Point", "coordinates": [ 138.856956841065539, 35.114209377963704 ] } },
{ "type": "Feature", "properties": { "P29_001": "22134", "P29_002": "A222310002092", "P29_003": "16013", "P29_004": "遊歩の丘みなみプレスクール", "P29_005": "静岡県浜松市南区新橋町917", "P29_006": "4", "P29_007": "0", "P29_008": "00", "P29_009": null }, "geometry": { "type": "Point", "coordinates": [ 137.706261510088979, 34.682395299726437 ] } },
{ "type": "Feature", "properties": { "P29_001": "22131", "P29_002": "A222310002109", "P29_003": "16013", "P29_004": "葵ヶ丘こども園", "P29_005": "静岡県浜松市中区高丘東3-54-18", "P29_006": "4", "P29_007": "0", "P29_008": "00", "P29_009": null }, "geometry": { "type": "Point", "coordinates": [ 137.717254026797377, 34.763518041335594 ] } },
{ "type": "Feature", "properties": { "P29_001": "22131", "P29_002": "A222310002118", "P29_003": "16013", "P29_004": "中央ながかみこども園", "P29_005": "静岡県浜松市中区中島2-7-8", "P29_006": "4", "P29_007": "0", "P29_008": "00", "P29_009": null }, "geometry": { "type": "Point", "coordinates": [ 137.746595189528733, 34.701593842044808 ] } },
{ "type": "Feature", "properties": { "P29_001": "22132", "P29_002": "A222310002127", "P29_003": "16013", "P29_004": "ながかみこども園", "P29_005": "静岡県浜松市東区中田町776", "P29_006": "4", "P29_007": "0", "P29_008": "00", "P29_009": null }, "geometry": { "type": "Point", "coordinates": [ 137.760342199869655, 34.736658363718867 ] } },
{ "type": "Feature", "properties": { "P29_001": "22133", "P29_002": "A222310002136", "P29_003": "16013", "P29_004": "花園幼稚園", "P29_005": "静岡県浜松市西区篠原町9376-1", "P29_006": "4", "P29_007": "0", "P29_008": "00", "P29_009": null }, "geometry": { "type": "Point", "coordinates": [ 137.658446913501848, 34.68765516839823 ] } },
{ "type": "Feature", "properties": { "P29_001": "22220", "P29_002": "A222310002145", "P29_003": "16013", "P29_004": "幼保連携型認定こども園富岳キッズセンターあい", "P29_005": "静岡県裾野市茶畑938-1", "P29_006": "4", "P29_007": "0", "P29_008": "00", "P29_009": null }, "geometry": { "type": "Point", "coordinates": [ 138.917706555595686, 35.167196252610097 ] } },
{ "type": "Feature", "properties": { "P29_001": "22213", "P29_002": "A222310002154", "P29_003": "16013", "P29_004": "きとうこども園", "P29_005": "静岡県掛川市下土方380-1", "P29_006": "4", "P29_007": "0", "P29_008": "00", "P29_009": null }, "geometry": { "type": "Point", "coordinates": [ 138.046868904449553, 34.707078821202444 ] } },
{ "type": "Feature", "properties": { "P29_001": "22216", "P29_002": "A222310002163", "P29_003": "16013", "P29_004": "ルンビニこども園", "P29_005": "静岡県袋井市浅羽1248", "P29_006": "4", "P29_007": "0", "P29_008": "00", "P29_009": null }, "geometry": { "type": "Point", "coordinates": [ 137.924487199366979, 34.713720140666254 ] } },
{ "type": "Feature", "properties": { "P29_001": "22102", "P29_002": "A222310002172", "P29_003": "16013", "P29_004": "梨花幼稚園", "P29_005": "静岡県静岡市駿河区下川原2-33-15", "P29_006": "4", "P29_007": "0", "P29_008": "00", "P29_009": null }, "geometry": { "type": "Point", "coordinates": [ 138.376043845130567, 34.937463393273028 ] } }
]
}
