{
"type": "FeatureCollection",
"name": "geo_22_短期大学",
"crs": { "type": "name", "properties": { "name": "urn:ogc:def:crs:EPSG::6668" } },
"features": [
{ "type": "Feature", "properties": { "P29_001": "22211", "P29_002": "F222210106356", "P29_003": "16006", "P29_004": "静岡県立農林環境専門職大学短期大学部", "P29_005": "静岡県磐田市富丘678-1", "P29_006": "2", "P29_007": "0", "P29_008": "00", "P29_009": null }, "geometry": { "type": "Point", "coordinates": [ 137.846082219902399, 34.729863842194455 ] } },
{ "type": "Feature", "properties": { "P29_001": "22102", "P29_002": "F222210106365", "P29_003": "16006", "P29_004": "静岡県立大学短期大学部", "P29_005": "静岡県静岡市駿河区小鹿2-2-1", "P29_006": "2", "P29_007": "0", "P29_008": "00", "P29_009": null }, "geometry": { "type": "Point", "coordinates": [ 138.417136864296566, 34.974795137712803 ] } },
{ "type": "Feature", "properties": { "P29_001": "22102", "P29_002": "F222310106381", "P29_003": "16006", "P29_004": "静岡英和学院大学短期大学部", "P29_005": "静岡県静岡市駿河区池田1769", "P29_006": "4", "P29_007": "0", "P29_008": "00", "P29_009": null }, "geometry": { "type": "Point", "coordinates": [ 138.437052660669934, 34.982879196247545 ] } },
{ "type": "Feature", "properties": { "P29_001": "22102", "P29_002": "F222310106390", "P29_003": "16006", "P29_004": "常葉大学短期大学部", "P29_005": "静岡県静岡市駿河区弥生町6-1", "P29_006": "4", "P29_007": "0", "P29_008": "00", "P29_009": null }, "geometry": { "type": "Point", "coordinates": [ 138.437476700794718, 35.004438465669992 ] } },
{ "type": "Feature", "properties": { "P29_001": "22131", "P29_002": "F222310106407", "P29_003": "16006", "P29_004": "浜松学院大学短期大学部", "P29_005": "静岡県浜松市中区住吉2-3-1", "P29_006": "4", "P29_007": "0", "P29_008": "00", "P29_009": null }, "geometry": { "type": "Point", "coordinates": [ 137.727342530938301, 34.728107508148661 ] } },
{ "type": "Feature", "properties": { "P29_001": "22206", "P29_002": "F213310104419", "P29_003": "16006", "P29_004": "日本大学短期大学部", "P29_005": "静岡県三島市文教町2-31-145", "P29_006": "4", "P29_007": "0", "P29_008": "03", "P29_009": "三島校舎" }, "geometry": { "type": "Point", "coordinates": [ 138.915005898036327, 35.132975892064508 ] } }
]
}
