{
"type": "FeatureCollection",
"name": "geo_22_高校",
"crs": { "type": "name", "properties": { "name": "urn:ogc:def:crs:EPSG::6668" } },
"features": [
{ "type": "Feature", "properties": { "P29_001": "22305", "P29_002": "D122210000019", "P29_003": "16004", "P29_004": "静岡県立松崎高等学校", "P29_005": "静岡県賀茂郡松崎町桜田188", "P29_006": "2", "P29_007": "0", "P29_008": "00", "P29_009": null }, "geometry": { "type": "Point", "coordinates": [ 138.788538119710807, 34.757311555813473 ] } },
{ "type": "Feature", "properties": { "P29_001": "22301", "P29_002": "D122210000028", "P29_003": "16004", "P29_004": "静岡県立稲取高等学校", "P29_005": "静岡県賀茂郡東伊豆町稲取3012-2", "P29_006": "2", "P29_007": "0", "P29_008": "00", "P29_009": null }, "geometry": { "type": "Point", "coordinates": [ 139.04785800507139, 34.781212996427122 ] } },
{ "type": "Feature", "properties": { "P29_001": "22205", "P29_002": "D122210000055", "P29_003": "16004", "P29_004": "静岡県立熱海高等学校", "P29_005": "静岡県熱海市下多賀字向山1484-22", "P29_006": "2", "P29_007": "0", "P29_008": "00", "P29_009": null }, "geometry": { "type": "Point", "coordinates": [ 139.064842892674761, 35.053518996998001 ] } },
{ "type": "Feature", "properties": { "P29_001": "22225", "P29_002": "D122210000064", "P29_003": "16004", "P29_004": "静岡県立韮山高等学校", "P29_005": "静岡県伊豆の国市韮山韮山229", "P29_006": "2", "P29_007": "0", "P29_008": "00", "P29_009": null }, "geometry": { "type": "Point", "coordinates": [ 138.955289218294581, 35.055730115210423 ] } },
{ "type": "Feature", "properties": { "P29_001": "22325", "P29_002": "D122210000073", "P29_003": "16004", "P29_004": "静岡県立田方農業高等学校", "P29_005": "静岡県田方郡函南町塚本961", "P29_006": "2", "P29_007": "0", "P29_008": "00", "P29_009": null }, "geometry": { "type": "Point", "coordinates": [ 138.942626202499127, 35.080273473675561 ] } },
{ "type": "Feature", "properties": { "P29_001": "22206", "P29_002": "D122210000082", "P29_003": "16004", "P29_004": "静岡県立三島南高等学校", "P29_005": "静岡県三島市大場608", "P29_006": "2", "P29_007": "0", "P29_008": "00", "P29_009": null }, "geometry": { "type": "Point", "coordinates": [ 138.944932599606943, 35.095011682725655 ] } },
{ "type": "Feature", "properties": { "P29_001": "22206", "P29_002": "D122210000091", "P29_003": "16004", "P29_004": "静岡県立三島北高等学校", "P29_005": "静岡県三島市文教町1-3-18", "P29_006": "2", "P29_007": "0", "P29_008": "00", "P29_009": null }, "geometry": { "type": "Point", "coordinates": [ 138.913161589800126, 35.12970328794917 ] } },
{ "type": "Feature", "properties": { "P29_001": "22215", "P29_002": "D122210000108", "P29_003": "16004", "P29_004": "静岡県立御殿場高等学校", "P29_005": "静岡県御殿場市御殿場192-1", "P29_006": "2", "P29_007": "0", "P29_008": "00", "P29_009": null }, "geometry": { "type": "Point", "coordinates": [ 138.94010563366362, 35.316869547731578 ] } },
{ "type": "Feature", "properties": { "P29_001": "22215", "P29_002": "D122210000117", "P29_003": "16004", "P29_004": "静岡県立御殿場南高等学校", "P29_005": "静岡県御殿場市新橋1450", "P29_006": "2", "P29_007": "0", "P29_008": "00", "P29_009": null }, "geometry": { "type": "Point", "coordinates": [ 138.936996866051174, 35.294332723648921 ] } },
{ "type": "Feature", "properties": { "P29_001": "22220", "P29_002": "D122210000126", "P29_003": "16004", "P29_004": "静岡県立裾野高等学校", "P29_005": "静岡県裾野市佐野900-1", "P29_006": "2", "P29_007": "0", "P29_008": "00", "P29_009": null }, "geometry": { "type": "Point", "coordinates": [ 138.909229517023476, 35.178993886170566 ] } },
{ "type": "Feature", "properties": { "P29_001": "22203", "P29_002": "D122210000135", "P29_003": "16004", "P29_004": "静岡県立沼津東高等学校", "P29_005": "静岡県沼津市岡宮812", "P29_006": "2", "P29_007": "0", "P29_008": "00", "P29_009": null }, "geometry": { "type": "Point", "coordinates": [ 138.866139532141801, 35.129340033078385 ] } },
{ "type": "Feature", "properties": { "P29_001": "22203", "P29_002": "D122210000144", "P29_003": "16004", "P29_004": "静岡県立沼津西高等学校", "P29_005": "静岡県沼津市本字千本1910-9", "P29_006": "2", "P29_007": "0", "P29_008": "00", "P29_009": null }, "geometry": { "type": "Point", "coordinates": [ 138.847953581251829, 35.095889974809978 ] } },
{ "type": "Feature", "properties": { "P29_001": "22203", "P29_002": "D122210000153", "P29_003": "16004", "P29_004": "静岡県立沼津城北高等学校", "P29_005": "静岡県沼津市岡一色875", "P29_006": "2", "P29_007": "0", "P29_008": "00", "P29_009": null }, "geometry": { "type": "Point", "coordinates": [ 138.876767734839035, 35.124745865498795 ] } },
{ "type": "Feature", "properties": { "P29_001": "22203", "P29_002": "D122210000162", "P29_003": "16004", "P29_004": "静岡県立沼津工業高等学校", "P29_005": "静岡県沼津市下香貫八重129-1", "P29_006": "2", "P29_007": "0", "P29_008": "00", "P29_009": null }, "geometry": { "type": "Point", "coordinates": [ 138.878072955700588, 35.086877160448054 ] } },
{ "type": "Feature", "properties": { "P29_001": "22341", "P29_002": "D122210000171", "P29_003": "16004", "P29_004": "静岡県立沼津商業高等学校", "P29_005": "静岡県駿東郡清水町徳倉1205", "P29_006": "2", "P29_007": "0", "P29_008": "00", "P29_009": null }, "geometry": { "type": "Point", "coordinates": [ 138.890492118511247, 35.084228911288399 ] } },
{ "type": "Feature", "properties": { "P29_001": "22210", "P29_002": "D122210000180", "P29_003": "16004", "P29_004": "静岡県立吉原高等学校", "P29_005": "静岡県富士市今泉2160", "P29_006": "2", "P29_007": "0", "P29_008": "00", "P29_009": null }, "geometry": { "type": "Point", "coordinates": [ 138.687539578582147, 35.170972330768343 ] } },
{ "type": "Feature", "properties": { "P29_001": "22210", "P29_002": "D122210000199", "P29_003": "16004", "P29_004": "静岡県立吉原工業高等学校", "P29_005": "静岡県富士市比奈2300", "P29_006": "2", "P29_007": "0", "P29_008": "00", "P29_009": null }, "geometry": { "type": "Point", "coordinates": [ 138.719639854795673, 35.173386429450147 ] } },
{ "type": "Feature", "properties": { "P29_001": "22210", "P29_002": "D122210000206", "P29_003": "16004", "P29_004": "静岡県立富士高等学校", "P29_005": "静岡県富士市松本17", "P29_006": "2", "P29_007": "0", "P29_008": "00", "P29_009": null }, "geometry": { "type": "Point", "coordinates": [ 138.652508476091242, 35.167054374540832 ] } },
{ "type": "Feature", "properties": { "P29_001": "22207", "P29_002": "D122210000215", "P29_003": "16004", "P29_004": "静岡県立富士宮東高等学校", "P29_005": "静岡県富士宮市小泉1234", "P29_006": "2", "P29_007": "0", "P29_008": "00", "P29_009": null }, "geometry": { "type": "Point", "coordinates": [ 138.629114257403899, 35.225735195355362 ] } },
{ "type": "Feature", "properties": { "P29_001": "22207", "P29_002": "D122210000224", "P29_003": "16004", "P29_004": "静岡県立富士宮北高等学校", "P29_005": "静岡県富士宮市宮北町230", "P29_006": "2", "P29_007": "0", "P29_008": "00", "P29_009": null }, "geometry": { "type": "Point", "coordinates": [ 138.611782035993713, 35.238032506659152 ] } },
{ "type": "Feature", "properties": { "P29_001": "22207", "P29_002": "D122210000233", "P29_003": "16004", "P29_004": "静岡県立富岳館高等学校", "P29_005": "静岡県富士宮市弓沢町732", "P29_006": "2", "P29_007": "0", "P29_008": "00", "P29_009": null }, "geometry": { "type": "Point", "coordinates": [ 138.625131171697916, 35.221442923727828 ] } },
{ "type": "Feature", "properties": { "P29_001": "22210", "P29_002": "D122210000242", "P29_003": "16004", "P29_004": "静岡県立富士東高等学校", "P29_005": "静岡県富士市今泉2921", "P29_006": "2", "P29_007": "0", "P29_008": "00", "P29_009": null }, "geometry": { "type": "Point", "coordinates": [ 138.700422372678361, 35.18035571597305 ] } },
{ "type": "Feature", "properties": { "P29_001": "22225", "P29_002": "D122210000251", "P29_003": "16004", "P29_004": "静岡県立伊豆中央高等学校", "P29_005": "静岡県伊豆の国市寺家970-1", "P29_006": "2", "P29_007": "0", "P29_008": "00", "P29_009": null }, "geometry": { "type": "Point", "coordinates": [ 138.937494895525958, 35.042750132199473 ] } },
{ "type": "Feature", "properties": { "P29_001": "22207", "P29_002": "D122210000260", "P29_003": "16004", "P29_004": "静岡県立富士宮西高等学校", "P29_005": "静岡県富士宮市淀師1550", "P29_006": "2", "P29_007": "0", "P29_008": "00", "P29_009": null }, "geometry": { "type": "Point", "coordinates": [ 138.606281832466834, 35.246509530739004 ] } },
{ "type": "Feature", "properties": { "P29_001": "22206", "P29_002": "D122210000288", "P29_003": "16004", "P29_004": "静岡県立三島長陵高等学校", "P29_005": "静岡県三島市文教町1-3-93", "P29_006": "2", "P29_007": "0", "P29_008": "00", "P29_009": null }, "geometry": { "type": "Point", "coordinates": [ 138.911541038565105, 35.128783483785654 ] } },
{ "type": "Feature", "properties": { "P29_001": "22344", "P29_002": "D122210000297", "P29_003": "16004", "P29_004": "静岡県立小山高等学校", "P29_005": "静岡県駿東郡小山町竹之下369", "P29_006": "2", "P29_007": "0", "P29_008": "00", "P29_009": null }, "geometry": { "type": "Point", "coordinates": [ 138.975697150251278, 35.328917815172957 ] } },
{ "type": "Feature", "properties": { "P29_001": "22219", "P29_002": "D122210000304", "P29_003": "16004", "P29_004": "静岡県立下田高等学校", "P29_005": "静岡県下田市蓮台寺152", "P29_006": "2", "P29_007": "0", "P29_008": "00", "P29_009": null }, "geometry": { "type": "Point", "coordinates": [ 138.93474166918071, 34.698083629438557 ] } },
{ "type": "Feature", "properties": { "P29_001": "22304", "P29_002": "D122210000313", "P29_003": "16004", "P29_004": "静岡県立下田高等学校南伊豆分校", "P29_005": "静岡県賀茂郡南伊豆町石井58", "P29_006": "2", "P29_007": "0", "P29_008": "00", "P29_009": null }, "geometry": { "type": "Point", "coordinates": [ 138.859048578484277, 34.657765195705736 ] } },
{ "type": "Feature", "properties": { "P29_001": "22222", "P29_002": "D122210000322", "P29_003": "16004", "P29_004": "静岡県立伊豆総合高等学校", "P29_005": "静岡県伊豆市牧之郷892", "P29_006": "2", "P29_007": "0", "P29_008": "00", "P29_009": null }, "geometry": { "type": "Point", "coordinates": [ 138.956741230602574, 34.982407359094253 ] } },
{ "type": "Feature", "properties": { "P29_001": "22103", "P29_002": "D122210000331", "P29_003": "16004", "P29_004": "静岡県立清水東高等学校", "P29_005": "静岡県静岡市清水区秋吉町5-10", "P29_006": "2", "P29_007": "0", "P29_008": "00", "P29_009": null }, "geometry": { "type": "Point", "coordinates": [ 138.479594138905128, 35.029337109092971 ] } },
{ "type": "Feature", "properties": { "P29_001": "22103", "P29_002": "D122210000340", "P29_003": "16004", "P29_004": "静岡県立清水西高等学校", "P29_005": "静岡県静岡市清水区青葉町5-1", "P29_006": "2", "P29_007": "0", "P29_008": "00", "P29_009": null }, "geometry": { "type": "Point", "coordinates": [ 138.474806003907077, 35.007792914948624 ] } },
{ "type": "Feature", "properties": { "P29_001": "22103", "P29_002": "D122210000359", "P29_003": "16004", "P29_004": "静岡県立清水南高等学校", "P29_005": "静岡県静岡市清水区折戸3-2-1", "P29_006": "2", "P29_007": "0", "P29_008": "00", "P29_009": null }, "geometry": { "type": "Point", "coordinates": [ 138.510722353052728, 34.984134658395803 ] } },
{ "type": "Feature", "properties": { "P29_001": "22101", "P29_002": "D122210000368", "P29_003": "16004", "P29_004": "静岡県立静岡高等学校", "P29_005": "静岡県静岡市葵区長谷町66", "P29_006": "2", "P29_007": "0", "P29_008": "00", "P29_009": null }, "geometry": { "type": "Point", "coordinates": [ 138.380470813362507, 34.985279121788523 ] } },
{ "type": "Feature", "properties": { "P29_001": "22101", "P29_002": "D122210000377", "P29_003": "16004", "P29_004": "静岡県立静岡城北高等学校", "P29_005": "静岡県静岡市葵区北安東2-3-1", "P29_006": "2", "P29_007": "0", "P29_008": "00", "P29_009": null }, "geometry": { "type": "Point", "coordinates": [ 138.385007411786603, 34.994803523535865 ] } },
{ "type": "Feature", "properties": { "P29_001": "22101", "P29_002": "D122210000386", "P29_003": "16004", "P29_004": "静岡県立静岡東高等学校", "P29_005": "静岡県静岡市葵区川合3-24-1", "P29_006": "2", "P29_007": "0", "P29_008": "00", "P29_009": null }, "geometry": { "type": "Point", "coordinates": [ 138.41307800256277, 35.009642575896045 ] } },
{ "type": "Feature", "properties": { "P29_001": "22101", "P29_002": "D122210000395", "P29_003": "16004", "P29_004": "静岡県立静岡農業高等学校", "P29_005": "静岡県静岡市葵区古庄3-1-1", "P29_006": "2", "P29_007": "0", "P29_008": "00", "P29_009": null }, "geometry": { "type": "Point", "coordinates": [ 138.416472911874735, 34.994449483777849 ] } },
{ "type": "Feature", "properties": { "P29_001": "22101", "P29_002": "D122210000402", "P29_003": "16004", "P29_004": "静岡県立静岡商業高等学校", "P29_005": "静岡県静岡市葵区田町7-90", "P29_006": "2", "P29_007": "0", "P29_008": "00", "P29_009": null }, "geometry": { "type": "Point", "coordinates": [ 138.367817720460891, 34.964528284440519 ] } },
{ "type": "Feature", "properties": { "P29_001": "22212", "P29_002": "D122210000411", "P29_003": "16004", "P29_004": "静岡県立焼津中央高等学校", "P29_005": "静岡県焼津市小土157-1", "P29_006": "2", "P29_007": "0", "P29_008": "00", "P29_009": null }, "geometry": { "type": "Point", "coordinates": [ 138.289813959642458, 34.867830237577714 ] } },
{ "type": "Feature", "properties": { "P29_001": "22212", "P29_002": "D122210000420", "P29_003": "16004", "P29_004": "静岡県立焼津水産高等学校", "P29_005": "静岡県焼津市焼津5-5-2", "P29_006": "2", "P29_007": "0", "P29_008": "00", "P29_009": null }, "geometry": { "type": "Point", "coordinates": [ 138.317539097631709, 34.860196507760207 ] } },
{ "type": "Feature", "properties": { "P29_001": "22214", "P29_002": "D122210000439", "P29_003": "16004", "P29_004": "静岡県立藤枝東高等学校", "P29_005": "静岡県藤枝市天王町1-7-1", "P29_006": "2", "P29_007": "0", "P29_008": "00", "P29_009": null }, "geometry": { "type": "Point", "coordinates": [ 138.261816005766434, 34.87719300171419 ] } },
{ "type": "Feature", "properties": { "P29_001": "22214", "P29_002": "D122210000448", "P29_003": "16004", "P29_004": "静岡県立藤枝西高等学校", "P29_005": "静岡県藤枝市城南2-4-6", "P29_006": "2", "P29_007": "0", "P29_008": "00", "P29_009": null }, "geometry": { "type": "Point", "coordinates": [ 138.271222479155824, 34.867263921413318 ] } },
{ "type": "Feature", "properties": { "P29_001": "22214", "P29_002": "D122210000457", "P29_003": "16004", "P29_004": "静岡県立藤枝北高等学校", "P29_005": "静岡県藤枝市郡970", "P29_006": "2", "P29_007": "0", "P29_008": "00", "P29_009": null }, "geometry": { "type": "Point", "coordinates": [ 138.271176004919937, 34.876443999366181 ] } },
{ "type": "Feature", "properties": { "P29_001": "22209", "P29_002": "D122210000466", "P29_003": "16004", "P29_004": "静岡県立島田高等学校", "P29_005": "静岡県島田市稲荷1-7-1", "P29_006": "2", "P29_007": "0", "P29_008": "00", "P29_009": null }, "geometry": { "type": "Point", "coordinates": [ 138.1500444931429, 34.837144016760789 ] } },
{ "type": "Feature", "properties": { "P29_001": "22209", "P29_002": "D122210000475", "P29_003": "16004", "P29_004": "静岡県立島田工業高等学校", "P29_005": "静岡県島田市阿知ヶ谷201", "P29_006": "2", "P29_007": "0", "P29_008": "00", "P29_009": null }, "geometry": { "type": "Point", "coordinates": [ 138.201889336621832, 34.839347972738778 ] } },
{ "type": "Feature", "properties": { "P29_001": "22209", "P29_002": "D122210000484", "P29_003": "16004", "P29_004": "静岡県立島田商業高等学校", "P29_005": "静岡県島田市祇園町8707", "P29_006": "2", "P29_007": "0", "P29_008": "00", "P29_009": null }, "geometry": { "type": "Point", "coordinates": [ 138.183308978869633, 34.834729775111995 ] } },
{ "type": "Feature", "properties": { "P29_001": "22209", "P29_002": "D122210000493", "P29_003": "16004", "P29_004": "静岡県立金谷高等学校", "P29_005": "静岡県島田市金谷根岸町35", "P29_006": "2", "P29_007": "0", "P29_008": "00", "P29_009": null }, "geometry": { "type": "Point", "coordinates": [ 138.126732525465258, 34.827093518330805 ] } },
{ "type": "Feature", "properties": { "P29_001": "22429", "P29_002": "D122210000509", "P29_003": "16004", "P29_004": "静岡県立川根高等学校", "P29_005": "静岡県榛原郡川根本町徳山1644-1", "P29_006": "2", "P29_007": "0", "P29_008": "00", "P29_009": null }, "geometry": { "type": "Point", "coordinates": [ 138.114195790785914, 35.075354369447474 ] } },
{ "type": "Feature", "properties": { "P29_001": "22226", "P29_002": "D122210000518", "P29_003": "16004", "P29_004": "静岡県立榛原高等学校", "P29_005": "静岡県牧之原市静波850", "P29_006": "2", "P29_007": "0", "P29_008": "00", "P29_009": null }, "geometry": { "type": "Point", "coordinates": [ 138.223250150987155, 34.739654342189368 ] } },
{ "type": "Feature", "properties": { "P29_001": "22226", "P29_002": "D122210000527", "P29_003": "16004", "P29_004": "静岡県立相良高等学校", "P29_005": "静岡県牧之原市波津1700-3", "P29_006": "2", "P29_007": "0", "P29_008": "00", "P29_009": null }, "geometry": { "type": "Point", "coordinates": [ 138.196277262009886, 34.68516444578605 ] } },
{ "type": "Feature", "properties": { "P29_001": "22213", "P29_002": "D122210000536", "P29_003": "16004", "P29_004": "静岡県立掛川東高等学校", "P29_005": "静岡県掛川市南西郷1357", "P29_006": "2", "P29_007": "0", "P29_008": "00", "P29_009": null }, "geometry": { "type": "Point", "coordinates": [ 138.005604236886512, 34.759128144486759 ] } },
{ "type": "Feature", "properties": { "P29_001": "22213", "P29_002": "D122210000545", "P29_003": "16004", "P29_004": "静岡県立掛川西高等学校", "P29_005": "静岡県掛川市城西1-1-6", "P29_006": "2", "P29_007": "0", "P29_008": "00", "P29_009": null }, "geometry": { "type": "Point", "coordinates": [ 138.012732677936981, 34.775222868980869 ] } },
{ "type": "Feature", "properties": { "P29_001": "22213", "P29_002": "D122210000554", "P29_003": "16004", "P29_004": "静岡県立掛川工業高等学校", "P29_005": "静岡県掛川市葵町15-1", "P29_006": "2", "P29_007": "0", "P29_008": "00", "P29_009": null }, "geometry": { "type": "Point", "coordinates": [ 138.028480056805932, 34.77017569687839 ] } },
{ "type": "Feature", "properties": { "P29_001": "22224", "P29_002": "D122210000563", "P29_003": "16004", "P29_004": "静岡県立小笠高等学校", "P29_005": "静岡県菊川市東横地1222-3", "P29_006": "2", "P29_007": "0", "P29_008": "00", "P29_009": null }, "geometry": { "type": "Point", "coordinates": [ 138.094221533291147, 34.733941239574115 ] } },
{ "type": "Feature", "properties": { "P29_001": "22223", "P29_002": "D122210000572", "P29_003": "16004", "P29_004": "静岡県立池新田高等学校", "P29_005": "静岡県御前崎市池新田2907-1", "P29_006": "2", "P29_007": "0", "P29_008": "00", "P29_009": null }, "geometry": { "type": "Point", "coordinates": [ 138.127846602043888, 34.651356618329451 ] } },
{ "type": "Feature", "properties": { "P29_001": "22213", "P29_002": "D122210000581", "P29_003": "16004", "P29_004": "静岡県立横須賀高等学校", "P29_005": "静岡県掛川市横須賀1491-1", "P29_006": "2", "P29_007": "0", "P29_008": "00", "P29_009": null }, "geometry": { "type": "Point", "coordinates": [ 137.98241116038804, 34.682859845011194 ] } },
{ "type": "Feature", "properties": { "P29_001": "22101", "P29_002": "D122210000590", "P29_003": "16004", "P29_004": "静岡県立静岡西高等学校", "P29_005": "静岡県静岡市葵区牧ケ谷680-1", "P29_006": "2", "P29_007": "0", "P29_008": "00", "P29_009": null }, "geometry": { "type": "Point", "coordinates": [ 138.350547659612033, 34.971433868404723 ] } },
{ "type": "Feature", "properties": { "P29_001": "22101", "P29_002": "D122210000607", "P29_003": "16004", "P29_004": "静岡県立静岡中央高等学校", "P29_005": "静岡県静岡市葵区城北2-29-1", "P29_006": "2", "P29_007": "0", "P29_008": "00", "P29_009": null }, "geometry": { "type": "Point", "coordinates": [ 138.393079448310573, 35.005206330426915 ] } },
{ "type": "Feature", "properties": { "P29_001": "22101", "P29_002": "D122210000616", "P29_003": "16004", "P29_004": "静岡県立科学技術高等学校", "P29_005": "静岡県静岡市葵区長沼500-1", "P29_006": "2", "P29_007": "0", "P29_008": "00", "P29_009": null }, "geometry": { "type": "Point", "coordinates": [ 138.410454060715523, 34.988871504878603 ] } },
{ "type": "Feature", "properties": { "P29_001": "22216", "P29_002": "D122210000625", "P29_003": "16004", "P29_004": "静岡県立袋井商業高等学校", "P29_005": "静岡県袋井市久能2350", "P29_006": "2", "P29_007": "0", "P29_008": "00", "P29_009": null }, "geometry": { "type": "Point", "coordinates": [ 137.915845640374556, 34.766958209202734 ] } },
{ "type": "Feature", "properties": { "P29_001": "22211", "P29_002": "D122210000634", "P29_003": "16004", "P29_004": "静岡県立磐田南高等学校", "P29_005": "静岡県磐田市見付3084", "P29_006": "2", "P29_007": "0", "P29_008": "00", "P29_009": null }, "geometry": { "type": "Point", "coordinates": [ 137.851116631616065, 34.721042316532149 ] } },
{ "type": "Feature", "properties": { "P29_001": "22211", "P29_002": "D122210000643", "P29_003": "16004", "P29_004": "静岡県立磐田北高等学校", "P29_005": "静岡県磐田市見付2031-2", "P29_006": "2", "P29_007": "0", "P29_008": "00", "P29_009": null }, "geometry": { "type": "Point", "coordinates": [ 137.855872860488034, 34.732387950839481 ] } },
{ "type": "Feature", "properties": { "P29_001": "22211", "P29_002": "D122210000652", "P29_003": "16004", "P29_004": "静岡県立磐田農業高等学校", "P29_005": "静岡県磐田市中泉168", "P29_006": "2", "P29_007": "0", "P29_008": "00", "P29_009": null }, "geometry": { "type": "Point", "coordinates": [ 137.854240088956061, 34.715756208159256 ] } },
{ "type": "Feature", "properties": { "P29_001": "22211", "P29_002": "D122210000661", "P29_003": "16004", "P29_004": "静岡県立磐田西高等学校", "P29_005": "静岡県磐田市中泉2680-1", "P29_006": "2", "P29_007": "0", "P29_008": "00", "P29_009": null }, "geometry": { "type": "Point", "coordinates": [ 137.841536763323717, 34.717886086357481 ] } },
{ "type": "Feature", "properties": { "P29_001": "22131", "P29_002": "D122210000670", "P29_003": "16004", "P29_004": "静岡県立浜松北高等学校", "P29_005": "静岡県浜松市中区広沢1-30-1", "P29_006": "2", "P29_007": "0", "P29_008": "00", "P29_009": null }, "geometry": { "type": "Point", "coordinates": [ 137.71687554876172, 34.718368808174617 ] } },
{ "type": "Feature", "properties": { "P29_001": "22131", "P29_002": "D122210000689", "P29_003": "16004", "P29_004": "静岡県立浜松西高等学校", "P29_005": "静岡県浜松市中区西伊場町3-1", "P29_006": "2", "P29_007": "0", "P29_008": "00", "P29_009": null }, "geometry": { "type": "Point", "coordinates": [ 137.709682487484685, 34.701319506427495 ] } },
{ "type": "Feature", "properties": { "P29_001": "22134", "P29_002": "D122210000698", "P29_003": "16004", "P29_004": "静岡県立浜松南高等学校", "P29_005": "静岡県浜松市南区米津町961", "P29_006": "2", "P29_007": "0", "P29_008": "00", "P29_009": null }, "geometry": { "type": "Point", "coordinates": [ 137.717650736503884, 34.677552477451584 ] } },
{ "type": "Feature", "properties": { "P29_001": "22133", "P29_002": "D122210000705", "P29_003": "16004", "P29_004": "静岡県立浜松湖東高等学校", "P29_005": "静岡県浜松市西区大人見町3600", "P29_006": "2", "P29_007": "0", "P29_008": "00", "P29_009": null }, "geometry": { "type": "Point", "coordinates": [ 137.660690341141844, 34.732805469093577 ] } },
{ "type": "Feature", "properties": { "P29_001": "22135", "P29_002": "D122210000714", "P29_003": "16004", "P29_004": "静岡県立浜松工業高等学校", "P29_005": "静岡県浜松市北区初生町1150", "P29_006": "2", "P29_007": "0", "P29_008": "00", "P29_009": null }, "geometry": { "type": "Point", "coordinates": [ 137.730342362599856, 34.773041770586772 ] } },
{ "type": "Feature", "properties": { "P29_001": "22131", "P29_002": "D122210000723", "P29_003": "16004", "P29_004": "静岡県立浜松城北工業高等学校", "P29_005": "静岡県浜松市中区住吉5-16-1", "P29_006": "2", "P29_007": "0", "P29_008": "00", "P29_009": null }, "geometry": { "type": "Point", "coordinates": [ 137.72704989578304, 34.736340269719996 ] } },
{ "type": "Feature", "properties": { "P29_001": "22131", "P29_002": "D122210000732", "P29_003": "16004", "P29_004": "静岡県立浜松商業高等学校", "P29_005": "静岡県浜松市中区文丘町4-11", "P29_006": "2", "P29_007": "0", "P29_008": "00", "P29_009": null }, "geometry": { "type": "Point", "coordinates": [ 137.712032861874349, 34.723593407078312 ] } },
{ "type": "Feature", "properties": { "P29_001": "22136", "P29_002": "D122210000741", "P29_003": "16004", "P29_004": "静岡県立浜名高等学校", "P29_005": "静岡県浜松市浜北区西美薗2939-1", "P29_006": "2", "P29_007": "0", "P29_008": "00", "P29_009": null }, "geometry": { "type": "Point", "coordinates": [ 137.795704525934582, 34.805625653042746 ] } },
{ "type": "Feature", "properties": { "P29_001": "22221", "P29_002": "D122210000750", "P29_003": "16004", "P29_004": "静岡県立新居高等学校", "P29_005": "静岡県湖西市新居町内山2036", "P29_006": "2", "P29_007": "0", "P29_008": "00", "P29_009": null }, "geometry": { "type": "Point", "coordinates": [ 137.570386824651905, 34.690974711363445 ] } },
{ "type": "Feature", "properties": { "P29_001": "22132", "P29_002": "D122210000769", "P29_003": "16004", "P29_004": "静岡県立浜松東高等学校", "P29_005": "静岡県浜松市東区笠井新田町1442", "P29_006": "2", "P29_007": "0", "P29_008": "00", "P29_009": null }, "geometry": { "type": "Point", "coordinates": [ 137.782501883647967, 34.755651223021815 ] } },
{ "type": "Feature", "properties": { "P29_001": "22216", "P29_002": "D122210000778", "P29_003": "16004", "P29_004": "静岡県立袋井高等学校", "P29_005": "静岡県袋井市愛野2446-1", "P29_006": "2", "P29_007": "0", "P29_008": "00", "P29_009": null }, "geometry": { "type": "Point", "coordinates": [ 137.944929807210912, 34.741214857024488 ] } },
{ "type": "Feature", "properties": { "P29_001": "22136", "P29_002": "D122210000787", "P29_003": "16004", "P29_004": "静岡県立浜北西高等学校", "P29_005": "静岡県浜松市浜北区新原4175-1", "P29_006": "2", "P29_007": "0", "P29_008": "00", "P29_009": null }, "geometry": { "type": "Point", "coordinates": [ 137.7647297572328, 34.808358412949296 ] } },
{ "type": "Feature", "properties": { "P29_001": "22221", "P29_002": "D122210000796", "P29_003": "16004", "P29_004": "静岡県立湖西高等学校", "P29_005": "静岡県湖西市鷲津1510-2", "P29_006": "2", "P29_007": "0", "P29_008": "00", "P29_009": null }, "geometry": { "type": "Point", "coordinates": [ 137.549336026049815, 34.721968556832678 ] } },
{ "type": "Feature", "properties": { "P29_001": "22133", "P29_002": "D122210000803", "P29_003": "16004", "P29_004": "静岡県立浜松湖南高等学校", "P29_005": "静岡県浜松市西区馬郡町3791-1", "P29_006": "2", "P29_007": "0", "P29_008": "00", "P29_009": null }, "geometry": { "type": "Point", "coordinates": [ 137.626663067693841, 34.692196112807096 ] } },
{ "type": "Feature", "properties": { "P29_001": "22134", "P29_002": "D122210000812", "P29_003": "16004", "P29_004": "静岡県立浜松江之島高等学校", "P29_005": "静岡県浜松市南区江之島町630-1", "P29_006": "2", "P29_007": "0", "P29_008": "00", "P29_009": null }, "geometry": { "type": "Point", "coordinates": [ 137.753494268554533, 34.665784519417087 ] } },
{ "type": "Feature", "properties": { "P29_001": "22133", "P29_002": "D122210000821", "P29_003": "16004", "P29_004": "静岡県立浜松大平台高等学校", "P29_005": "静岡県浜松市西区大平台4-25-1", "P29_006": "2", "P29_007": "0", "P29_008": "00", "P29_009": null }, "geometry": { "type": "Point", "coordinates": [ 137.674880238691003, 34.710338893122682 ] } },
{ "type": "Feature", "properties": { "P29_001": "22461", "P29_002": "D122210000830", "P29_003": "16004", "P29_004": "静岡県立遠江総合高等学校", "P29_005": "静岡県周智郡森町森2085", "P29_006": "2", "P29_007": "0", "P29_008": "00", "P29_009": null }, "geometry": { "type": "Point", "coordinates": [ 137.925860794581098, 34.835888726857945 ] } },
{ "type": "Feature", "properties": { "P29_001": "22102", "P29_002": "D122210000849", "P29_003": "16004", "P29_004": "静岡県立駿河総合高等学校", "P29_005": "静岡県静岡市駿河区有東3-4-17", "P29_006": "2", "P29_007": "0", "P29_008": "00", "P29_009": null }, "geometry": { "type": "Point", "coordinates": [ 138.410348912079797, 34.963488944849722 ] } },
{ "type": "Feature", "properties": { "P29_001": "22212", "P29_002": "D122210000858", "P29_003": "16004", "P29_004": "静岡県立清流館高等学校", "P29_005": "静岡県焼津市上新田292-1", "P29_006": "2", "P29_007": "0", "P29_008": "00", "P29_009": null }, "geometry": { "type": "Point", "coordinates": [ 138.275041852728663, 34.820876812460504 ] } },
{ "type": "Feature", "properties": { "P29_001": "22137", "P29_002": "D122210000867", "P29_003": "16004", "P29_004": "静岡県立天竜高等学校", "P29_005": "静岡県浜松市天竜区二俣町二俣601", "P29_006": "2", "P29_007": "0", "P29_008": "00", "P29_009": null }, "geometry": { "type": "Point", "coordinates": [ 137.812831858288433, 34.869621362913641 ] } },
{ "type": "Feature", "properties": { "P29_001": "22137", "P29_002": "D122210000876", "P29_003": "16004", "P29_004": "静岡県立天竜高等学校春野校舎", "P29_005": "静岡県浜松市天竜区春野町堀之内284", "P29_006": "2", "P29_007": "0", "P29_008": "00", "P29_009": null }, "geometry": { "type": "Point", "coordinates": [ 137.888739997969765, 34.958677001690937 ] } },
{ "type": "Feature", "properties": { "P29_001": "22135", "P29_002": "D122210000885", "P29_003": "16004", "P29_004": "静岡県立浜松湖北高等学校", "P29_005": "静岡県浜松市北区引佐町金指1428", "P29_006": "2", "P29_007": "0", "P29_008": "00", "P29_009": null }, "geometry": { "type": "Point", "coordinates": [ 137.677981588325935, 34.818194572351878 ] } },
{ "type": "Feature", "properties": { "P29_001": "22222", "P29_002": "D122210000894", "P29_003": "16004", "P29_004": "静岡県立伊豆総合高等学校土肥分校", "P29_005": "静岡県伊豆市土肥870-1", "P29_006": "2", "P29_007": "0", "P29_008": "00", "P29_009": null }, "geometry": { "type": "Point", "coordinates": [ 138.797197124191143, 34.907807315933091 ] } },
{ "type": "Feature", "properties": { "P29_001": "22137", "P29_002": "D122210000901", "P29_003": "16004", "P29_004": "静岡県立浜松湖北高等学校佐久間分校", "P29_005": "静岡県浜松市天竜区佐久間町中部683-1", "P29_006": "2", "P29_007": "0", "P29_008": "00", "P29_009": null }, "geometry": { "type": "Point", "coordinates": [ 137.795741518419959, 35.079401364032009 ] } },
{ "type": "Feature", "properties": { "P29_001": "22203", "P29_002": "D122210000910", "P29_003": "16004", "P29_004": "沼津市立沼津高等学校", "P29_005": "静岡県沼津市三枚橋字鐘突免673", "P29_006": "3", "P29_007": "0", "P29_008": "00", "P29_009": null }, "geometry": { "type": "Point", "coordinates": [ 138.867028789098981, 35.112087512282166 ] } },
{ "type": "Feature", "properties": { "P29_001": "22210", "P29_002": "D122210000929", "P29_003": "16004", "P29_004": "富士市立高等学校", "P29_005": "静岡県富士市比奈1654", "P29_006": "3", "P29_007": "0", "P29_008": "00", "P29_009": null }, "geometry": { "type": "Point", "coordinates": [ 138.725547211767491, 35.167591078836814 ] } },
{ "type": "Feature", "properties": { "P29_001": "22101", "P29_002": "D122210000938", "P29_003": "16004", "P29_004": "静岡市立高等学校", "P29_005": "静岡県静岡市葵区千代田3-1-1", "P29_006": "3", "P29_007": "0", "P29_008": "00", "P29_009": null }, "geometry": { "type": "Point", "coordinates": [ 138.398858133726719, 34.993209301288935 ] } },
{ "type": "Feature", "properties": { "P29_001": "22131", "P29_002": "D122210000947", "P29_003": "16004", "P29_004": "浜松市立高等学校", "P29_005": "静岡県浜松市中区広沢1-21-1", "P29_006": "3", "P29_007": "0", "P29_008": "00", "P29_009": null }, "geometry": { "type": "Point", "coordinates": [ 137.71816230512502, 34.716435943211053 ] } },
{ "type": "Feature", "properties": { "P29_001": "22103", "P29_002": "D122210000956", "P29_003": "16004", "P29_004": "静岡市立清水桜が丘高等学校", "P29_005": "静岡県静岡市清水区桜が丘町7-15", "P29_006": "3", "P29_007": "0", "P29_008": "00", "P29_009": null }, "geometry": { "type": "Point", "coordinates": [ 138.478172902915674, 35.01134996810891 ] } },
{ "type": "Feature", "properties": { "P29_001": "22208", "P29_002": "D122210000965", "P29_003": "16004", "P29_004": "静岡県立伊豆伊東高等学校", "P29_005": "静岡県伊東市吉田748-1", "P29_006": "2", "P29_007": "0", "P29_008": "00", "P29_009": null }, "geometry": { "type": "Point", "coordinates": [ 139.116724373986813, 34.944625573082533 ] } },
{ "type": "Feature", "properties": { "P29_001": "22342", "P29_002": "D122310000017", "P29_003": "16004", "P29_004": "知徳高等学校", "P29_005": "静岡県駿東郡長泉町竹原354", "P29_006": "4", "P29_007": "0", "P29_008": "00", "P29_009": null }, "geometry": { "type": "Point", "coordinates": [ 138.900516933030161, 35.119315967803573 ] } },
{ "type": "Feature", "properties": { "P29_001": "22220", "P29_002": "D122310000026", "P29_003": "16004", "P29_004": "不二聖心女子学院高等学校", "P29_005": "静岡県裾野市桃園198", "P29_006": "4", "P29_007": "0", "P29_008": "00", "P29_009": null }, "geometry": { "type": "Point", "coordinates": [ 138.894063764420935, 35.180556205220505 ] } },
{ "type": "Feature", "properties": { "P29_001": "22206", "P29_002": "D122310000035", "P29_003": "16004", "P29_004": "日本大学三島高等学校", "P29_005": "静岡県三島市文教町2-31-145", "P29_006": "4", "P29_007": "0", "P29_008": "00", "P29_009": null }, "geometry": { "type": "Point", "coordinates": [ 138.913491406480489, 35.133576664190777 ] } },
{ "type": "Feature", "properties": { "P29_001": "22203", "P29_002": "D122310000044", "P29_003": "16004", "P29_004": "沼津中央高等学校", "P29_005": "静岡県沼津市杉崎町11-20", "P29_006": "4", "P29_007": "0", "P29_008": "00", "P29_009": null }, "geometry": { "type": "Point", "coordinates": [ 138.866342537811022, 35.1073411102373 ] } },
{ "type": "Feature", "properties": { "P29_001": "22203", "P29_002": "D122310000053", "P29_003": "16004", "P29_004": "飛龍高等学校", "P29_005": "静岡県沼津市東熊堂491", "P29_006": "4", "P29_007": "0", "P29_008": "00", "P29_009": null }, "geometry": { "type": "Point", "coordinates": [ 138.867327673892021, 35.116549807645178 ] } },
{ "type": "Feature", "properties": { "P29_001": "22203", "P29_002": "D122310000062", "P29_003": "16004", "P29_004": "加藤学園高等学校", "P29_005": "静岡県沼津市大岡自由ヶ丘1979", "P29_006": "4", "P29_007": "0", "P29_008": "00", "P29_009": null }, "geometry": { "type": "Point", "coordinates": [ 138.868930603164472, 35.115861277654474 ] } },
{ "type": "Feature", "properties": { "P29_001": "22203", "P29_002": "D122310000071", "P29_003": "16004", "P29_004": "誠恵高等学校", "P29_005": "静岡県沼津市沼北町2-9-12", "P29_006": "4", "P29_007": "0", "P29_008": "00", "P29_009": null }, "geometry": { "type": "Point", "coordinates": [ 138.852830202844785, 35.113100982645733 ] } },
{ "type": "Feature", "properties": { "P29_001": "22215", "P29_002": "D122310000080", "P29_003": "16004", "P29_004": "御殿場西高等学校", "P29_005": "静岡県御殿場市ぐみ沢644-1", "P29_006": "4", "P29_007": "0", "P29_008": "00", "P29_009": null }, "geometry": { "type": "Point", "coordinates": [ 138.914237839724535, 35.313680058550567 ] } },
{ "type": "Feature", "properties": { "P29_001": "22210", "P29_002": "D122310000099", "P29_003": "16004", "P29_004": "静岡県富士見高等学校", "P29_005": "静岡県富士市平垣町1-1", "P29_006": "4", "P29_007": "0", "P29_008": "00", "P29_009": null }, "geometry": { "type": "Point", "coordinates": [ 138.646502766675184, 35.155527892357718 ] } },
{ "type": "Feature", "properties": { "P29_001": "22207", "P29_002": "D122310000106", "P29_003": "16004", "P29_004": "星陵高等学校", "P29_005": "静岡県富士宮市星山1068", "P29_006": "4", "P29_007": "0", "P29_008": "00", "P29_009": null }, "geometry": { "type": "Point", "coordinates": [ 138.616764917887991, 35.201923827302927 ] } },
{ "type": "Feature", "properties": { "P29_001": "22203", "P29_002": "D122310000115", "P29_003": "16004", "P29_004": "桐陽高等学校", "P29_005": "静岡県沼津市高島本町8-52", "P29_006": "4", "P29_007": "0", "P29_008": "00", "P29_009": null }, "geometry": { "type": "Point", "coordinates": [ 138.857763062401602, 35.110699658414816 ] } },
{ "type": "Feature", "properties": { "P29_001": "22203", "P29_002": "D122310000124", "P29_003": "16004", "P29_004": "加藤学園暁秀高等学校", "P29_005": "静岡県沼津市岡宮字中見代1361-1", "P29_006": "4", "P29_007": "0", "P29_008": "00", "P29_009": null }, "geometry": { "type": "Point", "coordinates": [ 138.86449297730158, 35.134746171719236 ] } },
{ "type": "Feature", "properties": { "P29_001": "22224", "P29_002": "D122310000133", "P29_003": "16004", "P29_004": "菊川南陵高等学校", "P29_005": "静岡県菊川市河東5442-5", "P29_006": "4", "P29_007": "0", "P29_008": "00", "P29_009": null }, "geometry": { "type": "Point", "coordinates": [ 138.101745471972436, 34.670165813381338 ] } },
{ "type": "Feature", "properties": { "P29_001": "22103", "P29_002": "D122310000142", "P29_003": "16004", "P29_004": "清水国際高等学校", "P29_005": "静岡県静岡市清水区天神1-4-1", "P29_006": "4", "P29_007": "0", "P29_008": "00", "P29_009": null }, "geometry": { "type": "Point", "coordinates": [ 138.480653499403701, 35.025297693067039 ] } },
{ "type": "Feature", "properties": { "P29_001": "22103", "P29_002": "D122310000151", "P29_003": "16004", "P29_004": "静岡サレジオ高等学校", "P29_005": "静岡県静岡市清水区中之郷3-2-1", "P29_006": "4", "P29_007": "0", "P29_008": "00", "P29_009": null }, "geometry": { "type": "Point", "coordinates": [ 138.439008000764318, 35.002426542662569 ] } },
{ "type": "Feature", "properties": { "P29_001": "22103", "P29_002": "D122310000160", "P29_003": "16004", "P29_004": "東海大学付属静岡翔洋高等学校", "P29_005": "静岡県静岡市清水区折戸3-20-1", "P29_006": "4", "P29_007": "0", "P29_008": "00", "P29_009": null }, "geometry": { "type": "Point", "coordinates": [ 138.514715210233533, 34.988267626317494 ] } },
{ "type": "Feature", "properties": { "P29_001": "22214", "P29_002": "D122310000179", "P29_003": "16004", "P29_004": "静清高等学校", "P29_005": "静岡県藤枝市潮87", "P29_006": "4", "P29_007": "0", "P29_008": "00", "P29_009": null }, "geometry": { "type": "Point", "coordinates": [ 138.276859021268308, 34.894889423879654 ] } },
{ "type": "Feature", "properties": { "P29_001": "22101", "P29_002": "D122310000188", "P29_003": "16004", "P29_004": "静岡大成高等学校", "P29_005": "静岡県静岡市葵区鷹匠2-4-18", "P29_006": "4", "P29_007": "0", "P29_008": "00", "P29_009": null }, "geometry": { "type": "Point", "coordinates": [ 138.388750105815262, 34.978162162695014 ] } },
{ "type": "Feature", "properties": { "P29_001": "22101", "P29_002": "D122310000197", "P29_003": "16004", "P29_004": "静岡英和女学院高等学校", "P29_005": "静岡県静岡市葵区西草深町8-1", "P29_006": "4", "P29_007": "0", "P29_008": "00", "P29_009": null }, "geometry": { "type": "Point", "coordinates": [ 138.379429466566108, 34.981842279340334 ] } },
{ "type": "Feature", "properties": { "P29_001": "22101", "P29_002": "D122310000204", "P29_003": "16004", "P29_004": "静岡雙葉高等学校", "P29_005": "静岡県静岡市葵区追手町10-71", "P29_006": "4", "P29_007": "0", "P29_008": "00", "P29_009": null }, "geometry": { "type": "Point", "coordinates": [ 138.38055434382315, 34.980701359362179 ] } },
{ "type": "Feature", "properties": { "P29_001": "22102", "P29_002": "D122310000213", "P29_003": "16004", "P29_004": "城南静岡高等学校", "P29_005": "静岡県静岡市駿河区南八幡町1-1", "P29_006": "4", "P29_007": "0", "P29_008": "00", "P29_009": null }, "geometry": { "type": "Point", "coordinates": [ 138.400366699647691, 34.9633639642446 ] } },
{ "type": "Feature", "properties": { "P29_001": "22102", "P29_002": "D122310000222", "P29_003": "16004", "P29_004": "静岡女子高等学校", "P29_005": "静岡県静岡市駿河区八幡3-6-1", "P29_006": "4", "P29_007": "0", "P29_008": "00", "P29_009": null }, "geometry": { "type": "Point", "coordinates": [ 138.396142836072158, 34.969732139094276 ] } },
{ "type": "Feature", "properties": { "P29_001": "22101", "P29_002": "D122310000231", "P29_003": "16004", "P29_004": "常葉大学附属常葉高等学校", "P29_005": "静岡県静岡市葵区水落町1-30", "P29_006": "4", "P29_007": "0", "P29_008": "00", "P29_009": null }, "geometry": { "type": "Point", "coordinates": [ 138.388461134642512, 34.981204077624781 ] } },
{ "type": "Feature", "properties": { "P29_001": "22101", "P29_002": "D122310000240", "P29_003": "16004", "P29_004": "常葉大学附属橘高等学校", "P29_005": "静岡県静岡市葵区瀬名2-1-1", "P29_006": "4", "P29_007": "0", "P29_008": "00", "P29_009": null }, "geometry": { "type": "Point", "coordinates": [ 138.417060320456386, 35.01393696550258 ] } },
{ "type": "Feature", "properties": { "P29_001": "22101", "P29_002": "D122310000259", "P29_003": "16004", "P29_004": "静岡北高等学校", "P29_005": "静岡県静岡市葵区瀬名5-14-1", "P29_006": "4", "P29_007": "0", "P29_008": "00", "P29_009": null }, "geometry": { "type": "Point", "coordinates": [ 138.421943285635052, 35.027096893890608 ] } },
{ "type": "Feature", "properties": { "P29_001": "22101", "P29_002": "D122310000268", "P29_003": "16004", "P29_004": "静岡学園高等学校", "P29_005": "静岡県静岡市葵区東鷹匠町25", "P29_006": "4", "P29_007": "0", "P29_008": "00", "P29_009": null }, "geometry": { "type": "Point", "coordinates": [ 138.39434580031778, 34.982568217578446 ] } },
{ "type": "Feature", "properties": { "P29_001": "22212", "P29_002": "D122310000277", "P29_003": "16004", "P29_004": "焼津高等学校", "P29_005": "静岡県焼津市中港1-1-8", "P29_006": "4", "P29_007": "0", "P29_008": "00", "P29_009": null }, "geometry": { "type": "Point", "coordinates": [ 138.3205749701836, 34.872474261039656 ] } },
{ "type": "Feature", "properties": { "P29_001": "22214", "P29_002": "D122310000286", "P29_003": "16004", "P29_004": "藤枝順心高等学校", "P29_005": "静岡県藤枝市前島2-3-1", "P29_006": "4", "P29_007": "0", "P29_008": "00", "P29_009": null }, "geometry": { "type": "Point", "coordinates": [ 138.253110495856021, 34.845852643101622 ] } },
{ "type": "Feature", "properties": { "P29_001": "22209", "P29_002": "D122310000295", "P29_003": "16004", "P29_004": "島田樟誠高等学校", "P29_005": "静岡県島田市伊太2075-1", "P29_006": "4", "P29_007": "0", "P29_008": "00", "P29_009": null }, "geometry": { "type": "Point", "coordinates": [ 138.153071499945753, 34.847532984489632 ] } },
{ "type": "Feature", "properties": { "P29_001": "22102", "P29_002": "D122310000302", "P29_003": "16004", "P29_004": "静岡聖光学院高等学校", "P29_005": "静岡県静岡市駿河区小鹿1440", "P29_006": "4", "P29_007": "0", "P29_008": "00", "P29_009": null }, "geometry": { "type": "Point", "coordinates": [ 138.433648581687805, 34.971769903236485 ] } },
{ "type": "Feature", "properties": { "P29_001": "22224", "P29_002": "D122310000311", "P29_003": "16004", "P29_004": "常葉大学附属菊川高等学校", "P29_005": "静岡県菊川市半済1550", "P29_006": "4", "P29_007": "0", "P29_008": "00", "P29_009": null }, "geometry": { "type": "Point", "coordinates": [ 138.081369345893961, 34.756730212305918 ] } },
{ "type": "Feature", "properties": { "P29_001": "22214", "P29_002": "D122310000320", "P29_003": "16004", "P29_004": "藤枝明誠高等学校", "P29_005": "静岡県藤枝市大洲2-2-1", "P29_006": "4", "P29_007": "0", "P29_008": "00", "P29_009": null }, "geometry": { "type": "Point", "coordinates": [ 138.251716767170336, 34.833075362387675 ] } },
{ "type": "Feature", "properties": { "P29_001": "22211", "P29_002": "D122310000339", "P29_003": "16004", "P29_004": "磐田東高等学校", "P29_005": "静岡県磐田市見付180-5", "P29_006": "4", "P29_007": "0", "P29_008": "00", "P29_009": null }, "geometry": { "type": "Point", "coordinates": [ 137.865230579769218, 34.721381222222888 ] } },
{ "type": "Feature", "properties": { "P29_001": "22131", "P29_002": "D122310000348", "P29_003": "16004", "P29_004": "浜松学院高等学校", "P29_005": "静岡県浜松市中区高林1-17-2", "P29_006": "4", "P29_007": "0", "P29_008": "00", "P29_009": null }, "geometry": { "type": "Point", "coordinates": [ 137.729289337027524, 34.728036394876433 ] } },
{ "type": "Feature", "properties": { "P29_001": "22131", "P29_002": "D122310000357", "P29_003": "16004", "P29_004": "静岡県西遠女子学園高等学校", "P29_005": "静岡県浜松市中区佐藤3-20-1", "P29_006": "4", "P29_007": "0", "P29_008": "00", "P29_009": null }, "geometry": { "type": "Point", "coordinates": [ 137.751655283885611, 34.714364447197774 ] } },
{ "type": "Feature", "properties": { "P29_001": "22131", "P29_002": "D122310000366", "P29_003": "16004", "P29_004": "浜松開誠館高等学校", "P29_005": "静岡県浜松市中区松城町207-2", "P29_006": "4", "P29_007": "0", "P29_008": "00", "P29_009": null }, "geometry": { "type": "Point", "coordinates": [ 137.723352661478827, 34.70971349299947 ] } },
{ "type": "Feature", "properties": { "P29_001": "22131", "P29_002": "D122310000375", "P29_003": "16004", "P29_004": "浜松学芸高等学校", "P29_005": "静岡県浜松市中区下池川町34-3", "P29_006": "4", "P29_007": "0", "P29_008": "00", "P29_009": null }, "geometry": { "type": "Point", "coordinates": [ 137.727403641691126, 34.718961421321772 ] } },
{ "type": "Feature", "properties": { "P29_001": "22131", "P29_002": "D122310000384", "P29_003": "16004", "P29_004": "浜松修学舎高等学校", "P29_005": "静岡県浜松市中区向宿2-20-1", "P29_006": "4", "P29_007": "0", "P29_008": "00", "P29_009": null }, "geometry": { "type": "Point", "coordinates": [ 137.752839496648477, 34.705186586365173 ] } },
{ "type": "Feature", "properties": { "P29_001": "22131", "P29_002": "D122310000393", "P29_003": "16004", "P29_004": "浜松聖星高等学校", "P29_005": "静岡県浜松市中区蜆塚3-14-1", "P29_006": "4", "P29_007": "0", "P29_008": "00", "P29_009": null }, "geometry": { "type": "Point", "coordinates": [ 137.706260039518014, 34.714925957287136 ] } },
{ "type": "Feature", "properties": { "P29_001": "22132", "P29_002": "D122310000400", "P29_003": "16004", "P29_004": "浜松日体高等学校", "P29_005": "静岡県浜松市東区半田山3-30-1", "P29_006": "4", "P29_007": "0", "P29_008": "00", "P29_009": null }, "geometry": { "type": "Point", "coordinates": [ 137.741169951757001, 34.774111463801162 ] } },
{ "type": "Feature", "properties": { "P29_001": "22135", "P29_002": "D122310000419", "P29_003": "16004", "P29_004": "聖隷クリストファー高等学校", "P29_005": "静岡県浜松市北区三方原町3453", "P29_006": "4", "P29_007": "0", "P29_008": "00", "P29_009": null }, "geometry": { "type": "Point", "coordinates": [ 137.696030924887737, 34.792258563763845 ] } },
{ "type": "Feature", "properties": { "P29_001": "22133", "P29_002": "D122310000428", "P29_003": "16004", "P29_004": "オイスカ浜松国際高等学校", "P29_005": "静岡県浜松市西区和地町5835", "P29_006": "4", "P29_007": "0", "P29_008": "00", "P29_009": null }, "geometry": { "type": "Point", "coordinates": [ 137.652832530192427, 34.758763583221629 ] } },
{ "type": "Feature", "properties": { "P29_001": "22135", "P29_002": "D122310000437", "P29_003": "16004", "P29_004": "浜松啓陽高等学校", "P29_005": "静岡県浜松市北区三幸町421", "P29_006": "4", "P29_007": "0", "P29_008": "00", "P29_009": null }, "geometry": { "type": "Point", "coordinates": [ 137.728324245428269, 34.8036428179674 ] } },
{ "type": "Feature", "properties": { "P29_001": "22424", "P29_002": "D122310000446", "P29_003": "16004", "P29_004": "キラリ高等学校", "P29_005": "静岡県榛原郡吉田町神戸726-4", "P29_006": "4", "P29_007": "0", "P29_008": "00", "P29_009": null }, "geometry": { "type": "Point", "coordinates": [ 138.245440511458639, 34.789219612331692 ] } }
]
}
