{
"type": "FeatureCollection",
"name": "geo_22_専修学校",
"crs": { "type": "name", "properties": { "name": "urn:ogc:def:crs:EPSG::6668" } },
"features": [
{ "type": "Feature", "properties": { "P29_001": "22341", "P29_002": "H122210000010", "P29_003": "16016", "P29_004": "静岡県立看護専門学校", "P29_005": "静岡県駿東郡清水町長沢212-1", "P29_006": "2", "P29_007": "0", "P29_008": "00", "P29_009": null }, "geometry": { "type": "Point", "coordinates": [ 138.896751004571144, 35.106492001507505 ] } },
{ "type": "Feature", "properties": { "P29_001": "22131", "P29_002": "H122210000029", "P29_003": "16016", "P29_004": "浜松市立看護専門学校", "P29_005": "静岡県浜松市中区佐鳴台5-8-1", "P29_006": "3", "P29_007": "0", "P29_008": "00", "P29_009": null }, "geometry": { "type": "Point", "coordinates": [ 137.699452289466109, 34.714301628777598 ] } },
{ "type": "Feature", "properties": { "P29_001": "22102", "P29_002": "H122210000038", "P29_003": "16016", "P29_004": "静岡市立静岡看護専門学校", "P29_005": "静岡県静岡市駿河区南八幡町8-1", "P29_006": "3", "P29_007": "0", "P29_008": "00", "P29_009": null }, "geometry": { "type": "Point", "coordinates": [ 138.402718373324575, 34.960330759522861 ] } },
{ "type": "Feature", "properties": { "P29_001": "22209", "P29_002": "H122210000047", "P29_003": "16016", "P29_004": "島田市立看護専門学校", "P29_005": "静岡県島田市野田1065-1", "P29_006": "3", "P29_007": "0", "P29_008": "00", "P29_009": null }, "geometry": { "type": "Point", "coordinates": [ 138.183910069419113, 34.847138858247312 ] } },
{ "type": "Feature", "properties": { "P29_001": "22212", "P29_002": "H122210000056", "P29_003": "16016", "P29_004": "組合立静岡県中部看護専門学校", "P29_005": "静岡県焼津市東小川1-6-9", "P29_006": "3", "P29_007": "0", "P29_008": "00", "P29_009": null }, "geometry": { "type": "Point", "coordinates": [ 138.313811328194191, 34.860686548375831 ] } },
{ "type": "Feature", "properties": { "P29_001": "22210", "P29_002": "H122210000065", "P29_003": "16016", "P29_004": "富士市立看護専門学校", "P29_005": "静岡県富士市本市場新田111-1", "P29_006": "3", "P29_007": "0", "P29_008": "00", "P29_009": null }, "geometry": { "type": "Point", "coordinates": [ 138.657504698523582, 35.167143321868558 ] } },
{ "type": "Feature", "properties": { "P29_001": "22203", "P29_002": "H122210000074", "P29_003": "16016", "P29_004": "沼津市立看護専門学校", "P29_005": "静岡県沼津市大諏訪46", "P29_006": "3", "P29_007": "0", "P29_008": "00", "P29_009": null }, "geometry": { "type": "Point", "coordinates": [ 138.826482106560405, 35.111623532780058 ] } },
{ "type": "Feature", "properties": { "P29_001": "22103", "P29_002": "H122210000083", "P29_003": "16016", "P29_004": "静岡市立清水看護専門学校", "P29_005": "静岡県静岡市清水区宮加三1221-5", "P29_006": "3", "P29_007": "0", "P29_008": "00", "P29_009": null }, "geometry": { "type": "Point", "coordinates": [ 138.489243201836501, 34.981523059136606 ] } },
{ "type": "Feature", "properties": { "P29_001": "22216", "P29_002": "H122210000109", "P29_003": "16016", "P29_004": "東海アクシス看護専門学校", "P29_005": "静岡県袋井市上田町267-30", "P29_006": "3", "P29_007": "0", "P29_008": "00", "P29_009": null }, "geometry": { "type": "Point", "coordinates": [ 137.935380941114715, 34.736804856339241 ] } },
{ "type": "Feature", "properties": { "P29_001": "22203", "P29_002": "H122310000018", "P29_003": "16016", "P29_004": "沼津情報・ビジネス専門学校", "P29_005": "静岡県沼津市西条町17-1", "P29_006": "4", "P29_007": "0", "P29_008": "00", "P29_009": null }, "geometry": { "type": "Point", "coordinates": [ 138.854871120571886, 35.101906452546082 ] } },
{ "type": "Feature", "properties": { "P29_001": "22203", "P29_002": "H122310000027", "P29_003": "16016", "P29_004": "大原公務員医療観光専門学校沼津校", "P29_005": "静岡県沼津市大手町5-5-11", "P29_006": "4", "P29_007": "0", "P29_008": "00", "P29_009": null }, "geometry": { "type": "Point", "coordinates": [ 138.858169398590491, 35.099445569003734 ] } },
{ "type": "Feature", "properties": { "P29_001": "22203", "P29_002": "H122310000036", "P29_003": "16016", "P29_004": "大原介護福祉専門学校沼津校", "P29_005": "静岡県沼津市大手町5-5-11", "P29_006": "4", "P29_007": "0", "P29_008": "00", "P29_009": null }, "geometry": { "type": "Point", "coordinates": [ 138.858174859365079, 35.099512915804475 ] } },
{ "type": "Feature", "properties": { "P29_001": "22205", "P29_002": "H122310000045", "P29_003": "16016", "P29_004": "国際観光専門学校熱海校", "P29_005": "静岡県熱海市中央町13-4", "P29_006": "4", "P29_007": "0", "P29_008": "00", "P29_009": null }, "geometry": { "type": "Point", "coordinates": [ 139.0732311951501, 35.094071775560337 ] } },
{ "type": "Feature", "properties": { "P29_001": "22205", "P29_002": "H122310000063", "P29_003": "16016", "P29_004": "東海医療学園専門学校", "P29_005": "静岡県熱海市桃山町20-7", "P29_006": "4", "P29_007": "0", "P29_008": "00", "P29_009": null }, "geometry": { "type": "Point", "coordinates": [ 139.079557616847268, 35.10609844442066 ] } },
{ "type": "Feature", "properties": { "P29_001": "22205", "P29_002": "H122310000072", "P29_003": "16016", "P29_004": "国際ペットビジネス専門学校熱海校", "P29_005": "静岡県熱海市田原本町9-1", "P29_006": "4", "P29_007": "0", "P29_008": "00", "P29_009": null }, "geometry": { "type": "Point", "coordinates": [ 139.079043995131599, 35.10335899855351 ] } },
{ "type": "Feature", "properties": { "P29_001": "22206", "P29_002": "H122310000081", "P29_003": "16016", "P29_004": "中央歯科衛生士調理製菓専門学校", "P29_005": "静岡県三島市一番町15-35", "P29_006": "4", "P29_007": "0", "P29_008": "00", "P29_009": null }, "geometry": { "type": "Point", "coordinates": [ 138.91048854020849, 35.125150655217183 ] } },
{ "type": "Feature", "properties": { "P29_001": "22206", "P29_002": "H122310000090", "P29_003": "16016", "P29_004": "静岡県東部総合美容専門学校", "P29_005": "静岡県三島市寿町3-42", "P29_006": "4", "P29_007": "0", "P29_008": "00", "P29_009": null }, "geometry": { "type": "Point", "coordinates": [ 138.90836501713278, 35.124976838663237 ] } },
{ "type": "Feature", "properties": { "P29_001": "22222", "P29_002": "H122310000107", "P29_003": "16016", "P29_004": "富士コンピュータ専門学校", "P29_005": "静岡県伊豆市中原戸277-2", "P29_006": "4", "P29_007": "0", "P29_008": "00", "P29_009": null }, "geometry": { "type": "Point", "coordinates": [ 139.014890731843337, 34.93543987445797 ] } },
{ "type": "Feature", "properties": { "P29_001": "22210", "P29_002": "H122310000116", "P29_003": "16016", "P29_004": "富士調理技術専門学校", "P29_005": "静岡県富士市岩本1951", "P29_006": "4", "P29_007": "0", "P29_008": "00", "P29_009": null }, "geometry": { "type": "Point", "coordinates": [ 138.633285980245461, 35.17494983631854 ] } },
{ "type": "Feature", "properties": { "P29_001": "22210", "P29_002": "H122310000125", "P29_003": "16016", "P29_004": "タカヤマアドバンスビューティー専門学校", "P29_005": "静岡県富士市松岡字六軒屋1248", "P29_006": "4", "P29_007": "0", "P29_008": "00", "P29_009": null }, "geometry": { "type": "Point", "coordinates": [ 138.641122156051921, 35.152932053788284 ] } },
{ "type": "Feature", "properties": { "P29_001": "22210", "P29_002": "H122310000134", "P29_003": "16016", "P29_004": "専門学校富士リハビリテーション大学校", "P29_005": "静岡県富士市伝法2527-1", "P29_006": "4", "P29_007": "0", "P29_008": "00", "P29_009": null }, "geometry": { "type": "Point", "coordinates": [ 138.671309081585235, 35.172934587965656 ] } },
{ "type": "Feature", "properties": { "P29_001": "22210", "P29_002": "H122310000143", "P29_003": "16016", "P29_004": "ＪＡ静岡厚生連するが看護専門学校", "P29_005": "静岡県富士市中之郷2500-1", "P29_006": "4", "P29_007": "0", "P29_008": "00", "P29_009": null }, "geometry": { "type": "Point", "coordinates": [ 138.616365827823586, 35.133601491467267 ] } },
{ "type": "Feature", "properties": { "P29_001": "22207", "P29_002": "H122310000152", "P29_003": "16016", "P29_004": "富士宮高等専修学校", "P29_005": "静岡県富士宮市中央町14-7", "P29_006": "4", "P29_007": "0", "P29_008": "00", "P29_009": null }, "geometry": { "type": "Point", "coordinates": [ 138.615933091532241, 35.222568057494193 ] } },
{ "type": "Feature", "properties": { "P29_001": "22207", "P29_002": "H122310000161", "P29_003": "16016", "P29_004": "日本建築専門学校", "P29_005": "静岡県富士宮市上井出2730-5", "P29_006": "4", "P29_007": "0", "P29_008": "00", "P29_009": null }, "geometry": { "type": "Point", "coordinates": [ 138.620641752361706, 35.334994492551495 ] } },
{ "type": "Feature", "properties": { "P29_001": "22208", "P29_002": "H122310000170", "P29_003": "16016", "P29_004": "日本書道芸術専門学校", "P29_005": "静岡県伊東市吉田1022", "P29_006": "4", "P29_007": "0", "P29_008": "00", "P29_009": null }, "geometry": { "type": "Point", "coordinates": [ 139.118205981601989, 34.943039555484546 ] } },
{ "type": "Feature", "properties": { "P29_001": "22219", "P29_002": "H122310000189", "P29_003": "16016", "P29_004": "湘南医療大学附属下田看護専門学校", "P29_005": "静岡県下田市柿崎289", "P29_006": "4", "P29_007": "0", "P29_008": "00", "P29_009": null }, "geometry": { "type": "Point", "coordinates": [ 138.963463798648974, 34.675107241143756 ] } },
{ "type": "Feature", "properties": { "P29_001": "22215", "P29_002": "H122310000198", "P29_003": "16016", "P29_004": "御殿場看護学校", "P29_005": "静岡県御殿場市川島田198-3", "P29_006": "4", "P29_007": "0", "P29_008": "00", "P29_009": null }, "geometry": { "type": "Point", "coordinates": [ 138.92436460632419, 35.294595178417772 ] } },
{ "type": "Feature", "properties": { "P29_001": "22203", "P29_002": "H122310000205", "P29_003": "16016", "P29_004": "国際マネジメント＆ケア専門学校", "P29_005": "静岡県沼津市高島本町12-22", "P29_006": "4", "P29_007": "0", "P29_008": "00", "P29_009": null }, "geometry": { "type": "Point", "coordinates": [ 138.861039076373686, 35.109921201984747 ] } },
{ "type": "Feature", "properties": { "P29_001": "22341", "P29_002": "H122310000214", "P29_003": "16016", "P29_004": "静岡医療センター附属静岡看護学校", "P29_005": "静岡県駿東郡清水町長沢762-1", "P29_006": "4", "P29_007": "0", "P29_008": "00", "P29_009": null }, "geometry": { "type": "Point", "coordinates": [ 138.889217422419165, 35.099648050091922 ] } },
{ "type": "Feature", "properties": { "P29_001": "22101", "P29_002": "H122310000223", "P29_003": "16016", "P29_004": "静岡産業技術専門学校", "P29_005": "静岡県静岡市葵区宮前町110-11", "P29_006": "4", "P29_007": "0", "P29_008": "00", "P29_009": null }, "geometry": { "type": "Point", "coordinates": [ 138.406833538722111, 34.983082684427792 ] } },
{ "type": "Feature", "properties": { "P29_001": "22101", "P29_002": "H122310000232", "P29_003": "16016", "P29_004": "専門学校ノアデザインカレッジ", "P29_005": "静岡県静岡市葵区伝馬町8-10", "P29_006": "4", "P29_007": "0", "P29_008": "00", "P29_009": null }, "geometry": { "type": "Point", "coordinates": [ 138.387981092877624, 34.974950479469861 ] } },
{ "type": "Feature", "properties": { "P29_001": "22101", "P29_002": "H122310000241", "P29_003": "16016", "P29_004": "静岡デザイン専門学校", "P29_005": "静岡県静岡市葵区鷹匠2-19-15", "P29_006": "4", "P29_007": "0", "P29_008": "00", "P29_009": null }, "geometry": { "type": "Point", "coordinates": [ 138.390502996931104, 34.976954003435544 ] } },
{ "type": "Feature", "properties": { "P29_001": "22101", "P29_002": "H122310000250", "P29_003": "16016", "P29_004": "静岡県美容専門学校", "P29_005": "静岡県静岡市葵区春日2-4-10", "P29_006": "4", "P29_007": "0", "P29_008": "00", "P29_009": null }, "geometry": { "type": "Point", "coordinates": [ 138.400963712020115, 34.979449869021316 ] } },
{ "type": "Feature", "properties": { "P29_001": "22101", "P29_002": "H122310000269", "P29_003": "16016", "P29_004": "中央調理製菓専門学校静岡校", "P29_005": "静岡県静岡市葵区七間町15-1", "P29_006": "4", "P29_007": "0", "P29_008": "00", "P29_009": null }, "geometry": { "type": "Point", "coordinates": [ 138.379769263636149, 34.97227414406084 ] } },
{ "type": "Feature", "properties": { "P29_001": "22102", "P29_002": "H122310000278", "P29_003": "16016", "P29_004": "辻村和服専門学校", "P29_005": "静岡県静岡市駿河区中田1-18-13", "P29_006": "4", "P29_007": "0", "P29_008": "00", "P29_009": null }, "geometry": { "type": "Point", "coordinates": [ 138.392555583884786, 34.964452755340666 ] } },
{ "type": "Feature", "properties": { "P29_001": "22102", "P29_002": "H122310000287", "P29_003": "16016", "P29_004": "専修学校静岡学園早慶セミナー", "P29_005": "静岡県静岡市駿河区八幡1-1-1", "P29_006": "4", "P29_007": "0", "P29_008": "00", "P29_009": null }, "geometry": { "type": "Point", "coordinates": [ 138.392939613771517, 34.973098419598536 ] } },
{ "type": "Feature", "properties": { "P29_001": "22102", "P29_002": "H122310000296", "P29_003": "16016", "P29_004": "プロスペラ学院ビジネス専門学校", "P29_005": "静岡県静岡市駿河区丸子5522-1", "P29_006": "4", "P29_007": "0", "P29_008": "00", "P29_009": null }, "geometry": { "type": "Point", "coordinates": [ 138.328641084049906, 34.94453847387814 ] } },
{ "type": "Feature", "properties": { "P29_001": "22101", "P29_002": "H122310000303", "P29_003": "16016", "P29_004": "大原簿記情報医療専門学校静岡校", "P29_005": "静岡県静岡市葵区柚木103-1", "P29_006": "4", "P29_007": "0", "P29_008": "00", "P29_009": null }, "geometry": { "type": "Point", "coordinates": [ 138.406366090894096, 34.980750044711932 ] } },
{ "type": "Feature", "properties": { "P29_001": "22101", "P29_002": "H122310000312", "P29_003": "16016", "P29_004": "駿河学院専門学校", "P29_005": "静岡県静岡市葵区音羽町19-22", "P29_006": "4", "P29_007": "0", "P29_008": "00", "P29_009": null }, "geometry": { "type": "Point", "coordinates": [ 138.395518778499877, 34.979192138869088 ] } },
{ "type": "Feature", "properties": { "P29_001": "22102", "P29_002": "H122310000321", "P29_003": "16016", "P29_004": "専門学校静岡電子情報カレッジ", "P29_005": "静岡県静岡市駿河区南町13-5", "P29_006": "4", "P29_007": "0", "P29_008": "00", "P29_009": null }, "geometry": { "type": "Point", "coordinates": [ 138.390940874743364, 34.970467479396646 ] } },
{ "type": "Feature", "properties": { "P29_001": "22102", "P29_002": "H122310000330", "P29_003": "16016", "P29_004": "静岡済生会看護専門学校", "P29_005": "静岡県静岡市駿河区小鹿1-1-24", "P29_006": "4", "P29_007": "0", "P29_008": "00", "P29_009": null }, "geometry": { "type": "Point", "coordinates": [ 138.414220001615206, 34.97558499737351 ] } },
{ "type": "Feature", "properties": { "P29_001": "22101", "P29_002": "H122310000349", "P29_003": "16016", "P29_004": "専門学校静岡工科自動車大学校", "P29_005": "静岡県静岡市葵区宮前町52-1", "P29_006": "4", "P29_007": "0", "P29_008": "00", "P29_009": null }, "geometry": { "type": "Point", "coordinates": [ 138.405123738412698, 34.984640134836532 ] } },
{ "type": "Feature", "properties": { "P29_001": "22102", "P29_002": "H122310000358", "P29_003": "16016", "P29_004": "専門学校静岡医療秘書学院", "P29_005": "静岡県静岡市駿河区石田1-20-11", "P29_006": "4", "P29_007": "0", "P29_008": "00", "P29_009": null }, "geometry": { "type": "Point", "coordinates": [ 138.399376996760822, 34.963468995817969 ] } },
{ "type": "Feature", "properties": { "P29_001": "22101", "P29_002": "H122310000367", "P29_003": "16016", "P29_004": "大原トラベル・ホテル・ブライダル専門学校静岡校", "P29_005": "静岡県静岡市葵区柚木103-1", "P29_006": "4", "P29_007": "0", "P29_008": "00", "P29_009": null }, "geometry": { "type": "Point", "coordinates": [ 138.406293329236433, 34.980824607717501 ] } },
{ "type": "Feature", "properties": { "P29_001": "22101", "P29_002": "H122310000376", "P29_003": "16016", "P29_004": "大原法律公務員専門学校静岡校", "P29_005": "静岡県静岡市葵区柚木103-1", "P29_006": "4", "P29_007": "0", "P29_008": "00", "P29_009": null }, "geometry": { "type": "Point", "coordinates": [ 138.406233221780127, 34.980900904746456 ] } },
{ "type": "Feature", "properties": { "P29_001": "22102", "P29_002": "H122310000385", "P29_003": "16016", "P29_004": "静岡福祉医療専門学校", "P29_005": "静岡県静岡市駿河区森下町4-25", "P29_006": "4", "P29_007": "0", "P29_008": "00", "P29_009": null }, "geometry": { "type": "Point", "coordinates": [ 138.393477394715433, 34.972375752281835 ] } },
{ "type": "Feature", "properties": { "P29_001": "22101", "P29_002": "H122310000394", "P29_003": "16016", "P29_004": "静進情報高等専修学校", "P29_005": "静岡県静岡市葵区音羽町26-31", "P29_006": "4", "P29_007": "0", "P29_008": "00", "P29_009": null }, "geometry": { "type": "Point", "coordinates": [ 138.3964612969462, 34.978650278387015 ] } },
{ "type": "Feature", "properties": { "P29_001": "22101", "P29_002": "H122310000401", "P29_003": "16016", "P29_004": "静岡インターナショナル・エア・リゾート専門学校", "P29_005": "静岡県静岡市葵区宮前町110-11", "P29_006": "4", "P29_007": "0", "P29_008": "00", "P29_009": null }, "geometry": { "type": "Point", "coordinates": [ 138.406605870014403, 34.982787565689442 ] } },
{ "type": "Feature", "properties": { "P29_001": "22102", "P29_002": "H122310000410", "P29_003": "16016", "P29_004": "国際ことば学院外国語専門学校", "P29_005": "静岡県静岡市駿河区稲川3-9-4", "P29_006": "4", "P29_007": "0", "P29_008": "00", "P29_009": null }, "geometry": { "type": "Point", "coordinates": [ 138.395640241773918, 34.967630595422698 ] } },
{ "type": "Feature", "properties": { "P29_001": "22102", "P29_002": "H122310000429", "P29_003": "16016", "P29_004": "専門学校中央医療健康大学校", "P29_005": "静岡県静岡市駿河区曲金6-7-15", "P29_006": "4", "P29_007": "0", "P29_008": "00", "P29_009": null }, "geometry": { "type": "Point", "coordinates": [ 138.415165712203816, 34.982700002333438 ] } },
{ "type": "Feature", "properties": { "P29_001": "22103", "P29_002": "H122310000438", "P29_003": "16016", "P29_004": "川口調理師専門学校", "P29_005": "静岡県静岡市清水区追分2-6-4", "P29_006": "4", "P29_007": "0", "P29_008": "00", "P29_009": null }, "geometry": { "type": "Point", "coordinates": [ 138.474542520919215, 35.013609571966221 ] } },
{ "type": "Feature", "properties": { "P29_001": "22103", "P29_002": "H122310000447", "P29_003": "16016", "P29_004": "清水学院高等専修学校", "P29_005": "静岡県静岡市清水区二の丸町6-51", "P29_006": "4", "P29_007": "0", "P29_008": "00", "P29_009": null }, "geometry": { "type": "Point", "coordinates": [ 138.479636050658172, 35.022488133100431 ] } },
{ "type": "Feature", "properties": { "P29_001": "22102", "P29_002": "H122310000456", "P29_003": "16016", "P29_004": "静岡医療学園専門学校", "P29_005": "静岡県静岡市駿河区みずほ5-14-22", "P29_006": "4", "P29_007": "0", "P29_008": "00", "P29_009": null }, "geometry": { "type": "Point", "coordinates": [ 138.364442744454664, 34.939676727324454 ] } },
{ "type": "Feature", "properties": { "P29_001": "22103", "P29_002": "H122310000465", "P29_003": "16016", "P29_004": "中央動物総合専門学校", "P29_005": "静岡県静岡市清水区辻1-12-17", "P29_006": "4", "P29_007": "0", "P29_008": "00", "P29_009": null }, "geometry": { "type": "Point", "coordinates": [ 138.488943567137483, 35.027069265056497 ] } },
{ "type": "Feature", "properties": { "P29_001": "22209", "P29_002": "H122310000474", "P29_003": "16016", "P29_004": "島田実業高等専修学校", "P29_005": "静岡県島田市元島田9217-1", "P29_006": "4", "P29_007": "0", "P29_008": "00", "P29_009": null }, "geometry": { "type": "Point", "coordinates": [ 138.185689194935918, 34.839926401000348 ] } },
{ "type": "Feature", "properties": { "P29_001": "22214", "P29_002": "H122310000483", "P29_003": "16016", "P29_004": "藤枝学院高等専修学校", "P29_005": "静岡県藤枝市大手1-23-33", "P29_006": "4", "P29_007": "0", "P29_008": "00", "P29_009": null }, "geometry": { "type": "Point", "coordinates": [ 138.26755294386453, 34.873363644923678 ] } },
{ "type": "Feature", "properties": { "P29_001": "22213", "P29_002": "H122310000492", "P29_003": "16016", "P29_004": "静岡アルス美容専門学校", "P29_005": "静岡県掛川市葛川1155-2", "P29_006": "4", "P29_007": "0", "P29_008": "00", "P29_009": null }, "geometry": { "type": "Point", "coordinates": [ 138.024344001285925, 34.777874002112767 ] } },
{ "type": "Feature", "properties": { "P29_001": "22223", "P29_002": "H122310000508", "P29_003": "16016", "P29_004": "中遠調理師専門学校", "P29_005": "静岡県御前崎市池新田3891", "P29_006": "4", "P29_007": "0", "P29_008": "00", "P29_009": null }, "geometry": { "type": "Point", "coordinates": [ 138.129913996333954, 34.644784004022462 ] } },
{ "type": "Feature", "properties": { "P29_001": "22344", "P29_002": "H122310000517", "P29_003": "16016", "P29_004": "富士メカニック専門学校", "P29_005": "静岡県駿東郡小山町一色字西裏289-1", "P29_006": "4", "P29_007": "0", "P29_008": "00", "P29_009": null }, "geometry": { "type": "Point", "coordinates": [ 138.944978870464865, 35.339646970432803 ] } },
{ "type": "Feature", "properties": { "P29_001": "22131", "P29_002": "H122310000526", "P29_003": "16016", "P29_004": "デザインテクノロジー専門学校", "P29_005": "静岡県浜松市中区東伊場1-1-8", "P29_006": "4", "P29_007": "0", "P29_008": "00", "P29_009": null }, "geometry": { "type": "Point", "coordinates": [ 137.723808823941027, 34.7013032721771 ] } },
{ "type": "Feature", "properties": { "P29_001": "22131", "P29_002": "H122310000535", "P29_003": "16016", "P29_004": "静岡県西部理容美容専門学校", "P29_005": "静岡県浜松市中区鴨江1-2-4", "P29_006": "4", "P29_007": "0", "P29_008": "00", "P29_009": null }, "geometry": { "type": "Point", "coordinates": [ 137.724304852073118, 34.70387985474305 ] } },
{ "type": "Feature", "properties": { "P29_001": "22132", "P29_002": "H122310000544", "P29_003": "16016", "P29_004": "静岡県厚生連看護専門学校", "P29_005": "静岡県浜松市東区大瀬町1517-3", "P29_006": "4", "P29_007": "0", "P29_008": "00", "P29_009": null }, "geometry": { "type": "Point", "coordinates": [ 137.771137623002687, 34.765303222274312 ] } },
{ "type": "Feature", "properties": { "P29_001": "22131", "P29_002": "H122310000553", "P29_003": "16016", "P29_004": "浜松調理菓子専門学校", "P29_005": "静岡県浜松市中区広沢1-2-2", "P29_006": "4", "P29_007": "0", "P29_008": "00", "P29_009": null }, "geometry": { "type": "Point", "coordinates": [ 137.719570997288713, 34.712173001301025 ] } },
{ "type": "Feature", "properties": { "P29_001": "22131", "P29_002": "H122310000562", "P29_003": "16016", "P29_004": "東海調理製菓専門学校", "P29_005": "静岡県浜松市中区板屋町101-11", "P29_006": "4", "P29_007": "0", "P29_008": "00", "P29_009": null }, "geometry": { "type": "Point", "coordinates": [ 137.733907767743858, 34.707943257543164 ] } },
{ "type": "Feature", "properties": { "P29_001": "22131", "P29_002": "H122310000571", "P29_003": "16016", "P29_004": "大原簿記情報医療専門学校浜松校", "P29_005": "静岡県浜松市中区板屋町101-8", "P29_006": "4", "P29_007": "0", "P29_008": "00", "P29_009": null }, "geometry": { "type": "Point", "coordinates": [ 137.733601957878392, 34.707957996741925 ] } },
{ "type": "Feature", "properties": { "P29_001": "22131", "P29_002": "H122310000580", "P29_003": "16016", "P29_004": "浜松歯科衛生士専門学校", "P29_005": "静岡県浜松市中区鴨江2-11-2", "P29_006": "4", "P29_007": "0", "P29_008": "00", "P29_009": null }, "geometry": { "type": "Point", "coordinates": [ 137.713678012922372, 34.705168192073202 ] } },
{ "type": "Feature", "properties": { "P29_001": "22131", "P29_002": "H122310000599", "P29_003": "16016", "P29_004": "浜松市医師会看護高等専修学校", "P29_005": "静岡県浜松市中区伝馬町311-2", "P29_006": "4", "P29_007": "0", "P29_008": "00", "P29_009": null }, "geometry": { "type": "Point", "coordinates": [ 137.727545524380105, 34.705542262830456 ] } },
{ "type": "Feature", "properties": { "P29_001": "22131", "P29_002": "H122310000606", "P29_003": "16016", "P29_004": "浜松未来総合専門学校", "P29_005": "静岡県浜松市中区中央3-10-31", "P29_006": "4", "P29_007": "0", "P29_008": "00", "P29_009": null }, "geometry": { "type": "Point", "coordinates": [ 137.740948223441421, 34.707142404349796 ] } },
{ "type": "Feature", "properties": { "P29_001": "22131", "P29_002": "H122310000633", "P29_003": "16016", "P29_004": "大原トラベル・ホテル・ブライダル専門学校浜松校", "P29_005": "静岡県浜松市中区板屋町101-8", "P29_006": "4", "P29_007": "0", "P29_008": "00", "P29_009": null }, "geometry": { "type": "Point", "coordinates": [ 137.733591412710609, 34.707902507993595 ] } },
{ "type": "Feature", "properties": { "P29_001": "22131", "P29_002": "H122310000642", "P29_003": "16016", "P29_004": "専門学校東海工科自動車大学校", "P29_005": "静岡県浜松市中区中沢町80-14", "P29_006": "4", "P29_007": "0", "P29_008": "00", "P29_009": null }, "geometry": { "type": "Point", "coordinates": [ 137.731063999580698, 34.723480000078112 ] } },
{ "type": "Feature", "properties": { "P29_001": "22131", "P29_002": "H122310000651", "P29_003": "16016", "P29_004": "ルネサンスデザイン・美容専門学校", "P29_005": "静岡県浜松市中区北田町130-12", "P29_006": "4", "P29_007": "0", "P29_008": "00", "P29_009": null }, "geometry": { "type": "Point", "coordinates": [ 137.731121659361918, 34.712481506344183 ] } },
{ "type": "Feature", "properties": { "P29_001": "22211", "P29_002": "H122310000660", "P29_003": "16016", "P29_004": "東海文化高等専修学校", "P29_005": "静岡県磐田市中泉1694", "P29_006": "4", "P29_007": "0", "P29_008": "00", "P29_009": null }, "geometry": { "type": "Point", "coordinates": [ 137.844333033503943, 34.71183101736603 ] } },
{ "type": "Feature", "properties": { "P29_001": "22211", "P29_002": "H122310000679", "P29_003": "16016", "P29_004": "静岡こども福祉専門学校", "P29_005": "静岡県磐田市立野2008-5", "P29_006": "4", "P29_007": "0", "P29_008": "00", "P29_009": null }, "geometry": { "type": "Point", "coordinates": [ 137.820741744799705, 34.717508014217287 ] } },
{ "type": "Feature", "properties": { "P29_001": "22211", "P29_002": "H122310000688", "P29_003": "16016", "P29_004": "静岡歯科衛生士専門学校", "P29_005": "静岡県磐田市中泉1-1-1", "P29_006": "4", "P29_007": "0", "P29_008": "00", "P29_009": null }, "geometry": { "type": "Point", "coordinates": [ 137.852331003702091, 34.710869995199701 ] } },
{ "type": "Feature", "properties": { "P29_001": "22211", "P29_002": "H122310000697", "P29_003": "16016", "P29_004": "静岡新美容専門学校", "P29_005": "静岡県磐田市中泉1-1-1", "P29_006": "4", "P29_007": "0", "P29_008": "00", "P29_009": null }, "geometry": { "type": "Point", "coordinates": [ 137.852335998809195, 34.710822999713216 ] } },
{ "type": "Feature", "properties": { "P29_001": "22133", "P29_002": "H122310000704", "P29_003": "16016", "P29_004": "オイスカ開発教育専門学校", "P29_005": "静岡県浜松市西区和地町5815", "P29_006": "4", "P29_007": "0", "P29_008": "00", "P29_009": null }, "geometry": { "type": "Point", "coordinates": [ 137.65350460941761, 34.75802067563653 ] } },
{ "type": "Feature", "properties": { "P29_001": "22136", "P29_002": "H122310000713", "P29_003": "16016", "P29_004": "専門学校静岡医療科学専門大学校", "P29_005": "静岡県浜松市浜北区平口2000", "P29_006": "4", "P29_007": "0", "P29_008": "00", "P29_009": null }, "geometry": { "type": "Point", "coordinates": [ 137.769215393700534, 34.795418448935919 ] } },
{ "type": "Feature", "properties": { "P29_001": "22131", "P29_002": "H122310000722", "P29_003": "16016", "P29_004": "大原法律公務員専門学校浜松校", "P29_005": "静岡県浜松市中区板屋町101-8", "P29_006": "4", "P29_007": "0", "P29_008": "00", "P29_009": null }, "geometry": { "type": "Point", "coordinates": [ 137.733599848844818, 34.707849620280349 ] } },
{ "type": "Feature", "properties": { "P29_001": "22131", "P29_002": "H122310000731", "P29_003": "16016", "P29_004": "浜松日建工科専門学校", "P29_005": "静岡県浜松市中区海老塚1-5-7", "P29_006": "4", "P29_007": "0", "P29_008": "00", "P29_009": null }, "geometry": { "type": "Point", "coordinates": [ 137.730567006567469, 34.700349136099035 ] } },
{ "type": "Feature", "properties": { "P29_001": "22136", "P29_002": "H122310000740", "P29_003": "16016", "P29_004": "専門学校浜松医療学院", "P29_005": "静岡県浜松市浜北区貴布祢232-3", "P29_006": "4", "P29_007": "0", "P29_008": "00", "P29_009": null }, "geometry": { "type": "Point", "coordinates": [ 137.780214236074698, 34.792461982026296 ] } },
{ "type": "Feature", "properties": { "P29_001": "22131", "P29_002": "H122310000759", "P29_003": "16016", "P29_004": "東海歯科衛生士専門学校", "P29_005": "静岡県浜松市中区東田町36-8", "P29_006": "4", "P29_007": "0", "P29_008": "00", "P29_009": null }, "geometry": { "type": "Point", "coordinates": [ 137.733814708350138, 34.708992196175423 ] } },
{ "type": "Feature", "properties": { "P29_001": "22225", "P29_002": "H122310000768", "P29_003": "16016", "P29_004": "静岡東都医療専門学校", "P29_005": "静岡県伊豆の国市南江間1949", "P29_006": "4", "P29_007": "0", "P29_008": "00", "P29_009": null }, "geometry": { "type": "Point", "coordinates": [ 138.931139998177684, 35.046697551329174 ] } },
{ "type": "Feature", "properties": { "P29_001": "22131", "P29_002": "H122310000777", "P29_003": "16016", "P29_004": "専門学校浜松デザインカレッジ", "P29_005": "静岡県浜松市中区中央3-10-31", "P29_006": "4", "P29_007": "0", "P29_008": "00", "P29_009": null }, "geometry": { "type": "Point", "coordinates": [ 137.740951386991782, 34.707117261010694 ] } },
{ "type": "Feature", "properties": { "P29_001": "22131", "P29_002": "H122310000786", "P29_003": "16016", "P29_004": "専門学校ルネサンス・ペット・アカデミー", "P29_005": "静岡県浜松市中区北田町134-38", "P29_006": "4", "P29_007": "0", "P29_008": "00", "P29_009": null }, "geometry": { "type": "Point", "coordinates": [ 137.731533257589007, 34.712153733998662 ] } },
{ "type": "Feature", "properties": { "P29_001": "22131", "P29_002": "H122310000795", "P29_003": "16016", "P29_004": "専修学校河合塾浜松校", "P29_005": "静岡県浜松市中区田町326-19", "P29_006": "4", "P29_007": "0", "P29_008": "00", "P29_009": null }, "geometry": { "type": "Point", "coordinates": [ 137.731787005603564, 34.707959997787263 ] } },
{ "type": "Feature", "properties": { "P29_001": "22131", "P29_002": "H122310000802", "P29_003": "16016", "P29_004": "東海こども専門学校", "P29_005": "静岡県浜松市中区東田町36-8", "P29_006": "4", "P29_007": "0", "P29_008": "00", "P29_009": null }, "geometry": { "type": "Point", "coordinates": [ 137.733812599316565, 34.708963584789565 ] } },
{ "type": "Feature", "properties": { "P29_001": "22135", "P29_002": "H122310000811", "P29_003": "16016", "P29_004": "聖隷クリストファー大学介護福祉専門学校", "P29_005": "静岡県浜松市北区三方原町3453", "P29_006": "4", "P29_007": "0", "P29_008": "00", "P29_009": null }, "geometry": { "type": "Point", "coordinates": [ 137.692299507067673, 34.792605192424581 ] } },
{ "type": "Feature", "properties": { "P29_001": "22131", "P29_002": "H122310000820", "P29_003": "16016", "P29_004": "駿台予備学校浜松校", "P29_005": "静岡県浜松市中区旭町6-1", "P29_006": "4", "P29_007": "0", "P29_008": "00", "P29_009": null }, "geometry": { "type": "Point", "coordinates": [ 137.733717379910615, 34.706159171306368 ] } },
{ "type": "Feature", "properties": { "P29_001": "22131", "P29_002": "H122310000839", "P29_003": "16016", "P29_004": "専門学校浜松工科自動車大学校", "P29_005": "静岡県浜松市中区寺島町285-24", "P29_006": "4", "P29_007": "0", "P29_008": "00", "P29_009": null }, "geometry": { "type": "Point", "coordinates": [ 137.743544839988061, 34.699077097003212 ] } }
]
}
