{
"type": "FeatureCollection",
"name": "geo_22_各種学校",
"crs": { "type": "name", "properties": { "name": "urn:ogc:def:crs:EPSG::6668" } },
"features": [
{ "type": "Feature", "properties": { "P29_001": "22203", "P29_002": "H222310000017", "P29_003": "16015", "P29_004": "三島ドレスメーカー女学院", "P29_005": "静岡県沼津市高沢町200", "P29_006": "4", "P29_007": "0", "P29_008": "00", "P29_009": null }, "geometry": { "type": "Point", "coordinates": [ 138.855383935428137, 35.107009309210468 ] } },
{ "type": "Feature", "properties": { "P29_001": "22203", "P29_002": "H222310000026", "P29_003": "16015", "P29_004": "沼津日本語学院", "P29_005": "静岡県沼津市西条町17-1", "P29_006": "4", "P29_007": "0", "P29_008": "00", "P29_009": null }, "geometry": { "type": "Point", "coordinates": [ 138.854876581346502, 35.101977166686851 ] } },
{ "type": "Feature", "properties": { "P29_001": "22206", "P29_002": "H222310000044", "P29_003": "16015", "P29_004": "渡辺ニッテイングスクール", "P29_005": "静岡県三島市広小路町6-19", "P29_006": "4", "P29_007": "0", "P29_008": "00", "P29_009": null }, "geometry": { "type": "Point", "coordinates": [ 138.910383544043157, 35.119579678620063 ] } },
{ "type": "Feature", "properties": { "P29_001": "22210", "P29_002": "H222310000053", "P29_003": "16015", "P29_004": "エスコーラフジ", "P29_005": "静岡県富士市平垣本町6-18", "P29_006": "4", "P29_007": "0", "P29_008": "00", "P29_009": null }, "geometry": { "type": "Point", "coordinates": [ 138.648540369141386, 35.154968873112431 ] } },
{ "type": "Feature", "properties": { "P29_001": "22210", "P29_002": "H222310000062", "P29_003": "16015", "P29_004": "富士山日本語学校", "P29_005": "静岡県富士市横割1-6-16", "P29_006": "4", "P29_007": "0", "P29_008": "00", "P29_009": null }, "geometry": { "type": "Point", "coordinates": [ 138.655419429506992, 35.148918266000521 ] } },
{ "type": "Feature", "properties": { "P29_001": "22301", "P29_002": "H222310000071", "P29_003": "16015", "P29_004": "稲取珠算学校", "P29_005": "静岡県賀茂郡東伊豆町稲取424-8", "P29_006": "4", "P29_007": "0", "P29_008": "00", "P29_009": null }, "geometry": { "type": "Point", "coordinates": [ 139.040411248544899, 34.769942909088023 ] } },
{ "type": "Feature", "properties": { "P29_001": "22305", "P29_002": "H222310000080", "P29_003": "16015", "P29_004": "松崎珠算学校", "P29_005": "静岡県賀茂郡松崎町松崎325-10", "P29_006": "4", "P29_007": "0", "P29_008": "00", "P29_009": null }, "geometry": { "type": "Point", "coordinates": [ 138.777884159643747, 34.752709040342758 ] } },
{ "type": "Feature", "properties": { "P29_001": "22102", "P29_002": "H222310000099", "P29_003": "16015", "P29_004": "静岡朝鮮初中級学校", "P29_005": "静岡県静岡市駿河区中島1171", "P29_006": "4", "P29_007": "0", "P29_008": "00", "P29_009": null }, "geometry": { "type": "Point", "coordinates": [ 138.394519857754716, 34.939021182966222 ] } },
{ "type": "Feature", "properties": { "P29_001": "22101", "P29_002": "H222310000115", "P29_003": "16015", "P29_004": "南條珠算学校", "P29_005": "静岡県静岡市葵区幸町13", "P29_006": "4", "P29_007": "0", "P29_008": "00", "P29_009": null }, "geometry": { "type": "Point", "coordinates": [ 138.370735695387935, 34.965899177258621 ] } },
{ "type": "Feature", "properties": { "P29_001": "22103", "P29_002": "H222310000133", "P29_003": "16015", "P29_004": "興津珠算学校", "P29_005": "静岡県静岡市清水区興津中町360", "P29_006": "4", "P29_007": "0", "P29_008": "00", "P29_009": null }, "geometry": { "type": "Point", "coordinates": [ 138.525149002887332, 35.054417924814501 ] } },
{ "type": "Feature", "properties": { "P29_001": "22131", "P29_002": "H222310000151", "P29_003": "16015", "P29_004": "カワイ音楽学園", "P29_005": "静岡県浜松市中区寺島町200", "P29_006": "4", "P29_007": "0", "P29_008": "00", "P29_009": null }, "geometry": { "type": "Point", "coordinates": [ 137.739743148767673, 34.69952921613568 ] } },
{ "type": "Feature", "properties": { "P29_001": "22131", "P29_002": "H222310000160", "P29_003": "16015", "P29_004": "浜松ブラザー編物学院", "P29_005": "静岡県浜松市中区新津町715", "P29_006": "4", "P29_007": "0", "P29_008": "00", "P29_009": null }, "geometry": { "type": "Point", "coordinates": [ 137.740341182023116, 34.718778337508127 ] } },
{ "type": "Feature", "properties": { "P29_001": "22131", "P29_002": "H222310000188", "P29_003": "16015", "P29_004": "遠州速算学校", "P29_005": "静岡県浜松市中区海老塚2-7-22", "P29_006": "4", "P29_007": "0", "P29_008": "00", "P29_009": null }, "geometry": { "type": "Point", "coordinates": [ 137.732024465298167, 34.699208702281766 ] } },
{ "type": "Feature", "properties": { "P29_001": "22133", "P29_002": "H222310000197", "P29_003": "16015", "P29_004": "ムンド・デ・アレグリア学校", "P29_005": "静岡県浜松市西区雄踏町宇布見9611-1", "P29_006": "4", "P29_007": "0", "P29_008": "00", "P29_009": null }, "geometry": { "type": "Point", "coordinates": [ 137.630695328237266, 34.694367207792119 ] } },
{ "type": "Feature", "properties": { "P29_001": "22132", "P29_002": "H222310000204", "P29_003": "16015", "P29_004": "伯人学校イーエーエス浜松", "P29_005": "静岡県浜松市東区半田山2-24-3", "P29_006": "4", "P29_007": "0", "P29_008": "00", "P29_009": null }, "geometry": { "type": "Point", "coordinates": [ 137.735586277350961, 34.76978625933819 ] } },
{ "type": "Feature", "properties": { "P29_001": "22131", "P29_002": "H222310000213", "P29_003": "16015", "P29_004": "浜松日本語学院", "P29_005": "静岡県浜松市中区中央3-10-8", "P29_006": "4", "P29_007": "0", "P29_008": "00", "P29_009": null }, "geometry": { "type": "Point", "coordinates": [ 137.740945059891089, 34.707160611595334 ] } },
{ "type": "Feature", "properties": { "P29_001": "22216", "P29_002": "H222310000222", "P29_003": "16015", "P29_004": "山梨珠算学校", "P29_005": "静岡県袋井市大谷78", "P29_006": "4", "P29_007": "0", "P29_008": "00", "P29_009": null }, "geometry": { "type": "Point", "coordinates": [ 137.881342450538597, 34.792608254401742 ] } },
{ "type": "Feature", "properties": { "P29_001": "22216", "P29_002": "H222310000231", "P29_003": "16015", "P29_004": "静岡国際言語学院", "P29_005": "静岡県袋井市諸井2331-1", "P29_006": "4", "P29_007": "0", "P29_008": "00", "P29_009": null }, "geometry": { "type": "Point", "coordinates": [ 137.918755776290197, 34.730998131812576 ] } },
{ "type": "Feature", "properties": { "P29_001": "22135", "P29_002": "H222310000240", "P29_003": "16015", "P29_004": "気賀珠算学校", "P29_005": "静岡県浜松市北区細江町気賀694-1", "P29_006": "4", "P29_007": "0", "P29_008": "00", "P29_009": null }, "geometry": { "type": "Point", "coordinates": [ 137.653443212737045, 34.809357777547625 ] } },
{ "type": "Feature", "properties": { "P29_001": "22102", "P29_002": "H222310000259", "P29_003": "16015", "P29_004": "国際ことば学院日本語学校", "P29_005": "静岡県静岡市駿河区八幡3-2-28", "P29_006": "4", "P29_007": "0", "P29_008": "00", "P29_009": null }, "geometry": { "type": "Point", "coordinates": [ 138.395854532255669, 34.967976758454306 ] } },
{ "type": "Feature", "properties": { "P29_001": "22101", "P29_002": "H222310000268", "P29_003": "16015", "P29_004": "静岡日本語教育センター", "P29_005": "静岡県静岡市葵区横田町11-6", "P29_006": "4", "P29_007": "0", "P29_008": "00", "P29_009": null }, "geometry": { "type": "Point", "coordinates": [ 138.398352887675827, 34.977590147233165 ] } }
]
}
